{"type":"FeatureCollection","features":[{"type":"Feature","properties":{"building_id":"B-0001","area_m2":15.7,"vertices":11,"sam_quality":0.939,"veg_frac":0.0,"sat":0.228,"val":0.238,"hue":348.0,"rect":0.635,"solidity":0.907,"ground_likeness":0.006,"parcel_id":"TMP-TO-0001"},"geometry":{"type":"Polygon","coordinates":[[[75.7874062,26.9123792],[75.7874062,26.9123727],[75.7873997,26.9123669],[75.7873884,26.9123648],[75.7873786,26.9123533],[75.7873706,26.9123613],[75.7873658,26.9123614],[75.7873552,26.9123491],[75.7873328,26.9123724],[75.7873385,26.912381],[75.7874014,26.9123807],[75.7874062,26.9123792]]]}},{"type":"Feature","properties":{"building_id":"B-0002","area_m2":26.9,"vertices":7,"sam_quality":0.871,"veg_frac":0.0,"sat":0.274,"val":0.577,"hue":10.0,"rect":0.578,"solidity":0.903,"ground_likeness":0.028,"parcel_id":"TMP-TO-0002"},"geometry":{"type":"Polygon","coordinates":[[[75.7878063,26.912334],[75.7877983,26.9123373],[75.7877887,26.912351],[75.7877773,26.9123569],[75.7877756,26.9123744],[75.7878772,26.9123822],[75.7878142,26.9123381],[75.7878063,26.912334]]]}},{"type":"Feature","properties":{"building_id":"B-0003","area_m2":27.9,"vertices":7,"sam_quality":0.851,"veg_frac":0.0,"sat":0.291,"val":0.239,"hue":342.0,"rect":0.749,"solidity":0.979,"ground_likeness":0.0,"parcel_id":"TMP-TO-0003"},"geometry":{"type":"Polygon","coordinates":[[[75.787883,26.9123343],[75.7878532,26.9123374],[75.7878485,26.912346],[75.7878497,26.9123555],[75.78787,26.9123788],[75.7879119,26.9123745],[75.7879325,26.9123522],[75.787883,26.9123343]]]}},{"type":"Feature","properties":{"building_id":"B-0004","area_m2":17.3,"vertices":4,"sam_quality":0.944,"veg_frac":0.0,"sat":0.221,"val":0.335,"hue":10.0,"rect":0.831,"solidity":0.979,"ground_likeness":0.35,"parcel_id":"TMP-TO-0004"},"geometry":{"type":"Polygon","coordinates":[[[75.7874203,26.912316],[75.787386,26.9123454],[75.7874115,26.9123693],[75.7874458,26.9123399],[75.7874203,26.912316]]]}},{"type":"Feature","properties":{"building_id":"B-0005","area_m2":30.7,"vertices":4,"sam_quality":0.904,"veg_frac":0.0,"sat":0.295,"val":0.139,"hue":340.0,"rect":0.816,"solidity":0.853,"ground_likeness":0.0,"parcel_id":"TMP-TO-0005"},"geometry":{"type":"Polygon","coordinates":[[[75.7881827,26.91231],[75.7881781,26.9123739],[75.7882216,26.9123764],[75.7882262,26.9123125],[75.7881827,26.91231]]]}},{"type":"Feature","properties":{"building_id":"B-0006","area_m2":30.8,"vertices":4,"sam_quality":0.862,"veg_frac":0.0,"sat":0.179,"val":0.27,"hue":320.0,"rect":1.486,"solidity":1.64,"ground_likeness":0.0,"parcel_id":"TMP-TO-0012"},"geometry":{"type":"Polygon","coordinates":[[[75.7882294,26.9123046],[75.7882242,26.9123727],[75.7882651,26.9123752],[75.7882703,26.9123071],[75.7882294,26.9123046]]]}},{"type":"Feature","properties":{"building_id":"B-0007","area_m2":21.7,"vertices":5,"sam_quality":0.951,"veg_frac":0.0,"sat":0.118,"val":0.386,"hue":338.0,"rect":0.866,"solidity":0.991,"ground_likeness":0.15,"parcel_id":"TMP-TO-0006"},"geometry":{"type":"Polygon","coordinates":[[[75.7873678,26.9123152],[75.7873554,26.9123048],[75.7873057,26.9123525],[75.7873288,26.9123719],[75.7873692,26.9123332],[75.7873678,26.9123152]]]}},{"type":"Feature","properties":{"building_id":"B-0008","area_m2":77.0,"vertices":6,"sam_quality":0.89,"veg_frac":0.0,"sat":0.254,"val":0.275,"hue":10.0,"rect":0.857,"solidity":0.953,"ground_likeness":0.35,"parcel_id":"TMP-TO-0007"},"geometry":{"type":"Polygon","coordinates":[[[75.7880815,26.9122932],[75.7880758,26.91233],[75.7880726,26.9123326],[75.788067,26.9123689],[75.7881588,26.9123803],[75.7881706,26.9123043],[75.7880815,26.9122932]]]}},{"type":"Feature","properties":{"building_id":"B-0009","area_m2":15.0,"vertices":5,"sam_quality":0.915,"veg_frac":0.0,"sat":0.329,"val":0.217,"hue":348.0,"rect":0.85,"solidity":0.987,"ground_likeness":0.0,"parcel_id":"TMP-TO-0009"},"geometry":{"type":"Polygon","coordinates":[[[75.7878214,26.9123076],[75.7878119,26.9122921],[75.7877723,26.9123116],[75.7877894,26.9123395],[75.7878197,26.9123246],[75.7878214,26.9123076]]]}},{"type":"Feature","properties":{"building_id":"B-0010","area_m2":94.5,"vertices":4,"sam_quality":0.973,"veg_frac":0.0,"sat":0.126,"val":0.66,"hue":334.0,"rect":0.825,"solidity":0.957,"ground_likeness":0.0,"parcel_id":"TMP-TO-0010"},"geometry":{"type":"Polygon","coordinates":[[[75.7878967,26.9122673],[75.7878874,26.9123453],[75.7879962,26.9123557],[75.7880055,26.9122777],[75.7878967,26.9122673]]]}},{"type":"Feature","properties":{"building_id":"B-0011","area_m2":56.4,"vertices":18,"sam_quality":0.928,"veg_frac":0.0,"sat":0.211,"val":0.343,"hue":8.0,"rect":0.735,"solidity":0.893,"ground_likeness":0.35,"parcel_id":"TMP-TO-0011"},"geometry":{"type":"Polygon","coordinates":[[[75.7880337,26.9123576],[75.7880595,26.9123654],[75.7880643,26.912364],[75.7880674,26.9123394],[75.7880697,26.9123314],[75.7880761,26.9123263],[75.7880792,26.9123025],[75.7880791,26.9122895],[75.7880525,26.9122817],[75.7880451,26.9122579],[75.7880345,26.91225],[75.7880289,26.91225],[75.7880257,26.912258],[75.7880181,26.9123259],[75.7880103,26.9123556],[75.7880119,26.9123628],[75.7880281,26.9123656],[75.7880329,26.9123634],[75.7880337,26.9123576]]]}},{"type":"Feature","properties":{"building_id":"B-0012","area_m2":17.8,"vertices":5,"sam_quality":0.956,"veg_frac":0.0,"sat":0.164,"val":0.396,"hue":10.0,"rect":0.813,"solidity":0.957,"ground_likeness":0.0,"parcel_id":"TMP-TO-0013"},"geometry":{"type":"Polygon","coordinates":[[[75.787383,26.9122784],[75.7873584,26.9122999],[75.7873772,26.9123172],[75.7873864,26.9123374],[75.7874175,26.9123101],[75.787383,26.9122784]]]}},{"type":"Feature","properties":{"building_id":"B-0013","area_m2":21.0,"vertices":15,"sam_quality":0.904,"veg_frac":0.0,"sat":0.245,"val":0.552,"hue":10.0,"rect":0.626,"solidity":0.792,"ground_likeness":0.017,"parcel_id":"TMP-TO-0014"},"geometry":{"type":"Polygon","coordinates":[[[75.787467,26.9123218],[75.787467,26.9123146],[75.7874573,26.912306],[75.7874419,26.9123053],[75.7874241,26.9122946],[75.7874095,26.9122737],[75.7873942,26.9122709],[75.7873869,26.9122746],[75.787383,26.9122804],[75.7874113,26.912304],[75.7874259,26.9123097],[75.7874316,26.9123184],[75.7874316,26.9123263],[75.7874478,26.9123407],[75.7874567,26.912337],[75.787467,26.9123218]]]}},{"type":"Feature","properties":{"building_id":"B-0014","area_m2":98.6,"vertices":5,"sam_quality":0.945,"veg_frac":0.0,"sat":0.177,"val":0.547,"hue":272.0,"rect":0.826,"solidity":0.977,"ground_likeness":0.0,"parcel_id":"TMP-TO-0015"},"geometry":{"type":"Polygon","coordinates":[[[75.7876152,26.9122458],[75.7875791,26.9122279],[75.787511,26.9123382],[75.7875756,26.9123702],[75.7876323,26.9122784],[75.7876152,26.9122458]]]}},{"type":"Feature","properties":{"building_id":"B-0015","area_m2":30.1,"vertices":6,"sam_quality":0.864,"veg_frac":0.0,"sat":0.321,"val":0.267,"hue":10.0,"rect":0.818,"solidity":0.991,"ground_likeness":0.35,"parcel_id":"TMP-TO-0008"},"geometry":{"type":"Polygon","coordinates":[[[75.7876981,26.9123025],[75.787698,26.9122913],[75.7876383,26.9122695],[75.7876195,26.9123108],[75.7876488,26.9123215],[75.787691,26.9123182],[75.7876981,26.9123025]]]}},{"type":"Feature","properties":{"building_id":"B-0016","area_m2":68.8,"vertices":18,"sam_quality":0.975,"veg_frac":0.0,"sat":0.256,"val":0.412,"hue":12.0,"rect":0.768,"solidity":0.877,"ground_likeness":0.0,"parcel_id":"TMP-TO-0016"},"geometry":{"type":"Polygon","coordinates":[[[75.7882146,26.9123046],[75.7882126,26.9122577],[75.7881579,26.9122594],[75.7881506,26.9122537],[75.7881393,26.912253],[75.7881378,26.9122646],[75.7881313,26.9122697],[75.788112,26.9122633],[75.7881087,26.9122568],[75.7880901,26.9122454],[75.7880772,26.9122447],[75.7880724,26.9122484],[75.7880701,26.9122693],[75.7880629,26.912278],[75.7880694,26.9122845],[75.7881211,26.9122979],[75.7882049,26.9123112],[75.788213,26.912309],[75.7882146,26.9123046]]]}},{"type":"Feature","properties":{"building_id":"B-0017","area_m2":14.8,"vertices":5,"sam_quality":0.924,"veg_frac":0.0,"sat":0.362,"val":0.151,"hue":348.0,"rect":0.683,"solidity":1.003,"ground_likeness":0.0,"parcel_id":"TMP-TO-0017"},"geometry":{"type":"Polygon","coordinates":[[[75.7882843,26.9122515],[75.788274,26.9122729],[75.788274,26.9122747],[75.7883128,26.9123108],[75.7883134,26.9122627],[75.7882843,26.9122515]]]}},{"type":"Feature","properties":{"building_id":"B-0018","area_m2":15.7,"vertices":8,"sam_quality":0.95,"veg_frac":0.0,"sat":0.495,"val":0.175,"hue":26.0,"rect":0.832,"solidity":1.002,"ground_likeness":0.35,"parcel_id":"TMP-TO-0018"},"geometry":{"type":"Polygon","coordinates":[[[75.7877769,26.9122554],[75.7877459,26.9122382],[75.7877381,26.9122371],[75.7877267,26.9122537],[75.787726,26.9122597],[75.7877336,26.9122743],[75.7877479,26.9122823],[75.7877625,26.9122762],[75.7877769,26.9122554]]]}},{"type":"Feature","properties":{"building_id":"B-0019","area_m2":14.6,"vertices":7,"sam_quality":0.928,"veg_frac":0.0,"sat":0.305,"val":0.367,"hue":8.0,"rect":0.79,"solidity":0.963,"ground_likeness":0.0,"parcel_id":"TMP-TO-0019"},"geometry":{"type":"Polygon","coordinates":[[[75.7877092,26.9122649],[75.7877176,26.9122535],[75.7876867,26.9122351],[75.7876782,26.9122336],[75.7876626,26.9122547],[75.7876981,26.9122757],[75.787719,26.9122707],[75.7877092,26.9122649]]]}},{"type":"Feature","properties":{"building_id":"B-0020","area_m2":27.5,"vertices":6,"sam_quality":0.867,"veg_frac":0.0,"sat":0.313,"val":0.247,"hue":346.0,"rect":0.812,"solidity":0.959,"ground_likeness":0.0,"parcel_id":"TMP-TO-0020"},"geometry":{"type":"Polygon","coordinates":[[[75.7879642,26.9122315],[75.7879613,26.9122517],[75.7879494,26.9122559],[75.7879474,26.9122698],[75.788016,26.9122778],[75.7880217,26.9122382],[75.7879642,26.9122315]]]}},{"type":"Feature","properties":{"building_id":"B-0021","area_m2":40.4,"vertices":5,"sam_quality":0.992,"veg_frac":0.0,"sat":0.276,"val":0.522,"hue":8.0,"rect":0.921,"solidity":0.989,"ground_likeness":0.0,"parcel_id":"TMP-TO-0021"},"geometry":{"type":"Polygon","coordinates":[[[75.7874412,26.9121984],[75.7874264,26.9122003],[75.7873789,26.9122326],[75.7874133,26.9122733],[75.7874713,26.912234],[75.7874412,26.9121984]]]}},{"type":"Feature","properties":{"building_id":"B-0022","area_m2":29.3,"vertices":9,"sam_quality":0.852,"veg_frac":0.0,"sat":0.391,"val":0.161,"hue":348.0,"rect":0.6,"solidity":0.926,"ground_likeness":0.019,"parcel_id":"TMP-TO-0022"},"geometry":{"type":"Polygon","coordinates":[[[75.7882612,26.9122386],[75.7882587,26.9122192],[75.7882505,26.9122097],[75.7882463,26.912178],[75.7882139,26.9122093],[75.7882084,26.9122238],[75.7881735,26.9122542],[75.7882157,26.9122497],[75.7882206,26.9122429],[75.7882612,26.9122386]]]}},{"type":"Feature","properties":{"building_id":"B-0023","area_m2":43.1,"vertices":6,"sam_quality":0.967,"veg_frac":0.0,"sat":0.612,"val":0.135,"hue":30.0,"rect":0.831,"solidity":0.98,"ground_likeness":0.35,"parcel_id":"TMP-TO-0023"},"geometry":{"type":"Polygon","coordinates":[[[75.7875304,26.9121888],[75.7874752,26.9121906],[75.787471,26.9121988],[75.7874734,26.912258],[75.7875209,26.9122565],[75.7875325,26.9122421],[75.7875304,26.9121888]]]}},{"type":"Feature","properties":{"building_id":"B-0024","area_m2":99.2,"vertices":22,"sam_quality":0.919,"veg_frac":0.0,"sat":0.161,"val":0.627,"hue":338.0,"rect":0.661,"solidity":0.918,"ground_likeness":0.0,"parcel_id":"TMP-TO-0024"},"geometry":{"type":"Polygon","coordinates":[[[75.7877299,26.9122373],[75.7877242,26.9122351],[75.7877234,26.9122272],[75.7877169,26.9122265],[75.7877193,26.9122207],[75.7877072,26.9122107],[75.7877014,26.9121984],[75.7876836,26.9121797],[75.7876577,26.9121662],[75.787635,26.9121446],[75.7876302,26.9121446],[75.7876142,26.9121599],[75.7875726,26.9122136],[75.7875743,26.9122194],[75.7875872,26.9122272],[75.7876058,26.9122351],[75.7876348,26.9122392],[75.7876575,26.9122507],[75.7876631,26.9122506],[75.7876831,26.9122296],[75.7877163,26.9122518],[75.7877283,26.9122459],[75.7877299,26.9122373]]]}},{"type":"Feature","properties":{"building_id":"B-0025","area_m2":98.1,"vertices":20,"sam_quality":0.953,"veg_frac":0.0,"sat":0.144,"val":0.556,"hue":310.0,"rect":0.739,"solidity":0.943,"ground_likeness":0.0,"parcel_id":"TMP-TO-0025"},"geometry":{"type":"Polygon","coordinates":[[[75.7878106,26.9122585],[75.7878234,26.9122411],[75.7878436,26.9122496],[75.7878686,26.9122488],[75.7878869,26.9122292],[75.7879053,26.9122009],[75.7879148,26.9121821],[75.7879148,26.9121741],[75.7878719,26.9121577],[75.7878542,26.9121578],[75.7878494,26.9121528],[75.7878437,26.9121536],[75.7878365,26.9121623],[75.7878326,26.9121775],[75.7878221,26.9121782],[75.7878093,26.912187],[75.787771,26.9122414],[75.7877743,26.9122507],[75.7877897,26.91226],[75.7877953,26.9122564],[75.7878106,26.9122585]]]}},{"type":"Feature","properties":{"building_id":"B-0026","area_m2":70.7,"vertices":7,"sam_quality":0.942,"veg_frac":0.0,"sat":0.194,"val":0.495,"hue":332.0,"rect":0.579,"solidity":0.833,"ground_likeness":0.027,"parcel_id":"TMP-TO-0026"},"geometry":{"type":"Polygon","coordinates":[[[75.7880569,26.9121785],[75.7880167,26.9121531],[75.7879938,26.9121822],[75.7879379,26.912178],[75.7879282,26.9121903],[75.7880239,26.9122508],[75.7880627,26.9122015],[75.7880569,26.9121785]]]}},{"type":"Feature","properties":{"building_id":"B-0027","area_m2":85.7,"vertices":25,"sam_quality":0.883,"veg_frac":0.0,"sat":0.467,"val":0.383,"hue":8.0,"rect":0.673,"solidity":0.893,"ground_likeness":0.0,"parcel_id":"TMP-TO-0028"},"geometry":{"type":"Polygon","coordinates":[[[75.7877948,26.9121878],[75.7877706,26.9121771],[75.7877689,26.9121728],[75.7877439,26.9121613],[75.7877414,26.9121563],[75.787722,26.9121456],[75.7877156,26.9121456],[75.7877125,26.9121622],[75.7877084,26.9121587],[75.7877036,26.9121652],[75.7876858,26.9121566],[75.7876866,26.9121508],[75.7876962,26.9121457],[75.7876881,26.9121378],[75.7876801,26.9121393],[75.7876784,26.912135],[75.7876728,26.9121365],[75.7876526,26.9121308],[75.7876357,26.9121374],[75.7876374,26.9121453],[75.7876569,26.9121654],[75.7876828,26.9121776],[75.7877315,26.9122308],[75.7877662,26.912245],[75.7877997,26.9121979],[75.7877948,26.9121878]]]}},{"type":"Feature","properties":{"building_id":"B-0028","area_m2":82.2,"vertices":13,"sam_quality":0.979,"veg_frac":0.0,"sat":0.194,"val":0.522,"hue":260.0,"rect":0.628,"solidity":0.929,"ground_likeness":0.008,"parcel_id":"TMP-TO-0027"},"geometry":{"type":"Polygon","coordinates":[[[75.787343,26.9122149],[75.7873478,26.9122076],[75.7873583,26.9122054],[75.7873655,26.9121988],[75.7873532,26.9121729],[75.7873765,26.9121576],[75.7873861,26.9121467],[75.787386,26.9121373],[75.787365,26.9121259],[75.7873479,26.9121058],[75.787319,26.9121132],[75.7872981,26.9121292],[75.7872989,26.912244],[75.787343,26.9122149]]]}},{"type":"Feature","properties":{"building_id":"B-0029","area_m2":14.8,"vertices":5,"sam_quality":0.899,"veg_frac":0.0,"sat":0.189,"val":0.501,"hue":8.0,"rect":0.875,"solidity":0.972,"ground_likeness":0.0,"parcel_id":"TMP-TO-0029"},"geometry":{"type":"Polygon","coordinates":[[[75.787792,26.9121417],[75.7877745,26.9121648],[75.7877828,26.9121787],[75.7878028,26.9121909],[75.7878249,26.9121617],[75.787792,26.9121417]]]}},{"type":"Feature","properties":{"building_id":"B-0030","area_m2":167.6,"vertices":5,"sam_quality":0.974,"veg_frac":0.0,"sat":0.198,"val":0.418,"hue":8.0,"rect":0.765,"solidity":0.933,"ground_likeness":0.0,"parcel_id":"TMP-TO-0030"},"geometry":{"type":"Polygon","coordinates":[[[75.7882426,26.9121334],[75.7881809,26.9120768],[75.7880837,26.912162],[75.7881749,26.9122456],[75.7882474,26.912182],[75.7882426,26.9121334]]]}},{"type":"Feature","properties":{"building_id":"B-0031","area_m2":33.1,"vertices":7,"sam_quality":0.926,"veg_frac":0.0,"sat":0.193,"val":0.327,"hue":16.0,"rect":0.734,"solidity":0.938,"ground_likeness":0.35,"parcel_id":"TMP-TO-0031"},"geometry":{"type":"Polygon","coordinates":[[[75.7875506,26.9121456],[75.7875414,26.9121311],[75.7875135,26.9121135],[75.7874844,26.9121171],[75.7874802,26.9121381],[75.7875488,26.9121814],[75.7875682,26.9121567],[75.7875506,26.9121456]]]}},{"type":"Feature","properties":{"building_id":"B-0032","area_m2":27.8,"vertices":5,"sam_quality":0.976,"veg_frac":0.0,"sat":0.244,"val":0.351,"hue":352.0,"rect":0.91,"solidity":0.994,"ground_likeness":0.0,"parcel_id":"TMP-TO-0033"},"geometry":{"type":"Polygon","coordinates":[[[75.7880704,26.9121091],[75.7880354,26.9121461],[75.7880362,26.9121554],[75.788066,26.912178],[75.7881057,26.9121359],[75.7880704,26.9121091]]]}},{"type":"Feature","properties":{"building_id":"B-0033","area_m2":21.1,"vertices":10,"sam_quality":0.947,"veg_frac":0.0,"sat":0.243,"val":0.242,"hue":340.0,"rect":0.613,"solidity":0.928,"ground_likeness":0.014,"parcel_id":"TMP-TO-0032"},"geometry":{"type":"Polygon","coordinates":[[[75.7879751,26.9121687],[75.7880103,26.9121331],[75.7880103,26.9121288],[75.7879763,26.9121066],[75.7879715,26.9121074],[75.7879636,26.9121269],[75.7879693,26.9121399],[75.7879566,26.9121645],[75.7879583,26.912176],[75.7879655,26.912176],[75.7879751,26.9121687]]]}},{"type":"Feature","properties":{"building_id":"B-0034","area_m2":20.9,"vertices":15,"sam_quality":0.893,"veg_frac":0.0,"sat":0.395,"val":0.618,"hue":6.0,"rect":0.636,"solidity":0.844,"ground_likeness":0.005,"parcel_id":"TMP-TO-0034"},"geometry":{"type":"Polygon","coordinates":[[[75.7878405,26.91215],[75.7878162,26.9121349],[75.7878017,26.9121307],[75.787796,26.9121249],[75.7877959,26.9121134],[75.7877887,26.9121141],[75.787787,26.9121062],[75.787758,26.9121028],[75.7877419,26.9121079],[75.7877427,26.9121137],[75.787771,26.9121287],[75.7877823,26.9121301],[75.7877937,26.9121423],[75.7878244,26.9121609],[75.7878373,26.9121608],[75.7878405,26.91215]]]}},{"type":"Feature","properties":{"building_id":"B-0035","area_m2":92.0,"vertices":20,"sam_quality":0.919,"veg_frac":0.0,"sat":0.222,"val":0.416,"hue":348.0,"rect":0.725,"solidity":0.913,"ground_likeness":0.0,"parcel_id":"TMP-TO-0035"},"geometry":{"type":"Polygon","coordinates":[[[75.7879201,26.9121329],[75.787908,26.9121315],[75.7879153,26.9121286],[75.7879263,26.9120989],[75.7879263,26.9120932],[75.7879165,26.9120809],[75.7878729,26.9120602],[75.7878535,26.9120603],[75.7878455,26.9120683],[75.7878376,26.9120908],[75.7878377,26.9121038],[75.787821,26.9121262],[75.7878194,26.9121364],[75.7879349,26.9121733],[75.7879421,26.9121725],[75.7879461,26.912166],[75.7879461,26.9121552],[75.7879396,26.912148],[75.7879395,26.9121393],[75.7879331,26.9121408],[75.7879201,26.9121329]]]}},{"type":"Feature","properties":{"building_id":"B-0036","area_m2":21.4,"vertices":8,"sam_quality":0.926,"veg_frac":0.0,"sat":0.265,"val":0.312,"hue":350.0,"rect":0.814,"solidity":0.955,"ground_likeness":0.0,"parcel_id":"TMP-TO-0036"},"geometry":{"type":"Polygon","coordinates":[[[75.7879637,26.9121271],[75.7879714,26.9120998],[75.7879295,26.9120902],[75.7879173,26.9121332],[75.7879424,26.9121389],[75.7879491,26.9121364],[75.7879572,26.9121421],[75.7879677,26.9121399],[75.7879637,26.9121271]]]}},{"type":"Feature","properties":{"building_id":"B-0037","area_m2":84.2,"vertices":19,"sam_quality":0.917,"veg_frac":0.0,"sat":0.223,"val":0.24,"hue":338.0,"rect":0.608,"solidity":0.889,"ground_likeness":0.016,"parcel_id":"TMP-TO-0037"},"geometry":{"type":"Polygon","coordinates":[[[75.7883129,26.9121914],[75.7883118,26.9120303],[75.7882756,26.9120428],[75.7882765,26.9120565],[75.7882709,26.9120566],[75.7882693,26.9120609],[75.7882524,26.9120704],[75.7882348,26.91209],[75.7882357,26.9120958],[75.7882584,26.9121231],[75.7882617,26.9121346],[75.7882779,26.9121483],[75.7882773,26.9121678],[75.7882733,26.9121743],[75.7882782,26.9121836],[75.7882774,26.9121916],[75.7882943,26.9121908],[75.7882952,26.9121965],[75.7882983,26.9121871],[75.7883129,26.9121914]]]}},{"type":"Feature","properties":{"building_id":"B-0038","area_m2":27.3,"vertices":5,"sam_quality":0.939,"veg_frac":0.0,"sat":0.158,"val":0.337,"hue":348.0,"rect":0.615,"solidity":0.856,"ground_likeness":0.013,"parcel_id":"TMP-TO-0038"},"geometry":{"type":"Polygon","coordinates":[[[75.7880198,26.9120784],[75.7879921,26.9120759],[75.7879801,26.9120929],[75.7880506,26.9121331],[75.7880694,26.9121066],[75.7880198,26.9120784]]]}},{"type":"Feature","properties":{"building_id":"B-0039","area_m2":35.6,"vertices":6,"sam_quality":0.973,"veg_frac":0.0,"sat":0.225,"val":0.671,"hue":22.0,"rect":0.874,"solidity":0.965,"ground_likeness":0.0,"parcel_id":"TMP-TO-0039"},"geometry":{"type":"Polygon","coordinates":[[[75.7876412,26.9120818],[75.7876439,26.9120682],[75.7875919,26.912033],[75.7875609,26.9120698],[75.7876106,26.9121034],[75.7876247,26.9121013],[75.7876412,26.9120818]]]}},{"type":"Feature","properties":{"building_id":"B-0040","area_m2":68.5,"vertices":4,"sam_quality":0.971,"veg_frac":0.0,"sat":0.468,"val":0.201,"hue":8.0,"rect":0.848,"solidity":0.973,"ground_likeness":0.35,"parcel_id":"TMP-TO-0040"},"geometry":{"type":"Polygon","coordinates":[[[75.788132,26.9120188],[75.7880626,26.9120838],[75.7881126,26.9121267],[75.788182,26.9120618],[75.788132,26.9120188]]]}},{"type":"Feature","properties":{"building_id":"B-0041","area_m2":30.9,"vertices":5,"sam_quality":0.898,"veg_frac":0.0,"sat":0.361,"val":0.242,"hue":352.0,"rect":0.864,"solidity":0.987,"ground_likeness":0.0,"parcel_id":"TMP-TO-0042"},"geometry":{"type":"Polygon","coordinates":[[[75.7877635,26.9120206],[75.787732,26.9120035],[75.7876865,26.9120708],[75.7877056,26.9120812],[75.7877259,26.9120763],[75.7877635,26.9120206]]]}},{"type":"Feature","properties":{"building_id":"B-0042","area_m2":29.7,"vertices":6,"sam_quality":0.973,"veg_frac":0.0,"sat":0.176,"val":0.411,"hue":248.0,"rect":0.726,"solidity":0.929,"ground_likeness":0.0,"parcel_id":"TMP-TO-0041"},"geometry":{"type":"Polygon","coordinates":[[[75.7879584,26.9120576],[75.7879665,26.9120397],[75.7879009,26.9120158],[75.7878814,26.9120588],[75.7879226,26.9120739],[75.7879299,26.9120577],[75.7879584,26.9120576]]]}},{"type":"Feature","properties":{"building_id":"B-0043","area_m2":63.9,"vertices":4,"sam_quality":0.98,"veg_frac":0.0,"sat":0.16,"val":0.796,"hue":340.0,"rect":0.851,"solidity":0.957,"ground_likeness":0.0,"parcel_id":"TMP-TO-0043"},"geometry":{"type":"Polygon","coordinates":[[[75.7880805,26.9119848],[75.788013,26.912071],[75.7880582,26.9120994],[75.7881257,26.9120132],[75.7880805,26.9119848]]]}},{"type":"Feature","properties":{"building_id":"B-0044","area_m2":50.7,"vertices":24,"sam_quality":0.894,"veg_frac":0.0,"sat":0.252,"val":0.246,"hue":350.0,"rect":0.525,"solidity":0.837,"ground_likeness":0.048,"parcel_id":"TMP-TO-0044"},"geometry":{"type":"Polygon","coordinates":[[[75.7882348,26.9120849],[75.7882684,26.9120544],[75.7882675,26.912045],[75.7882547,26.9120444],[75.7882514,26.9120372],[75.7882199,26.9120272],[75.788215,26.9120215],[75.788207,26.9120237],[75.7881851,26.9120065],[75.7881722,26.9120094],[75.7881553,26.9120009],[75.7881593,26.9120095],[75.7881561,26.9120117],[75.788157,26.9120204],[75.7881659,26.9120239],[75.7881676,26.9120326],[75.7881879,26.9120614],[75.7881928,26.9120649],[75.7882016,26.9120613],[75.7882105,26.9120641],[75.7882194,26.9120792],[75.7882123,26.9120923],[75.7882228,26.9121031],[75.7882293,26.9121016],[75.7882348,26.9120849]]]}},{"type":"Feature","properties":{"building_id":"B-0045","area_m2":57.9,"vertices":4,"sam_quality":0.997,"veg_frac":0.0,"sat":0.186,"val":0.738,"hue":348.0,"rect":0.941,"solidity":0.984,"ground_likeness":0.0,"parcel_id":"TMP-TO-0046"},"geometry":{"type":"Polygon","coordinates":[[[75.7877899,26.9119826],[75.7877264,26.9120776],[75.7877672,26.9120995],[75.7878307,26.9120044],[75.7877899,26.9119826]]]}},{"type":"Feature","properties":{"building_id":"B-0046","area_m2":15.7,"vertices":6,"sam_quality":0.923,"veg_frac":0.0,"sat":0.356,"val":0.162,"hue":26.0,"rect":0.814,"solidity":0.984,"ground_likeness":0.35,"parcel_id":"TMP-TO-0047"},"geometry":{"type":"Polygon","coordinates":[[[75.7878644,26.9120434],[75.7878542,26.9120284],[75.7878312,26.9120134],[75.7878088,26.9120409],[75.787836,26.9120586],[75.7878558,26.912054],[75.7878644,26.9120434]]]}},{"type":"Feature","properties":{"building_id":"B-0047","area_m2":76.9,"vertices":16,"sam_quality":0.97,"veg_frac":0.0,"sat":0.175,"val":0.403,"hue":340.0,"rect":0.825,"solidity":0.963,"ground_likeness":0.0,"parcel_id":"TMP-TO-0045"},"geometry":{"type":"Polygon","coordinates":[[[75.7874724,26.9120538],[75.7875173,26.9120203],[75.7875173,26.9120131],[75.7875075,26.9119958],[75.7874913,26.9119829],[75.7874607,26.9119845],[75.7874535,26.9119911],[75.7874535,26.911999],[75.7874303,26.9120136],[75.787403,26.912039],[75.7874007,26.9120491],[75.7874063,26.9120506],[75.7874064,26.9120578],[75.7874017,26.9120737],[75.7874204,26.912096],[75.7874604,26.9120683],[75.7874724,26.9120538]]]}},{"type":"Feature","properties":{"building_id":"B-0048","area_m2":111.1,"vertices":6,"sam_quality":0.978,"veg_frac":0.0,"sat":0.15,"val":0.608,"hue":332.0,"rect":0.88,"solidity":0.947,"ground_likeness":0.0,"parcel_id":"TMP-TO-0049"},"geometry":{"type":"Polygon","coordinates":[[[75.7874347,26.9119631],[75.7873649,26.9119418],[75.7873209,26.9120574],[75.7873249,26.9120761],[75.7873719,26.9120904],[75.7873872,26.9120882],[75.7874347,26.9119631]]]}},{"type":"Feature","properties":{"building_id":"B-0049","area_m2":28.1,"vertices":8,"sam_quality":0.852,"veg_frac":0.0,"sat":0.375,"val":0.186,"hue":348.0,"rect":0.628,"solidity":0.806,"ground_likeness":0.013,"parcel_id":"TMP-TO-0050"},"geometry":{"type":"Polygon","coordinates":[[[75.7875453,26.912033],[75.7875615,26.912022],[75.7875327,26.9119878],[75.7875017,26.9119953],[75.7875227,26.9120202],[75.7874823,26.9120477],[75.7874966,26.9120551],[75.7875352,26.9120506],[75.7875453,26.912033]]]}},{"type":"Feature","properties":{"building_id":"B-0050","area_m2":18.9,"vertices":13,"sam_quality":0.886,"veg_frac":0.0,"sat":0.216,"val":0.211,"hue":328.0,"rect":0.674,"solidity":0.861,"ground_likeness":0.0,"parcel_id":"TMP-TO-0051"},"geometry":{"type":"Polygon","coordinates":[[[75.7879813,26.912017],[75.7879853,26.9120076],[75.7879828,26.9120004],[75.7879562,26.9119948],[75.7879474,26.9119991],[75.7879474,26.9120042],[75.7879362,26.9120151],[75.7879209,26.9120123],[75.7879136,26.9120066],[75.7879104,26.9120152],[75.7879129,26.9120196],[75.7879662,26.9120373],[75.7879718,26.9120351],[75.7879813,26.912017]]]}},{"type":"Feature","properties":{"building_id":"B-0051","area_m2":58.0,"vertices":4,"sam_quality":0.933,"veg_frac":0.0,"sat":0.173,"val":0.576,"hue":346.0,"rect":0.807,"solidity":1.0,"ground_likeness":0.0,"parcel_id":"TMP-TO-0048"},"geometry":{"type":"Polygon","coordinates":[[[75.7880035,26.9119566],[75.7879671,26.9120647],[75.7880119,26.9120768],[75.7880482,26.9119687],[75.7880035,26.9119566]]]}},{"type":"Feature","properties":{"building_id":"B-0052","area_m2":22.2,"vertices":6,"sam_quality":0.954,"veg_frac":0.0,"sat":0.392,"val":0.188,"hue":348.0,"rect":0.862,"solidity":0.985,"ground_likeness":0.0,"parcel_id":"TMP-TO-0052"},"geometry":{"type":"Polygon","coordinates":[[[75.787904,26.9120022],[75.7878716,26.9119796],[75.787863,26.9119786],[75.7878413,26.9120037],[75.7878878,26.9120361],[75.7879031,26.9120185],[75.787904,26.9120022]]]}},{"type":"Feature","properties":{"building_id":"B-0053","area_m2":14.6,"vertices":6,"sam_quality":0.938,"veg_frac":0.0,"sat":0.367,"val":0.214,"hue":348.0,"rect":0.62,"solidity":0.953,"ground_likeness":0.012,"parcel_id":"TMP-TO-0053"},"geometry":{"type":"Polygon","coordinates":[[[75.788069,26.9119891],[75.7880536,26.9119812],[75.7880439,26.9119806],[75.7880352,26.9119979],[75.7880283,26.9120478],[75.7880682,26.9120014],[75.788069,26.9119891]]]}},{"type":"Feature","properties":{"building_id":"B-0054","area_m2":17.7,"vertices":5,"sam_quality":0.952,"veg_frac":0.0,"sat":0.196,"val":0.543,"hue":338.0,"rect":0.796,"solidity":0.955,"ground_likeness":0.0,"parcel_id":"TMP-TO-0057"},"geometry":{"type":"Polygon","coordinates":[[[75.7875516,26.9119608],[75.7875333,26.9119753],[75.7875309,26.9119852],[75.7875626,26.9120172],[75.7875877,26.9119972],[75.7875516,26.9119608]]]}},{"type":"Feature","properties":{"building_id":"B-0055","area_m2":121.5,"vertices":6,"sam_quality":0.904,"veg_frac":0.0,"sat":0.253,"val":0.431,"hue":10.0,"rect":0.862,"solidity":0.949,"ground_likeness":0.0,"parcel_id":"TMP-TO-0054"},"geometry":{"type":"Polygon","coordinates":[[[75.787667,26.9119132],[75.7876061,26.9119783],[75.7876068,26.9119837],[75.787576,26.9120166],[75.7876381,26.9120633],[75.7877324,26.9119624],[75.787667,26.9119132]]]}},{"type":"Feature","properties":{"building_id":"B-0056","area_m2":20.3,"vertices":5,"sam_quality":0.962,"veg_frac":0.0,"sat":0.191,"val":0.412,"hue":2.0,"rect":0.729,"solidity":0.915,"ground_likeness":0.0,"parcel_id":"TMP-TO-0055"},"geometry":{"type":"Polygon","coordinates":[[[75.7882627,26.9119768],[75.7882342,26.9119553],[75.7882131,26.9119778],[75.7882055,26.912004],[75.788224,26.912018],[75.7882627,26.9119768]]]}},{"type":"Feature","properties":{"building_id":"B-0057","area_m2":62.6,"vertices":7,"sam_quality":0.917,"veg_frac":0.0,"sat":0.203,"val":0.436,"hue":340.0,"rect":0.768,"solidity":0.947,"ground_likeness":0.0,"parcel_id":"TMP-TO-0056"},"geometry":{"type":"Polygon","coordinates":[[[75.7883112,26.9119523],[75.7882813,26.9119326],[75.788241,26.9119534],[75.7882562,26.911977],[75.7882418,26.9119951],[75.788274,26.9120454],[75.7883117,26.9120259],[75.7883112,26.9119523]]]}},{"type":"Feature","properties":{"building_id":"B-0058","area_m2":23.7,"vertices":6,"sam_quality":0.947,"veg_frac":0.0,"sat":0.431,"val":0.236,"hue":352.0,"rect":0.861,"solidity":0.987,"ground_likeness":0.0,"parcel_id":"TMP-TO-0058"},"geometry":{"type":"Polygon","coordinates":[[[75.7877939,26.9119571],[75.7877746,26.9119466],[75.787741,26.9119964],[75.7877469,26.9120112],[75.787764,26.9120205],[75.787796,26.9119732],[75.7877939,26.9119571]]]}},{"type":"Feature","properties":{"building_id":"B-0059","area_m2":15.5,"vertices":4,"sam_quality":0.981,"veg_frac":0.0,"sat":0.2,"val":0.48,"hue":340.0,"rect":0.955,"solidity":1.004,"ground_likeness":0.0,"parcel_id":"TMP-TO-0059"},"geometry":{"type":"Polygon","coordinates":[[[75.7879734,26.9119528],[75.7879576,26.9119906],[75.7879903,26.9120016],[75.7880061,26.9119637],[75.7879734,26.9119528]]]}},{"type":"Feature","properties":{"building_id":"B-0060","area_m2":59.4,"vertices":14,"sam_quality":0.901,"veg_frac":0.0,"sat":0.232,"val":0.334,"hue":348.0,"rect":0.856,"solidity":0.943,"ground_likeness":0.0,"parcel_id":"TMP-TO-0061"},"geometry":{"type":"Polygon","coordinates":[[[75.7879704,26.9119499],[75.7879259,26.9119213],[75.7879154,26.9119206],[75.7879066,26.9119322],[75.7879067,26.9119394],[75.7879011,26.9119402],[75.7878722,26.9119663],[75.7878683,26.9119743],[75.7879079,26.9119986],[75.7879209,26.9120123],[75.7879354,26.9120144],[75.787941,26.9120093],[75.7879481,26.9119919],[75.787957,26.9119904],[75.7879704,26.9119499]],[[75.7879465,26.9119912],[75.7879481,26.9119912],[75.7879481,26.9119919],[75.7879465,26.9119912]],[[75.7879261,26.9119538],[75.7879431,26.9119623],[75.7879423,26.9119667],[75.7879302,26.9119595],[75.7879261,26.9119538]]]}},{"type":"Feature","properties":{"building_id":"B-0061","area_m2":19.6,"vertices":7,"sam_quality":0.927,"veg_frac":0.0,"sat":0.276,"val":0.766,"hue":334.0,"rect":0.786,"solidity":0.925,"ground_likeness":0.0,"parcel_id":"TMP-TO-0060"},"geometry":{"type":"Polygon","coordinates":[[[75.7876168,26.9119613],[75.7876167,26.9119522],[75.7876055,26.9119389],[75.7875852,26.9119391],[75.7875554,26.9119594],[75.787584,26.9119929],[75.7875839,26.9119838],[75.7876168,26.9119613]]]}},{"type":"Feature","properties":{"building_id":"B-0062","area_m2":47.0,"vertices":4,"sam_quality":0.911,"veg_frac":0.0,"sat":0.389,"val":0.614,"hue":4.0,"rect":0.804,"solidity":0.923,"ground_likeness":0.0,"parcel_id":"TMP-TO-0062"},"geometry":{"type":"Polygon","coordinates":[[[75.7878427,26.9118974],[75.7877909,26.9119513],[75.7878365,26.9119864],[75.7878882,26.9119325],[75.7878427,26.9118974]]]}},{"type":"Feature","properties":{"building_id":"B-0063","area_m2":50.9,"vertices":5,"sam_quality":0.91,"veg_frac":0.0,"sat":0.254,"val":0.428,"hue":10.0,"rect":0.872,"solidity":0.973,"ground_likeness":0.0,"parcel_id":"TMP-TO-0063"},"geometry":{"type":"Polygon","coordinates":[[[75.7875504,26.911897],[75.7875319,26.9118995],[75.7874817,26.9119306],[75.78752,26.9119802],[75.787584,26.9119405],[75.7875504,26.911897]]]}},{"type":"Feature","properties":{"building_id":"B-0064","area_m2":22.8,"vertices":9,"sam_quality":0.947,"veg_frac":0.0,"sat":0.209,"val":0.35,"hue":348.0,"rect":0.758,"solidity":0.91,"ground_likeness":0.0,"parcel_id":"TMP-TO-0064"},"geometry":{"type":"Polygon","coordinates":[[[75.7873441,26.9119526],[75.7873589,26.911954],[75.787363,26.9119176],[75.7873236,26.9119139],[75.7873078,26.9119032],[75.7872985,26.9119023],[75.7872967,26.9119186],[75.7872968,26.9119382],[75.7873391,26.9119421],[75.7873441,26.9119526]]]}},{"type":"Feature","properties":{"building_id":"B-0065","area_m2":24.5,"vertices":8,"sam_quality":0.949,"veg_frac":0.0,"sat":0.625,"val":0.163,"hue":44.0,"rect":0.804,"solidity":0.971,"ground_likeness":0.35,"parcel_id":"TMP-TO-0065"},"geometry":{"type":"Polygon","coordinates":[[[75.7874602,26.9119166],[75.787452,26.9119002],[75.7874319,26.9118973],[75.787424,26.9119089],[75.7874065,26.911916],[75.7873983,26.9119371],[75.7874071,26.9119546],[75.7874603,26.9119331],[75.7874602,26.9119166]]]}},{"type":"Feature","properties":{"building_id":"B-0066","area_m2":25.0,"vertices":11,"sam_quality":0.948,"veg_frac":0.0,"sat":0.258,"val":0.554,"hue":344.0,"rect":0.682,"solidity":0.852,"ground_likeness":0.0,"parcel_id":"TMP-TO-0066"},"geometry":{"type":"Polygon","coordinates":[[[75.7877519,26.9119201],[75.7877518,26.9119136],[75.7877017,26.9118835],[75.7876863,26.9118692],[75.7876774,26.9118692],[75.7876766,26.9118728],[75.7876953,26.9118893],[75.7876849,26.9119053],[75.7876858,26.9119132],[75.7877278,26.9119383],[75.7877423,26.9119331],[75.7877519,26.9119201]]]}},{"type":"Feature","properties":{"building_id":"B-0067","area_m2":18.7,"vertices":8,"sam_quality":0.954,"veg_frac":0.0,"sat":0.252,"val":0.362,"hue":4.0,"rect":0.682,"solidity":1.008,"ground_likeness":0.0,"parcel_id":"TMP-TO-0067"},"geometry":{"type":"Polygon","coordinates":[[[75.7882917,26.9118791],[75.7882738,26.911893],[75.7882762,26.9119087],[75.788284,26.9119163],[75.7882856,26.9119265],[75.788312,26.9119525],[75.7883118,26.9119242],[75.7883047,26.9118775],[75.7882917,26.9118791]]]}},{"type":"Feature","properties":{"building_id":"B-0068","area_m2":22.2,"vertices":6,"sam_quality":0.912,"veg_frac":0.0,"sat":0.224,"val":0.389,"hue":250.0,"rect":0.748,"solidity":0.921,"ground_likeness":0.0,"parcel_id":"TMP-TO-0068"},"geometry":{"type":"Polygon","coordinates":[[[75.7875049,26.9118939],[75.7874974,26.9118968],[75.7874862,26.9118741],[75.7874507,26.9118882],[75.787472,26.9119315],[75.787515,26.9119144],[75.7875049,26.9118939]]]}},{"type":"Feature","properties":{"building_id":"B-0069","area_m2":312.2,"vertices":29,"sam_quality":0.869,"veg_frac":0.0,"sat":0.172,"val":0.588,"hue":332.0,"rect":0.856,"solidity":0.955,"ground_likeness":0.0,"parcel_id":"TMP-TO-0069"},"geometry":{"type":"Polygon","coordinates":[[[75.7882467,26.9119476],[75.7882427,26.9119412],[75.7882442,26.9119332],[75.7882402,26.9119332],[75.7882394,26.9119296],[75.7882399,26.9118964],[75.7882026,26.9118598],[75.7881937,26.9118584],[75.7881953,26.911849],[75.7881791,26.9118404],[75.7881572,26.9118124],[75.7881296,26.9117894],[75.7881224,26.9117894],[75.7880799,26.9118287],[75.7880551,26.9118447],[75.7880142,26.9118796],[75.7880095,26.9118905],[75.7880395,26.911917],[75.788046,26.9119314],[75.7880816,26.9119558],[75.7880929,26.9119499],[75.7880993,26.9119521],[75.7881253,26.911975],[75.788131,26.9119858],[75.7881478,26.9119778],[75.7881576,26.9119879],[75.7881609,26.9120001],[75.7881722,26.9120073],[75.7881795,26.9120065],[75.7882467,26.9119476]],[[75.7882288,26.911916],[75.788228,26.9119203],[75.788224,26.9119174],[75.7882216,26.9119211],[75.7882215,26.9119138],[75.7882288,26.911916]]]}},{"type":"Feature","properties":{"building_id":"B-0070","area_m2":72.1,"vertices":4,"sam_quality":0.992,"veg_frac":0.0,"sat":0.216,"val":0.654,"hue":318.0,"rect":0.863,"solidity":0.98,"ground_likeness":0.0,"parcel_id":"TMP-TO-0070"},"geometry":{"type":"Polygon","coordinates":[[[75.7876024,26.911831],[75.7875423,26.9118899],[75.7876029,26.9119396],[75.787663,26.9118808],[75.7876024,26.911831]]]}},{"type":"Feature","properties":{"building_id":"B-0071","area_m2":37.2,"vertices":5,"sam_quality":0.91,"veg_frac":0.0,"sat":0.39,"val":0.219,"hue":348.0,"rect":0.806,"solidity":0.916,"ground_likeness":0.0,"parcel_id":"TMP-TO-0071"},"geometry":{"type":"Polygon","coordinates":[[[75.7877343,26.9118325],[75.7877345,26.9118542],[75.7877123,26.9118905],[75.7877598,26.9119138],[75.7877922,26.9118608],[75.7877343,26.9118325]]]}},{"type":"Feature","properties":{"building_id":"B-0072","area_m2":28.4,"vertices":6,"sam_quality":0.968,"veg_frac":0.0,"sat":0.618,"val":0.24,"hue":38.0,"rect":0.884,"solidity":1.007,"ground_likeness":0.35,"parcel_id":"TMP-TO-0072"},"geometry":{"type":"Polygon","coordinates":[[[75.7873854,26.9118376],[75.7873245,26.9118356],[75.7873234,26.9118631],[75.7873318,26.9118802],[75.7873771,26.9118817],[75.7873841,26.9118682],[75.7873854,26.9118376]]]}},{"type":"Feature","properties":{"building_id":"B-0073","area_m2":14.3,"vertices":5,"sam_quality":0.97,"veg_frac":0.0,"sat":0.233,"val":0.443,"hue":12.0,"rect":0.917,"solidity":0.996,"ground_likeness":0.0,"parcel_id":"TMP-TO-0073"},"geometry":{"type":"Polygon","coordinates":[[[75.7874408,26.911856],[75.7873992,26.911842],[75.7873876,26.9118699],[75.7874219,26.9118814],[75.787431,26.9118794],[75.7874408,26.911856]]]}},{"type":"Feature","properties":{"building_id":"B-0074","area_m2":26.6,"vertices":4,"sam_quality":0.913,"veg_frac":0.0,"sat":0.248,"val":0.297,"hue":348.0,"rect":0.804,"solidity":0.917,"ground_likeness":0.0,"parcel_id":"TMP-TO-0074"},"geometry":{"type":"Polygon","coordinates":[[[75.7873504,26.9117923],[75.7873403,26.9118141],[75.7874349,26.9118495],[75.7874451,26.9118277],[75.7873504,26.9117923]]]}},{"type":"Feature","properties":{"building_id":"B-0075","area_m2":181.5,"vertices":18,"sam_quality":0.973,"veg_frac":0.0,"sat":0.21,"val":0.526,"hue":10.0,"rect":0.829,"solidity":0.936,"ground_likeness":0.0,"parcel_id":"TMP-TO-0075"},"geometry":{"type":"Polygon","coordinates":[[[75.787995,26.9118956],[75.7879981,26.9118804],[75.7880109,26.9118666],[75.7880116,26.91185],[75.7879825,26.911835],[75.7879905,26.9118342],[75.7879977,26.9118255],[75.788016,26.9117893],[75.788016,26.9117821],[75.7879909,26.9117671],[75.7879182,26.9117357],[75.7879055,26.9117632],[75.7878768,26.9118089],[75.7878609,26.9118451],[75.7879038,26.9118752],[75.7879345,26.9118844],[75.787975,26.9119094],[75.7879878,26.9119072],[75.787995,26.9118956]]]}},{"type":"Feature","properties":{"building_id":"B-0076","area_m2":20.6,"vertices":5,"sam_quality":0.948,"veg_frac":0.0,"sat":0.231,"val":0.328,"hue":354.0,"rect":0.882,"solidity":0.936,"ground_likeness":0.0,"parcel_id":"TMP-TO-0076"},"geometry":{"type":"Polygon","coordinates":[[[75.7880188,26.9117826],[75.7879947,26.9118345],[75.787998,26.9118433],[75.7880194,26.9118513],[75.7880465,26.9117929],[75.7880188,26.9117826]]]}},{"type":"Feature","properties":{"building_id":"B-0077","area_m2":17.4,"vertices":5,"sam_quality":0.898,"veg_frac":0.0,"sat":0.172,"val":0.549,"hue":8.0,"rect":0.818,"solidity":0.981,"ground_likeness":0.0,"parcel_id":"TMP-TO-0077"},"geometry":{"type":"Polygon","coordinates":[[[75.7874801,26.9117876],[75.7874357,26.9117819],[75.7874301,26.9118167],[75.7874739,26.9118223],[75.7874747,26.911822],[75.7874801,26.9117876]]]}},{"type":"Feature","properties":{"building_id":"B-0078","area_m2":36.0,"vertices":5,"sam_quality":0.961,"veg_frac":0.0,"sat":0.225,"val":0.391,"hue":6.0,"rect":0.751,"solidity":0.882,"ground_likeness":0.0,"parcel_id":"TMP-TO-0079"},"geometry":{"type":"Polygon","coordinates":[[[75.7882928,26.9117831],[75.7882532,26.9117567],[75.7882134,26.9118046],[75.7882577,26.9118343],[75.7882897,26.9117959],[75.7882928,26.9117831]]]}},{"type":"Feature","properties":{"building_id":"B-0079","area_m2":166.0,"vertices":4,"sam_quality":0.93,"veg_frac":0.001,"sat":0.226,"val":0.563,"hue":344.0,"rect":0.922,"solidity":0.963,"ground_likeness":0.0,"parcel_id":"TMP-TO-0078"},"geometry":{"type":"Polygon","coordinates":[[[75.7877001,26.9117194],[75.7876581,26.9117967],[75.7878159,26.9118656],[75.7878579,26.9117883],[75.7877001,26.9117194]]]}},{"type":"Feature","properties":{"building_id":"B-0080","area_m2":20.8,"vertices":6,"sam_quality":0.927,"veg_frac":0.0,"sat":0.363,"val":0.404,"hue":8.0,"rect":0.732,"solidity":1.01,"ground_likeness":0.0,"parcel_id":"TMP-TO-0081"},"geometry":{"type":"Polygon","coordinates":[[[75.7873144,26.9118026],[75.787323,26.9117636],[75.7873228,26.9117405],[75.7873034,26.9117333],[75.7872954,26.9117334],[75.7872985,26.9118366],[75.7873144,26.9118026]]]}},{"type":"Feature","properties":{"building_id":"B-0081","area_m2":32.7,"vertices":5,"sam_quality":0.916,"veg_frac":0.0,"sat":0.193,"val":0.37,"hue":348.0,"rect":0.756,"solidity":0.876,"ground_likeness":0.0,"parcel_id":"TMP-TO-0080"},"geometry":{"type":"Polygon","coordinates":[[[75.78737,26.9117619],[75.7873577,26.9117354],[75.7873394,26.9117854],[75.787424,26.9118103],[75.7874347,26.911781],[75.78737,26.9117619]]]}},{"type":"Feature","properties":{"building_id":"B-0082","area_m2":43.1,"vertices":4,"sam_quality":0.976,"veg_frac":0.0,"sat":0.167,"val":0.51,"hue":348.0,"rect":0.771,"solidity":0.905,"ground_likeness":0.0,"parcel_id":"TMP-TO-0082"},"geometry":{"type":"Polygon","coordinates":[[[75.7880219,26.9117264],[75.7879976,26.911769],[75.7880705,26.9118025],[75.7880948,26.91176],[75.7880219,26.9117264]]]}},{"type":"Feature","properties":{"building_id":"B-0083","area_m2":20.0,"vertices":4,"sam_quality":0.947,"veg_frac":0.0,"sat":0.235,"val":0.363,"hue":10.0,"rect":0.856,"solidity":0.966,"ground_likeness":0.0,"parcel_id":"TMP-TO-0083"},"geometry":{"type":"Polygon","coordinates":[[[75.7875068,26.9117296],[75.7874931,26.9117759],[75.7875297,26.9117846],[75.7875434,26.9117383],[75.7875068,26.9117296]]]}},{"type":"Feature","properties":{"building_id":"B-0084","area_m2":36.2,"vertices":14,"sam_quality":0.879,"veg_frac":0.0,"sat":0.214,"val":0.416,"hue":332.0,"rect":0.733,"solidity":0.918,"ground_likeness":0.0,"parcel_id":"TMP-TO-0084"},"geometry":{"type":"Polygon","coordinates":[[[75.7873768,26.9117394],[75.7873615,26.9117417],[75.7873681,26.9117604],[75.7874222,26.9117789],[75.7874286,26.9117781],[75.7874318,26.9117695],[75.7874414,26.9117687],[75.7874484,26.9117318],[75.7874291,26.9117276],[75.7874218,26.9117211],[75.7874169,26.9117211],[75.7874122,26.9117291],[75.7873847,26.9117249],[75.7873775,26.9117329],[75.7873768,26.9117394]]]}},{"type":"Feature","properties":{"building_id":"B-0085","area_m2":33.8,"vertices":6,"sam_quality":0.912,"veg_frac":0.0,"sat":0.315,"val":0.232,"hue":340.0,"rect":0.713,"solidity":0.918,"ground_likeness":0.0,"parcel_id":"TMP-TO-0085"},"geometry":{"type":"Polygon","coordinates":[[[75.7876841,26.911746],[75.7876881,26.9117326],[75.7876252,26.9117173],[75.7876097,26.9117687],[75.7876462,26.9117776],[75.7876431,26.9117875],[75.7876841,26.911746]]]}},{"type":"Feature","properties":{"building_id":"B-0086","area_m2":43.9,"vertices":6,"sam_quality":0.981,"veg_frac":0.0,"sat":0.121,"val":0.798,"hue":318.0,"rect":0.786,"solidity":0.925,"ground_likeness":0.0,"parcel_id":"TMP-TO-0086"},"geometry":{"type":"Polygon","coordinates":[[[75.7879987,26.9116984],[75.7879878,26.9117168],[75.7879431,26.9116954],[75.7879213,26.911732],[75.7879927,26.9117661],[75.7880254,26.9117112],[75.7879987,26.9116984]]]}},{"type":"Feature","properties":{"building_id":"B-0087","area_m2":23.6,"vertices":5,"sam_quality":0.959,"veg_frac":0.0,"sat":0.273,"val":0.327,"hue":6.0,"rect":0.898,"solidity":1.007,"ground_likeness":0.35,"parcel_id":"TMP-TO-0087"},"geometry":{"type":"Polygon","coordinates":[[[75.7881777,26.9117117],[75.7881711,26.9117157],[75.7881711,26.9117519],[75.7882248,26.9117519],[75.7882247,26.9117116],[75.7881777,26.9117117]]]}},{"type":"Feature","properties":{"building_id":"B-0088","area_m2":16.3,"vertices":4,"sam_quality":0.954,"veg_frac":0.0,"sat":0.187,"val":0.597,"hue":8.0,"rect":0.897,"solidity":0.982,"ground_likeness":0.0,"parcel_id":"TMP-TO-0088"},"geometry":{"type":"Polygon","coordinates":[[[75.7874736,26.9116974],[75.7874619,26.9117355],[75.787498,26.9117444],[75.7875097,26.9117063],[75.7874736,26.9116974]]]}},{"type":"Feature","properties":{"building_id":"B-0089","area_m2":17.1,"vertices":8,"sam_quality":0.928,"veg_frac":0.0,"sat":0.195,"val":0.445,"hue":10.0,"rect":0.668,"solidity":0.879,"ground_likeness":0.0,"parcel_id":"TMP-TO-0089"},"geometry":{"type":"Polygon","coordinates":[[[75.7873733,26.9117077],[75.7873548,26.9117013],[75.7873586,26.9116781],[75.7873514,26.9116731],[75.7873387,26.9117028],[75.7873316,26.9117346],[75.7873567,26.9117439],[75.7873639,26.9117359],[75.7873733,26.9117077]]]}},{"type":"Feature","properties":{"building_id":"B-0090","area_m2":66.1,"vertices":4,"sam_quality":0.963,"veg_frac":0.0,"sat":0.15,"val":0.851,"hue":336.0,"rect":0.822,"solidity":0.927,"ground_likeness":0.0,"parcel_id":"TMP-TO-0090"},"geometry":{"type":"Polygon","coordinates":[[[75.7878285,26.9116546],[75.7877952,26.9117586],[75.7878485,26.9117724],[75.7878819,26.9116684],[75.7878285,26.9116546]]]}},{"type":"Feature","properties":{"building_id":"B-0091","area_m2":29.2,"vertices":8,"sam_quality":0.951,"veg_frac":0.0,"sat":0.602,"val":0.176,"hue":34.0,"rect":0.806,"solidity":1.002,"ground_likeness":0.35,"parcel_id":"TMP-TO-0091"},"geometry":{"type":"Polygon","coordinates":[[[75.7881703,26.9117272],[75.7881668,26.911689],[75.7881603,26.9116825],[75.7881356,26.9116843],[75.7881153,26.9117043],[75.7881181,26.9117347],[75.7881273,26.9117429],[75.7881509,26.9117411],[75.7881703,26.9117272]]]}},{"type":"Feature","properties":{"building_id":"B-0092","area_m2":19.0,"vertices":5,"sam_quality":0.958,"veg_frac":0.0,"sat":0.22,"val":0.553,"hue":6.0,"rect":0.914,"solidity":0.987,"ground_likeness":0.0,"parcel_id":"TMP-TO-0092"},"geometry":{"type":"Polygon","coordinates":[[[75.7874299,26.9116845],[75.787394,26.9116737],[75.7873777,26.9117176],[75.787409,26.9117269],[75.7874167,26.9117199],[75.7874299,26.9116845]]]}},{"type":"Feature","properties":{"building_id":"B-0093","area_m2":14.9,"vertices":4,"sam_quality":0.972,"veg_frac":0.0,"sat":0.18,"val":0.582,"hue":8.0,"rect":0.917,"solidity":1.004,"ground_likeness":0.0,"parcel_id":"TMP-TO-0093"},"geometry":{"type":"Polygon","coordinates":[[[75.7874309,26.911686],[75.7874177,26.9117214],[75.7874521,26.9117317],[75.7874653,26.9116962],[75.7874309,26.911686]]]}},{"type":"Feature","properties":{"building_id":"B-0094","area_m2":16.5,"vertices":5,"sam_quality":0.97,"veg_frac":0.0,"sat":0.276,"val":0.36,"hue":10.0,"rect":0.896,"solidity":0.995,"ground_likeness":0.35,"parcel_id":"TMP-TO-0094"},"geometry":{"type":"Polygon","coordinates":[[[75.7873399,26.911684],[75.7872996,26.911677],[75.7872951,26.9116977],[75.7872952,26.9117143],[75.787332,26.9117206],[75.7873399,26.911684]]]}},{"type":"Feature","properties":{"building_id":"B-0095","area_m2":19.6,"vertices":9,"sam_quality":0.883,"veg_frac":0.003,"sat":0.217,"val":0.631,"hue":228.0,"rect":0.765,"solidity":0.929,"ground_likeness":0.0,"parcel_id":"TMP-TO-0095"},"geometry":{"type":"Polygon","coordinates":[[[75.7876752,26.9116749],[75.7876704,26.9116699],[75.7876591,26.9116779],[75.7876382,26.9116744],[75.7876302,26.9116831],[75.7876295,26.9116997],[75.7876207,26.9117077],[75.7876699,26.9117183],[75.787677,26.911693],[75.7876752,26.9116749]]]}},{"type":"Feature","properties":{"building_id":"B-0096","area_m2":28.9,"vertices":9,"sam_quality":0.873,"veg_frac":0.0,"sat":0.318,"val":0.354,"hue":12.0,"rect":0.801,"solidity":0.902,"ground_likeness":0.35,"parcel_id":"TMP-TO-0096"},"geometry":{"type":"Polygon","coordinates":[[[75.7877991,26.9117101],[75.7878061,26.9116933],[75.7878161,26.9116887],[75.7878282,26.9116593],[75.7878071,26.9116523],[75.7877947,26.9116544],[75.7877643,26.9117283],[75.7877975,26.9117393],[75.7878046,26.9117219],[75.7877991,26.9117101]]]}},{"type":"Feature","properties":{"building_id":"B-0097","area_m2":21.0,"vertices":12,"sam_quality":0.917,"veg_frac":0.0,"sat":0.137,"val":0.347,"hue":316.0,"rect":0.658,"solidity":0.886,"ground_likeness":0.15,"parcel_id":"TMP-TO-0097"},"geometry":{"type":"Polygon","coordinates":[[[75.7875699,26.9117022],[75.7875602,26.9116929],[75.7875585,26.9116864],[75.7875592,26.9116727],[75.7875656,26.9116683],[75.7875672,26.9116611],[75.7875615,26.9116539],[75.7875486,26.9116532],[75.7875438,26.9116547],[75.7875216,26.9117105],[75.7875627,26.9117174],[75.7875699,26.9117109],[75.7875699,26.9117022]]]}},{"type":"Feature","properties":{"building_id":"B-0098","area_m2":62.5,"vertices":4,"sam_quality":0.932,"veg_frac":0.0,"sat":0.25,"val":0.469,"hue":314.0,"rect":0.911,"solidity":0.981,"ground_likeness":0.0,"parcel_id":"TMP-TO-0098"},"geometry":{"type":"Polygon","coordinates":[[[75.7877365,26.9116308],[75.7877002,26.911713],[75.7877599,26.9117342],[75.7877962,26.911652],[75.7877365,26.9116308]]]}},{"type":"Feature","properties":{"building_id":"B-0099","area_m2":34.0,"vertices":5,"sam_quality":0.976,"veg_frac":0.0,"sat":0.127,"val":0.332,"hue":328.0,"rect":0.562,"solidity":1.004,"ground_likeness":0.184,"parcel_id":"TMP-TO-0099"},"geometry":{"type":"Polygon","coordinates":[[[75.7882594,26.9116767],[75.788249,26.9116905],[75.7882514,26.911697],[75.788308,26.911727],[75.788309,26.9116317],[75.7882594,26.9116767]]]}},{"type":"Feature","properties":{"building_id":"B-0100","area_m2":13.9,"vertices":4,"sam_quality":0.875,"veg_frac":0.0,"sat":0.241,"val":0.436,"hue":4.0,"rect":0.827,"solidity":0.954,"ground_likeness":0.0,"parcel_id":"TMP-TO-0101"},"geometry":{"type":"Polygon","coordinates":[[[75.7874147,26.9116521],[75.7874071,26.911675],[75.7874578,26.9116886],[75.7874655,26.9116657],[75.7874147,26.9116521]]]}},{"type":"Feature","properties":{"building_id":"B-0101","area_m2":46.0,"vertices":9,"sam_quality":0.978,"veg_frac":0.023,"sat":0.615,"val":0.211,"hue":48.0,"rect":0.802,"solidity":0.983,"ground_likeness":0.35,"parcel_id":"TMP-TO-0100"},"geometry":{"type":"Polygon","coordinates":[[[75.7876251,26.9117011],[75.7876388,26.9116428],[75.7875975,26.9116349],[75.7875807,26.9116392],[75.7875761,26.9116587],[75.7875652,26.9116714],[75.7875603,26.9116922],[75.7875793,26.9117039],[75.7876133,26.9117104],[75.7876251,26.9117011]]]}},{"type":"Feature","properties":{"building_id":"B-0102","area_m2":57.7,"vertices":5,"sam_quality":0.98,"veg_frac":0.0,"sat":0.152,"val":0.75,"hue":344.0,"rect":0.799,"solidity":0.914,"ground_likeness":0.0,"parcel_id":"TMP-TO-0102"},"geometry":{"type":"Polygon","coordinates":[[[75.7880891,26.9115964],[75.7880495,26.9116995],[75.7880609,26.911703],[75.7881031,26.9117],[75.7881372,26.9116112],[75.7880891,26.9115964]]]}},{"type":"Feature","properties":{"building_id":"B-0103","area_m2":20.4,"vertices":6,"sam_quality":0.929,"veg_frac":0.0,"sat":0.366,"val":0.17,"hue":340.0,"rect":0.699,"solidity":0.91,"ground_likeness":0.0,"parcel_id":"TMP-TO-0104"},"geometry":{"type":"Polygon","coordinates":[[[75.7874886,26.9116223],[75.7874812,26.9116472],[75.7875006,26.9116519],[75.7874953,26.9116698],[75.7875244,26.9116767],[75.7875371,26.9116339],[75.7874886,26.9116223]]]}},{"type":"Feature","properties":{"building_id":"B-0104","area_m2":21.2,"vertices":6,"sam_quality":0.973,"veg_frac":0.0,"sat":0.258,"val":0.222,"hue":338.0,"rect":0.857,"solidity":0.99,"ground_likeness":0.0,"parcel_id":"TMP-TO-0103"},"geometry":{"type":"Polygon","coordinates":[[[75.7881678,26.9116205],[75.7881495,26.9116602],[75.788157,26.911663],[75.7881627,26.9116731],[75.7881834,26.9116808],[75.7882049,26.9116343],[75.7881678,26.9116205]]]}},{"type":"Feature","properties":{"building_id":"B-0105","area_m2":37.3,"vertices":4,"sam_quality":0.883,"veg_frac":0.0,"sat":0.393,"val":0.128,"hue":348.0,"rect":0.627,"solidity":0.894,"ground_likeness":0.009,"parcel_id":"TMP-TO-0107"},"geometry":{"type":"Polygon","coordinates":[[[75.7882676,26.9116058],[75.788215,26.9116684],[75.7882495,26.9116917],[75.7883021,26.911629],[75.7882676,26.9116058]]]}},{"type":"Feature","properties":{"building_id":"B-0106","area_m2":16.7,"vertices":8,"sam_quality":0.92,"veg_frac":0.0,"sat":0.143,"val":0.395,"hue":318.0,"rect":0.734,"solidity":0.947,"ground_likeness":0.15,"parcel_id":"TMP-TO-0108"},"geometry":{"type":"Polygon","coordinates":[[[75.7874179,26.9116523],[75.7874257,26.9116534],[75.7874272,26.9116442],[75.7874321,26.9116393],[75.787436,26.9116161],[75.7874035,26.9116117],[75.787394,26.9116673],[75.7874065,26.9116691],[75.7874179,26.9116523]]]}},{"type":"Feature","properties":{"building_id":"B-0107","area_m2":24.3,"vertices":7,"sam_quality":0.895,"veg_frac":0.0,"sat":0.409,"val":0.185,"hue":344.0,"rect":0.737,"solidity":0.902,"ground_likeness":0.0,"parcel_id":"TMP-TO-0105"},"geometry":{"type":"Polygon","coordinates":[[[75.7877282,26.9116184],[75.7876899,26.9116122],[75.7876801,26.9116178],[75.7876726,26.9116552],[75.787706,26.9116605],[75.7877021,26.9116804],[75.7877203,26.9116578],[75.7877282,26.9116184]]]}},{"type":"Feature","properties":{"building_id":"B-0108","area_m2":19.5,"vertices":6,"sam_quality":0.931,"veg_frac":0.018,"sat":0.243,"val":0.741,"hue":56.0,"rect":0.709,"solidity":0.989,"ground_likeness":0.0,"parcel_id":"TMP-TO-0106"},"geometry":{"type":"Polygon","coordinates":[[[75.7878915,26.9116457],[75.7878852,26.9116268],[75.7878647,26.911601],[75.7878423,26.9116523],[75.7878799,26.9116655],[75.7878834,26.9116642],[75.7878915,26.9116457]]]}},{"type":"Feature","properties":{"building_id":"B-0109","area_m2":20.0,"vertices":6,"sam_quality":0.949,"veg_frac":0.0,"sat":0.202,"val":0.486,"hue":4.0,"rect":0.802,"solidity":0.937,"ground_likeness":0.0,"parcel_id":"TMP-TO-0109"},"geometry":{"type":"Polygon","coordinates":[[[75.7873886,26.9116043],[75.787348,26.9115957],[75.7873379,26.9116339],[75.7873588,26.9116384],[75.7873625,26.9116521],[75.7873767,26.9116496],[75.7873886,26.9116043]]]}},{"type":"Feature","properties":{"building_id":"B-0110","area_m2":29.1,"vertices":6,"sam_quality":0.929,"veg_frac":0.0,"sat":0.283,"val":0.409,"hue":8.0,"rect":0.745,"solidity":0.932,"ground_likeness":0.0,"parcel_id":"TMP-TO-0110"},"geometry":{"type":"Polygon","coordinates":[[[75.7878497,26.911603],[75.7878464,26.9115915],[75.787824,26.9115848],[75.7878002,26.9116497],[75.7878388,26.9116611],[75.7878591,26.9116057],[75.7878497,26.911603]]]}},{"type":"Feature","properties":{"building_id":"B-0111","area_m2":60.5,"vertices":8,"sam_quality":0.951,"veg_frac":0.0,"sat":0.147,"val":0.452,"hue":10.0,"rect":0.625,"solidity":0.79,"ground_likeness":0.019,"parcel_id":"TMP-TO-0111"},"geometry":{"type":"Polygon","coordinates":[[[75.7882293,26.9116362],[75.7882524,26.9115867],[75.7881958,26.9115656],[75.7881706,26.9116198],[75.7882068,26.9116333],[75.7881882,26.9116732],[75.7882267,26.9116876],[75.7882475,26.911643],[75.7882293,26.9116362]]]}},{"type":"Feature","properties":{"building_id":"B-0112","area_m2":42.9,"vertices":8,"sam_quality":0.96,"veg_frac":0.0,"sat":0.166,"val":0.662,"hue":328.0,"rect":0.722,"solidity":0.878,"ground_likeness":0.0,"parcel_id":"TMP-TO-0112"},"geometry":{"type":"Polygon","coordinates":[[[75.7875805,26.9115673],[75.7875724,26.9115879],[75.7875426,26.9115784],[75.7875281,26.9116151],[75.7875459,26.9116207],[75.7875371,26.911643],[75.7875755,26.9116553],[75.7876071,26.9115758],[75.7875805,26.9115673]]]}},{"type":"Feature","properties":{"building_id":"B-0113","area_m2":15.3,"vertices":5,"sam_quality":0.965,"veg_frac":0.0,"sat":0.236,"val":0.336,"hue":354.0,"rect":0.898,"solidity":1.015,"ground_likeness":0.0,"parcel_id":"TMP-TO-0113"},"geometry":{"type":"Polygon","coordinates":[[[75.7873346,26.9115868],[75.7872966,26.9115831],[75.7872945,26.9116005],[75.7872946,26.9116202],[75.7873301,26.9116237],[75.7873346,26.9115868]]]}},{"type":"Feature","properties":{"building_id":"B-0114","area_m2":18.2,"vertices":7,"sam_quality":0.902,"veg_frac":0.0,"sat":0.216,"val":0.37,"hue":258.0,"rect":0.772,"solidity":0.93,"ground_likeness":0.0,"parcel_id":"TMP-TO-0114"},"geometry":{"type":"Polygon","coordinates":[[[75.7874532,26.9116011],[75.7874521,26.9115877],[75.7874298,26.9115811],[75.7874095,26.9115631],[75.7873941,26.9116046],[75.7874336,26.9116163],[75.7874387,26.9116027],[75.7874532,26.9116011]]]}},{"type":"Feature","properties":{"building_id":"B-0115","area_m2":82.9,"vertices":15,"sam_quality":0.894,"veg_frac":0.0,"sat":0.26,"val":0.657,"hue":322.0,"rect":0.751,"solidity":0.922,"ground_likeness":0.0,"parcel_id":"TMP-TO-0117"},"geometry":{"type":"Polygon","coordinates":[[[75.7878102,26.9116251],[75.7878147,26.9115781],[75.7878066,26.9115716],[75.7877881,26.9115681],[75.7877961,26.9115623],[75.787796,26.9115515],[75.7877888,26.9115537],[75.7877371,26.9115301],[75.7877214,26.9115938],[75.7877215,26.9116053],[75.7877401,26.9116139],[75.7877338,26.9116342],[75.7877499,26.9116341],[75.7877895,26.9116497],[75.7877975,26.9116482],[75.7878102,26.9116251]]]}},{"type":"Feature","properties":{"building_id":"B-0116","area_m2":194.6,"vertices":35,"sam_quality":0.937,"veg_frac":0.0,"sat":0.172,"val":0.706,"hue":348.0,"rect":0.817,"solidity":0.905,"ground_likeness":0.0,"parcel_id":"TMP-TO-0115"},"geometry":{"type":"Polygon","coordinates":[[[75.788048,26.9116338],[75.7880608,26.9116193],[75.7880928,26.9115989],[75.7881057,26.9115974],[75.7881305,26.9115727],[75.788128,26.9115619],[75.7881151,26.911549],[75.7881094,26.9115483],[75.7881094,26.9115403],[75.7881053,26.9115396],[75.7881109,26.9115288],[75.7881092,26.9115216],[75.7880857,26.9115],[75.7880656,26.9114987],[75.7880527,26.9115045],[75.788011,26.9115308],[75.7880111,26.9115409],[75.7880183,26.9115423],[75.7880176,26.9115546],[75.7880111,26.9115495],[75.788008,26.9115575],[75.7879798,26.9115598],[75.7879212,26.911597],[75.7879294,26.9116186],[75.7879392,26.9116301],[75.7879472,26.9116308],[75.7879593,26.9116228],[75.7879706,26.9116357],[75.7879723,26.9116465],[75.7879796,26.9116552],[75.7879917,26.911658],[75.7879981,26.9116515],[75.7880046,26.9116521],[75.7880111,26.9116608],[75.7880183,26.9116586],[75.788048,26.9116338]]]}},{"type":"Feature","properties":{"building_id":"B-0117","area_m2":51.2,"vertices":4,"sam_quality":0.966,"veg_frac":0.0,"sat":0.157,"val":0.692,"hue":350.0,"rect":0.779,"solidity":0.92,"ground_likeness":0.0,"parcel_id":"TMP-TO-0116"},"geometry":{"type":"Polygon","coordinates":[[[75.7874811,26.9115345],[75.7874578,26.9116013],[75.7875212,26.9116191],[75.7875446,26.9115523],[75.7874811,26.9115345]]]}},{"type":"Feature","properties":{"building_id":"B-0118","area_m2":49.3,"vertices":5,"sam_quality":0.919,"veg_frac":0.0,"sat":0.213,"val":0.663,"hue":348.0,"rect":0.905,"solidity":0.97,"ground_likeness":0.0,"parcel_id":"TMP-TO-0118"},"geometry":{"type":"Polygon","coordinates":[[[75.787632,26.911522],[75.7876238,26.9115247],[75.7876047,26.9116075],[75.7876544,26.9116167],[75.7876744,26.9115299],[75.787632,26.911522]]]}},{"type":"Feature","properties":{"building_id":"B-0119","area_m2":21.5,"vertices":6,"sam_quality":0.946,"veg_frac":0.0,"sat":0.209,"val":0.329,"hue":326.0,"rect":0.668,"solidity":0.885,"ground_likeness":0.0,"parcel_id":"TMP-TO-0119"},"geometry":{"type":"Polygon","coordinates":[[[75.7874609,26.9115367],[75.7874553,26.9115481],[75.7874255,26.9115363],[75.78741,26.9115679],[75.7874542,26.9115853],[75.7874809,26.911531],[75.7874609,26.9115367]]]}},{"type":"Feature","properties":{"building_id":"B-0120","area_m2":87.7,"vertices":6,"sam_quality":0.938,"veg_frac":0.0,"sat":0.284,"val":0.206,"hue":348.0,"rect":0.827,"solidity":0.953,"ground_likeness":0.0,"parcel_id":"TMP-TO-0120"},"geometry":{"type":"Polygon","coordinates":[[[75.7873977,26.9115766],[75.7874295,26.9115279],[75.7873006,26.9115132],[75.7872942,26.9115582],[75.7872943,26.911583],[75.7873952,26.9115946],[75.7873977,26.9115766]]]}},{"type":"Feature","properties":{"building_id":"B-0121","area_m2":19.4,"vertices":6,"sam_quality":0.966,"veg_frac":0.0,"sat":0.271,"val":0.383,"hue":6.0,"rect":0.883,"solidity":0.977,"ground_likeness":0.0,"parcel_id":"TMP-TO-0121"},"geometry":{"type":"Polygon","coordinates":[[[75.7877213,26.9115247],[75.7877155,26.9115178],[75.7876998,26.9115148],[75.7876881,26.911564],[75.7877243,26.9115709],[75.7877347,26.9115272],[75.7877213,26.9115247]]]}},{"type":"Feature","properties":{"building_id":"B-0122","area_m2":44.4,"vertices":4,"sam_quality":0.9,"veg_frac":0.0,"sat":0.194,"val":0.66,"hue":348.0,"rect":0.694,"solidity":0.814,"ground_likeness":0.002,"parcel_id":"TMP-TO-0123"},"geometry":{"type":"Polygon","coordinates":[[[75.787913,26.9114826],[75.7878762,26.9114958],[75.7879183,26.9115903],[75.7879552,26.9115771],[75.787913,26.9114826]]]}},{"type":"Feature","properties":{"building_id":"B-0123","area_m2":17.2,"vertices":7,"sam_quality":0.931,"veg_frac":0.0,"sat":0.221,"val":0.647,"hue":8.0,"rect":0.822,"solidity":0.97,"ground_likeness":0.0,"parcel_id":"TMP-TO-0122"},"geometry":{"type":"Polygon","coordinates":[[[75.7875997,26.911552],[75.7876086,26.9115274],[75.7875646,26.9115145],[75.787552,26.9115277],[75.7875463,26.9115431],[75.7875763,26.9115519],[75.7875871,26.9115483],[75.7875997,26.911552]]]}},{"type":"Feature","properties":{"building_id":"B-0124","area_m2":47.3,"vertices":4,"sam_quality":0.89,"veg_frac":0.0,"sat":0.32,"val":0.343,"hue":348.0,"rect":0.724,"solidity":0.886,"ground_likeness":0.0,"parcel_id":"TMP-TO-0125"},"geometry":{"type":"Polygon","coordinates":[[[75.7881855,26.9114559],[75.7881244,26.9115391],[75.7881604,26.9115604],[75.7882215,26.9114771],[75.7881855,26.9114559]]]}},{"type":"Feature","properties":{"building_id":"B-0125","area_m2":16.8,"vertices":7,"sam_quality":0.947,"veg_frac":0.0,"sat":0.209,"val":0.507,"hue":14.0,"rect":0.719,"solidity":0.914,"ground_likeness":0.0,"parcel_id":"TMP-TO-0124"},"geometry":{"type":"Polygon","coordinates":[[[75.7876452,26.9115185],[75.7876125,26.9115044],[75.7875977,26.9114896],[75.7875845,26.9114839],[75.7875695,26.9115121],[75.787617,26.9115326],[75.7876237,26.91152],[75.7876452,26.9115185]]]}},{"type":"Feature","properties":{"building_id":"B-0126","area_m2":16.2,"vertices":7,"sam_quality":0.88,"veg_frac":0.0,"sat":0.273,"val":0.408,"hue":4.0,"rect":0.728,"solidity":0.92,"ground_likeness":0.0,"parcel_id":"TMP-TO-0129"},"geometry":{"type":"Polygon","coordinates":[[[75.7879736,26.9114862],[75.7879577,26.9114798],[75.7879258,26.9114954],[75.7879322,26.9115058],[75.7879276,26.9115184],[75.7879332,26.9115276],[75.7879747,26.9115073],[75.7879736,26.9114862]]]}},{"type":"Feature","properties":{"building_id":"B-0127","area_m2":15.3,"vertices":5,"sam_quality":0.963,"veg_frac":0.0,"sat":0.177,"val":0.477,"hue":12.0,"rect":0.929,"solidity":0.99,"ground_likeness":0.0,"parcel_id":"TMP-TO-0126"},"geometry":{"type":"Polygon","coordinates":[[[75.7873409,26.9114814],[75.7872949,26.9114795],[75.7872938,26.9115007],[75.7872938,26.9115098],[75.7873393,26.9115117],[75.7873409,26.9114814]]]}},{"type":"Feature","properties":{"building_id":"B-0128","area_m2":17.0,"vertices":5,"sam_quality":0.952,"veg_frac":0.0,"sat":0.474,"val":0.455,"hue":4.0,"rect":0.838,"solidity":0.98,"ground_likeness":0.0,"parcel_id":"TMP-TO-0127"},"geometry":{"type":"Polygon","coordinates":[[[75.7873977,26.9114873],[75.7873431,26.9114801],[75.787339,26.9115051],[75.7874013,26.9115133],[75.7874037,26.9114989],[75.7873977,26.9114873]]]}},{"type":"Feature","properties":{"building_id":"B-0129","area_m2":51.7,"vertices":6,"sam_quality":0.91,"veg_frac":0.0,"sat":0.225,"val":0.701,"hue":12.0,"rect":0.691,"solidity":0.894,"ground_likeness":0.0,"parcel_id":"TMP-TO-0128"},"geometry":{"type":"Polygon","coordinates":[[[75.7875597,26.9114725],[75.7875411,26.91145],[75.7875336,26.9114466],[75.7874894,26.9115255],[75.7875416,26.911549],[75.7875794,26.9114814],[75.7875597,26.9114725]]]}},{"type":"Feature","properties":{"building_id":"B-0130","area_m2":24.0,"vertices":10,"sam_quality":0.887,"veg_frac":0.0,"sat":0.489,"val":0.136,"hue":338.0,"rect":0.686,"solidity":0.953,"ground_likeness":0.0,"parcel_id":"TMP-TO-0130"},"geometry":{"type":"Polygon","coordinates":[[[75.7881686,26.9114801],[75.7881813,26.9114634],[75.7881805,26.9114562],[75.7881724,26.9114548],[75.7881475,26.9114679],[75.788105,26.9114992],[75.7881035,26.9115064],[75.7881124,26.9115114],[75.788123,26.9115258],[75.7881366,26.9115156],[75.7881686,26.9114801]]]}},{"type":"Feature","properties":{"building_id":"B-0131","area_m2":14.0,"vertices":5,"sam_quality":0.877,"veg_frac":0.0,"sat":0.334,"val":0.377,"hue":8.0,"rect":0.723,"solidity":0.96,"ground_likeness":0.0,"parcel_id":"TMP-TO-0131"},"geometry":{"type":"Polygon","coordinates":[[[75.7880929,26.9114974],[75.7880636,26.9114586],[75.7880351,26.9114759],[75.7880553,26.9115028],[75.7880659,26.9114964],[75.7880929,26.9114974]]]}},{"type":"Feature","properties":{"building_id":"B-0132","area_m2":92.4,"vertices":4,"sam_quality":0.907,"veg_frac":0.179,"sat":0.35,"val":0.475,"hue":264.0,"rect":0.856,"solidity":0.957,"ground_likeness":0.0,"parcel_id":"TMP-TO-0132"},"geometry":{"type":"Polygon","coordinates":[[[75.7874586,26.9114143],[75.7874004,26.9115245],[75.7874627,26.9115509],[75.7875209,26.9114407],[75.7874586,26.9114143]]]}},{"type":"Feature","properties":{"building_id":"B-0133","area_m2":69.6,"vertices":11,"sam_quality":0.977,"veg_frac":0.0,"sat":0.319,"val":0.181,"hue":338.0,"rect":0.589,"solidity":0.998,"ground_likeness":0.023,"parcel_id":"TMP-TO-0133"},"geometry":{"type":"Polygon","coordinates":[[[75.7883072,26.9113767],[75.7882968,26.9113869],[75.7882961,26.9113934],[75.7882928,26.911392],[75.7882888,26.9113963],[75.7882921,26.9113985],[75.7882768,26.9114108],[75.7882347,26.9114912],[75.7882363,26.911497],[75.7882712,26.9115257],[75.7883081,26.9115082],[75.7883072,26.9113767]]]}},{"type":"Feature","properties":{"building_id":"B-0134","area_m2":17.9,"vertices":6,"sam_quality":0.901,"veg_frac":0.0,"sat":0.186,"val":0.467,"hue":15.0,"rect":0.68,"solidity":0.892,"ground_likeness":0.0,"parcel_id":"TMP-TO-0134"},"geometry":{"type":"Polygon","coordinates":[[[75.7880126,26.911439],[75.7880066,26.9114285],[75.7879585,26.9114503],[75.7879762,26.9114818],[75.788012,26.9114656],[75.7880035,26.9114505],[75.7880126,26.911439]]]}},{"type":"Feature","properties":{"building_id":"B-0135","area_m2":13.7,"vertices":7,"sam_quality":0.941,"veg_frac":0.0,"sat":0.451,"val":0.095,"hue":338.0,"rect":0.776,"solidity":1.002,"ground_likeness":0.0,"parcel_id":"TMP-TO-0135"},"geometry":{"type":"Polygon","coordinates":[[[75.7874359,26.9114405],[75.787422,26.9114307],[75.7874115,26.9114334],[75.7873962,26.911451],[75.7874029,26.9114675],[75.7874184,26.9114783],[75.7874361,26.911458],[75.7874359,26.9114405]]]}},{"type":"Feature","properties":{"building_id":"B-0136","area_m2":34.8,"vertices":4,"sam_quality":0.949,"veg_frac":0.0,"sat":0.16,"val":0.295,"hue":300.0,"rect":0.777,"solidity":0.941,"ground_likeness":0.0,"parcel_id":"TMP-TO-0136"},"geometry":{"type":"Polygon","coordinates":[[[75.7873474,26.9113966],[75.7873054,26.9114683],[75.7873399,26.9114846],[75.787382,26.9114129],[75.7873474,26.9113966]]]}},{"type":"Feature","properties":{"building_id":"B-0137","area_m2":15.2,"vertices":5,"sam_quality":0.875,"veg_frac":0.0,"sat":0.2,"val":0.509,"hue":12.0,"rect":0.743,"solidity":0.916,"ground_likeness":0.0,"parcel_id":"TMP-TO-0137"},"geometry":{"type":"Polygon","coordinates":[[[75.7877961,26.9114236],[75.7877754,26.9114102],[75.7877413,26.9114525],[75.7877677,26.9114695],[75.7877715,26.9114542],[75.7877961,26.9114236]]]}},{"type":"Feature","properties":{"building_id":"B-0138","area_m2":25.5,"vertices":7,"sam_quality":0.921,"veg_frac":0.0,"sat":0.243,"val":0.179,"hue":338.0,"rect":0.769,"solidity":0.912,"ground_likeness":0.0,"parcel_id":"TMP-TO-0139"},"geometry":{"type":"Polygon","coordinates":[[[75.7881856,26.9114521],[75.7882102,26.9114269],[75.7881786,26.9114022],[75.7881363,26.9114456],[75.7881378,26.9114559],[75.7881543,26.9114688],[75.788177,26.9114454],[75.7881856,26.9114521]]]}},{"type":"Feature","properties":{"building_id":"B-0139","area_m2":77.3,"vertices":25,"sam_quality":0.932,"veg_frac":0.0,"sat":0.189,"val":0.63,"hue":344.0,"rect":0.751,"solidity":0.941,"ground_likeness":0.0,"parcel_id":"TMP-TO-0138"},"geometry":{"type":"Polygon","coordinates":[[[75.7879477,26.9114618],[75.7879549,26.9114516],[75.7880046,26.9114239],[75.7880046,26.9114152],[75.7879883,26.911398],[75.7879834,26.9113814],[75.7879753,26.9113714],[75.7879632,26.9113721],[75.7879375,26.9113918],[75.7879311,26.911399],[75.7879312,26.9114048],[75.7879119,26.911415],[75.7878975,26.9114303],[75.787892,26.9114433],[75.7878711,26.9114593],[75.787872,26.9114709],[75.7878777,26.911473],[75.7878784,26.9114658],[75.7878913,26.91147],[75.7878898,26.9114729],[75.7878938,26.9114715],[75.7878922,26.9114744],[75.7879003,26.9114772],[75.7879011,26.9114823],[75.7879148,26.9114793],[75.7879477,26.9114618]]]}},{"type":"Feature","properties":{"building_id":"B-0140","area_m2":202.6,"vertices":15,"sam_quality":0.929,"veg_frac":0.0,"sat":0.193,"val":0.406,"hue":220.0,"rect":0.665,"solidity":0.983,"ground_likeness":0.0,"parcel_id":"TMP-TO-0140"},"geometry":{"type":"Polygon","coordinates":[[[75.7877044,26.9114588],[75.7876814,26.9114019],[75.7876733,26.9113889],[75.7876652,26.9113846],[75.7876635,26.9113767],[75.787657,26.9113717],[75.7876465,26.9113717],[75.7876465,26.9113652],[75.7876376,26.9113573],[75.7874829,26.9113582],[75.7874887,26.9113813],[75.7875284,26.9114107],[75.7875657,26.9114502],[75.7876329,26.9114946],[75.7877052,26.9114711],[75.7877044,26.9114588]]]}},{"type":"Feature","properties":{"building_id":"B-0141","area_m2":71.8,"vertices":6,"sam_quality":0.96,"veg_frac":0.0,"sat":0.124,"val":0.542,"hue":338.0,"rect":0.844,"solidity":0.93,"ground_likeness":0.0,"parcel_id":"TMP-TO-0142"},"geometry":{"type":"Polygon","coordinates":[[[75.7878982,26.911413],[75.7878965,26.911402],[75.7878417,26.9113556],[75.787776,26.9114181],[75.7878299,26.9114637],[75.7878743,26.9114215],[75.7878982,26.911413]]]}},{"type":"Feature","properties":{"building_id":"B-0142","area_m2":20.8,"vertices":6,"sam_quality":0.985,"veg_frac":0.0,"sat":0.096,"val":0.478,"hue":300.0,"rect":0.849,"solidity":0.998,"ground_likeness":0.0,"parcel_id":"TMP-TO-0141"},"geometry":{"type":"Polygon","coordinates":[[[75.7874559,26.9113919],[75.7874344,26.911376],[75.7874221,26.9113812],[75.7874001,26.9114051],[75.7874381,26.9114332],[75.787455,26.9114148],[75.7874559,26.9113919]]]}},{"type":"Feature","properties":{"building_id":"B-0143","area_m2":40.3,"vertices":8,"sam_quality":0.901,"veg_frac":0.0,"sat":0.208,"val":0.49,"hue":6.0,"rect":0.753,"solidity":0.97,"ground_likeness":0.0,"parcel_id":"TMP-TO-0144"},"geometry":{"type":"Polygon","coordinates":[[[75.7877719,26.9113879],[75.7877769,26.9113757],[75.7877613,26.9113567],[75.7877151,26.9113569],[75.7877043,26.9113641],[75.7877071,26.9113831],[75.7877442,26.9114284],[75.7877837,26.9114023],[75.7877719,26.9113879]]]}},{"type":"Feature","properties":{"building_id":"B-0144","area_m2":98.1,"vertices":32,"sam_quality":0.884,"veg_frac":0.0,"sat":0.118,"val":0.56,"hue":272.0,"rect":0.557,"solidity":0.811,"ground_likeness":0.039,"parcel_id":"TMP-TO-0145"},"geometry":{"type":"Polygon","coordinates":[[[75.7881544,26.9114108],[75.7881632,26.91141],[75.7881624,26.9114043],[75.7881551,26.911405],[75.7881527,26.9114014],[75.7881632,26.9114021],[75.7881631,26.9113956],[75.7881591,26.9113963],[75.7881591,26.9113934],[75.7881687,26.9113854],[75.7881712,26.9113934],[75.7881858,26.911407],[75.7882093,26.9114257],[75.7882165,26.9114271],[75.7882437,26.9113951],[75.7882477,26.9113886],[75.7882476,26.9113799],[75.7882168,26.9113541],[75.788191,26.9113543],[75.788183,26.9113615],[75.7881766,26.9113601],[75.7881766,26.9113579],[75.7881814,26.9113579],[75.7881806,26.9113543],[75.7880404,26.9113558],[75.788059,26.9113709],[75.7880849,26.9113794],[75.7881189,26.9114045],[75.7881327,26.9114167],[75.7881319,26.9114283],[75.7881425,26.911434],[75.7881537,26.9114252],[75.7881544,26.9114108]],[[75.7882469,26.911385],[75.7882452,26.9113836],[75.7882468,26.9113836],[75.7882469,26.911385]]]}},{"type":"Feature","properties":{"building_id":"B-0145","area_m2":23.7,"vertices":5,"sam_quality":0.967,"veg_frac":0.167,"sat":0.637,"val":0.083,"hue":60.0,"rect":0.804,"solidity":0.963,"ground_likeness":0.0,"parcel_id":"TMP-TO-0143"},"geometry":{"type":"Polygon","coordinates":[[[75.7873342,26.9113763],[75.7873425,26.9113592],[75.7872933,26.9113605],[75.787295,26.911412],[75.7873354,26.9114109],[75.7873342,26.9113763]]]}}]}