{"type":"FeatureCollection","features":[{"type":"Feature","properties":{"issue_id":"E-001","type":"parcel_gap","severity":"warning","message":"Unassigned gap of 1.2 m2 between parcels","fix":"Merge into the neighbouring parcel with the longest shared edge or mark as common land","parcel_ids":"","area_m2":1.16},"geometry":{"type":"Polygon","coordinates":[[[75.7875543,26.9120057],[75.7875688,26.9120121],[75.7875712,26.912002],[75.7875647,26.9120006],[75.7875543,26.9120057]]]}},{"type":"Feature","properties":{"issue_id":"E-002","type":"tiny_parcel","severity":"info","message":"TMP-TO-0009 is only 15.6 m2","fix":"Verify on the ground - possible fragment","parcel_ids":"TMP-TO-0009","area_m2":15.64},"geometry":{"type":"Point","coordinates":[75.7877991,26.9123207]}},{"type":"Feature","properties":{"issue_id":"E-003","type":"sliver_parcel","severity":"warning","message":"TMP-TO-0017 is a thin sliver (1.05 m wide)","fix":"Merge into an adjacent parcel","parcel_ids":"TMP-TO-0017","area_m2":17.07},"geometry":{"type":"Point","coordinates":[75.7883021,26.9122893]}},{"type":"Feature","properties":{"issue_id":"E-004","type":"tiny_parcel","severity":"info","message":"TMP-TO-0018 is only 17.8 m2","fix":"Verify on the ground - possible fragment","parcel_ids":"TMP-TO-0018","area_m2":17.78},"geometry":{"type":"Point","coordinates":[75.7877504,26.9122664]}},{"type":"Feature","properties":{"issue_id":"E-005","type":"tiny_parcel","severity":"info","message":"TMP-TO-0019 is only 15.6 m2","fix":"Verify on the ground - possible fragment","parcel_ids":"TMP-TO-0019","area_m2":15.62},"geometry":{"type":"Point","coordinates":[75.7876901,26.9122545]}},{"type":"Feature","properties":{"issue_id":"E-006","type":"tiny_parcel","severity":"info","message":"TMP-TO-0029 is only 16.9 m2","fix":"Verify on the ground - possible fragment","parcel_ids":"TMP-TO-0029","area_m2":16.93},"geometry":{"type":"Point","coordinates":[75.7878016,26.9121672]}},{"type":"Feature","properties":{"issue_id":"E-007","type":"tiny_parcel","severity":"info","message":"TMP-TO-0053 is only 15.8 m2","fix":"Verify on the ground - possible fragment","parcel_ids":"TMP-TO-0053","area_m2":15.79},"geometry":{"type":"Point","coordinates":[75.7880407,26.9120235]}},{"type":"Feature","properties":{"issue_id":"E-008","type":"tiny_parcel","severity":"info","message":"TMP-TO-0059 is only 17.4 m2","fix":"Verify on the ground - possible fragment","parcel_ids":"TMP-TO-0059","area_m2":17.35},"geometry":{"type":"Point","coordinates":[75.787984,26.9119719]}},{"type":"Feature","properties":{"issue_id":"E-009","type":"tiny_parcel","severity":"info","message":"TMP-TO-0073 is only 17.0 m2","fix":"Verify on the ground - possible fragment","parcel_ids":"TMP-TO-0073","area_m2":17.03},"geometry":{"type":"Point","coordinates":[75.7874125,26.9118645]}},{"type":"Feature","properties":{"issue_id":"E-010","type":"sliver_parcel","severity":"warning","message":"TMP-TO-0081 is a thin sliver (1.38 m wide)","fix":"Merge into an adjacent parcel","parcel_ids":"TMP-TO-0081","area_m2":22.23},"geometry":{"type":"Point","coordinates":[75.7873055,26.911794]}},{"type":"Feature","properties":{"issue_id":"E-011","type":"tiny_parcel","severity":"info","message":"TMP-TO-0101 is only 15.3 m2","fix":"Verify on the ground - possible fragment","parcel_ids":"TMP-TO-0101","area_m2":15.31},"geometry":{"type":"Point","coordinates":[75.7874362,26.9116766]}},{"type":"Feature","properties":{"issue_id":"E-012","type":"tiny_parcel","severity":"info","message":"TMP-TO-0108 is only 16.9 m2","fix":"Verify on the ground - possible fragment","parcel_ids":"TMP-TO-0108","area_m2":16.93},"geometry":{"type":"Point","coordinates":[75.7874136,26.9116421]}},{"type":"Feature","properties":{"issue_id":"E-013","type":"tiny_parcel","severity":"info","message":"TMP-TO-0122 is only 17.8 m2","fix":"Verify on the ground - possible fragment","parcel_ids":"TMP-TO-0122","area_m2":17.83},"geometry":{"type":"Point","coordinates":[75.7875784,26.911531]}},{"type":"Feature","properties":{"issue_id":"E-014","type":"tiny_parcel","severity":"info","message":"TMP-TO-0124 is only 17.8 m2","fix":"Verify on the ground - possible fragment","parcel_ids":"TMP-TO-0124","area_m2":17.77},"geometry":{"type":"Point","coordinates":[75.7875936,26.9115075]}},{"type":"Feature","properties":{"issue_id":"E-015","type":"tiny_parcel","severity":"info","message":"TMP-TO-0131 is only 14.8 m2","fix":"Verify on the ground - possible fragment","parcel_ids":"TMP-TO-0131","area_m2":14.77},"geometry":{"type":"Point","coordinates":[75.7880588,26.9114821]}},{"type":"Feature","properties":{"issue_id":"E-016","type":"tiny_parcel","severity":"info","message":"TMP-TO-0135 is only 15.6 m2","fix":"Verify on the ground - possible fragment","parcel_ids":"TMP-TO-0135","area_m2":15.56},"geometry":{"type":"Point","coordinates":[75.78742,26.9114452]}},{"type":"Feature","properties":{"issue_id":"E-017","type":"tiny_parcel","severity":"info","message":"TMP-TO-0137 is only 17.3 m2","fix":"Verify on the ground - possible fragment","parcel_ids":"TMP-TO-0137","area_m2":17.34},"geometry":{"type":"Point","coordinates":[75.7877649,26.9114404]}},{"type":"Feature","properties":{"issue_id":"E-018","type":"building_overlap","severity":"warning","message":"Buildings B-0003 and B-0010 overlap by 1.8 m2","fix":"Check for shared wall vs digitising error; snap edges","parcel_ids":"","area_m2":1.8},"geometry":{"type":"Polygon","coordinates":[[[75.7878874,26.9123453],[75.7879229,26.9123487],[75.7878885,26.9123362],[75.7878874,26.9123453]]]}},{"type":"Feature","properties":{"issue_id":"E-019","type":"building_overlap","severity":"warning","message":"Buildings B-0020 and B-0026 overlap by 1.3 m2","fix":"Check for shared wall vs digitising error; snap edges","parcel_ids":"","area_m2":1.26},"geometry":{"type":"Polygon","coordinates":[[[75.7880202,26.9122485],[75.7880217,26.9122382],[75.7879999,26.9122357],[75.7880202,26.9122485]]]}},{"type":"Feature","properties":{"issue_id":"E-020","type":"building_overlap","severity":"warning","message":"Buildings B-0105 and B-0111 overlap by 5.8 m2","fix":"Check for shared wall vs digitising error; snap edges","parcel_ids":"","area_m2":5.84},"geometry":{"type":"Polygon","coordinates":[[[75.7882307,26.911679],[75.7882475,26.911643],[75.788239,26.9116398],[75.788215,26.9116684],[75.7882307,26.911679]]]}},{"type":"Feature","properties":{"issue_id":"E-021","type":"building_overlap","severity":"warning","message":"Buildings B-0119 and B-0132 overlap by 1.4 m2","fix":"Check for shared wall vs digitising error; snap edges","parcel_ids":"","area_m2":1.42},"geometry":{"type":"Polygon","coordinates":[[[75.7874554,26.9115478],[75.7874627,26.9115509],[75.7874719,26.9115336],[75.7874609,26.9115367],[75.7874554,26.9115478]]]}},{"type":"Feature","properties":{"issue_id":"E-022","type":"building_overlap","severity":"warning","message":"Buildings B-0120 and B-0132 overlap by 1.2 m2","fix":"Check for shared wall vs digitising error; snap edges","parcel_ids":"","area_m2":1.18},"geometry":{"type":"Polygon","coordinates":[[[75.7874009,26.9115247],[75.787425,26.9115349],[75.7874295,26.9115279],[75.7874009,26.9115247]]]}},{"type":"Feature","properties":{"issue_id":"E-023","type":"building_overlap","severity":"warning","message":"Buildings B-0137 and B-0141 overlap by 1.6 m2","fix":"Check for shared wall vs digitising error; snap edges","parcel_ids":"","area_m2":1.57},"geometry":{"type":"Polygon","coordinates":[[[75.7877807,26.9114136],[75.787776,26.9114181],[75.7877906,26.9114304],[75.7877961,26.9114236],[75.7877807,26.9114136]]]}},{"type":"Feature","properties":{"issue_id":"E-024","type":"building_on_road","severity":"warning","message":"B-0085 intrudes 4.9 m2 into the road corridor - possible encroachment","fix":"Flag for field verification","parcel_ids":"","area_m2":4.88},"geometry":{"type":"MultiPolygon","coordinates":[[[[75.7876653,26.9117566],[75.7876541,26.9117574],[75.7876469,26.911774],[75.7876486,26.9117791],[75.7876455,26.9117798],[75.7876431,26.9117875],[75.7876684,26.911762],[75.7876653,26.9117566]]],[[[75.7876227,26.9117255],[75.7876433,26.9117235],[75.7876433,26.9117217],[75.7876252,26.9117173],[75.7876227,26.9117255]]],[[[75.7876315,26.911774],[75.787613,26.9117663],[75.7876165,26.911746],[75.7876097,26.9117687],[75.7876315,26.911774]]]]}},{"type":"Feature","properties":{"issue_id":"E-025","type":"building_straddles","severity":"error","message":"B-0010 straddles 2 parcels (TMP-TO-0010, TMP-TO-0003)","fix":"Move the shared boundary or split the building","parcel_ids":"TMP-TO-0010,TMP-TO-0003","area_m2":2.77},"geometry":{"type":"Point","coordinates":[75.7879464,26.9123115]}},{"type":"Feature","properties":{"issue_id":"E-026","type":"building_straddles","severity":"error","message":"B-0105 straddles 2 parcels (TMP-TO-0107, TMP-TO-0111)","fix":"Move the shared boundary or split the building","parcel_ids":"TMP-TO-0107,TMP-TO-0111","area_m2":6.29},"geometry":{"type":"Point","coordinates":[75.7882585,26.9116487]}},{"type":"Feature","properties":{"issue_id":"E-027","type":"no_road_access","severity":"info","message":"TMP-TO-0032 has no direct road access","fix":"Verify access easement on the ground","parcel_ids":"TMP-TO-0032","area_m2":31.9},"geometry":{"type":"Point","coordinates":[75.7879946,26.9121412]}},{"type":"Feature","properties":{"issue_id":"E-028","type":"no_road_access","severity":"info","message":"TMP-TO-0036 has no direct road access","fix":"Verify access easement on the ground","parcel_ids":"TMP-TO-0036","area_m2":31.37},"geometry":{"type":"Point","coordinates":[75.7879447,26.9121151]}},{"type":"Feature","properties":{"issue_id":"E-029","type":"no_road_access","severity":"info","message":"TMP-TO-0038 has no direct road access","fix":"Verify access easement on the ground","parcel_ids":"TMP-TO-0038","area_m2":42.52},"geometry":{"type":"Point","coordinates":[75.7880239,26.9121038]}},{"type":"Feature","properties":{"issue_id":"E-030","type":"no_road_access","severity":"info","message":"TMP-TO-0041 has no direct road access","fix":"Verify access easement on the ground","parcel_ids":"TMP-TO-0041","area_m2":41.06},"geometry":{"type":"Point","coordinates":[75.7879197,26.9120466]}},{"type":"Feature","properties":{"issue_id":"E-031","type":"no_road_access","severity":"info","message":"TMP-TO-0051 has no direct road access","fix":"Verify access easement on the ground","parcel_ids":"TMP-TO-0051","area_m2":21.02},"geometry":{"type":"Point","coordinates":[75.7879449,26.9120158]}},{"type":"Feature","properties":{"issue_id":"E-032","type":"no_road_access","severity":"info","message":"TMP-TO-0052 has no direct road access","fix":"Verify access easement on the ground","parcel_ids":"TMP-TO-0052","area_m2":30.42},"geometry":{"type":"Point","coordinates":[75.7878745,26.9120093]}},{"type":"Feature","properties":{"issue_id":"E-033","type":"no_road_access","severity":"info","message":"TMP-TO-0055 has no direct road access","fix":"Verify access easement on the ground","parcel_ids":"TMP-TO-0055","area_m2":26.34},"geometry":{"type":"Point","coordinates":[75.7882265,26.9119922]}},{"type":"Feature","properties":{"issue_id":"E-034","type":"no_road_access","severity":"info","message":"TMP-TO-0096 has no direct road access","fix":"Verify access easement on the ground","parcel_ids":"TMP-TO-0096","area_m2":34.53},"geometry":{"type":"Point","coordinates":[75.7877875,26.911705]}},{"type":"Feature","properties":{"issue_id":"E-035","type":"no_road_access","severity":"info","message":"TMP-TO-0119 has no direct road access","fix":"Verify access easement on the ground","parcel_ids":"TMP-TO-0119","area_m2":24.97},"geometry":{"type":"Point","coordinates":[75.7874395,26.9115607]}}]}