{"type":"FeatureCollection","features":[{"type":"Feature","properties":{"kind":"open ground"},"geometry":{"type":"Polygon","coordinates":[[[75.7883111,26.9123929],[75.7877157,26.9123962],[75.7877284,26.912368],[75.7877412,26.9123564],[75.7877508,26.9123534],[75.7877419,26.9123426],[75.7877418,26.9123333],[75.7877523,26.9123238],[75.7877208,26.9123225],[75.7877015,26.9123291],[75.7876813,26.9123199],[75.7876692,26.9123199],[75.7876612,26.9123258],[75.7876509,26.9123497],[75.7876405,26.9123591],[75.7876139,26.9123578],[75.7876279,26.9123967],[75.7874974,26.9123975],[75.78751,26.9123598],[75.7874971,26.9123621],[75.7874761,26.912355],[75.7874746,26.912373],[75.7874805,26.9123975],[75.787304,26.9123985],[75.7873064,26.9124],[75.7883111,26.9123929]]]}},{"type":"Feature","properties":{"kind":"open ground"},"geometry":{"type":"Polygon","coordinates":[[[75.7873007,26.91227],[75.7873225,26.9122764],[75.7873556,26.9122798],[75.7873522,26.9122581],[75.7873408,26.9122445],[75.7873206,26.9122302],[75.7872989,26.9122476],[75.7873004,26.9123458],[75.7873007,26.91227]]]}},{"type":"Feature","properties":{"kind":"open ground"},"geometry":{"type":"Polygon","coordinates":[[[75.7875297,26.9118274],[75.7875781,26.9118358],[75.7875787,26.911804],[75.7875834,26.9117953],[75.7876035,26.9117815],[75.787535,26.911779],[75.7875263,26.911813],[75.7875135,26.9118246],[75.7875055,26.9118254],[75.7875201,26.911839],[75.7875297,26.9118274]]]}},{"type":"Feature","properties":{"kind":"open ground"},"geometry":{"type":"Polygon","coordinates":[[[75.7878452,26.9115526],[75.7878538,26.9115237],[75.7878256,26.9115224],[75.7878409,26.9115086],[75.787819,26.91149],[75.7878173,26.9114842],[75.7878093,26.9114878],[75.7877851,26.911488],[75.7877726,26.9115451],[75.7877888,26.9115522],[75.787796,26.9115515],[75.7877962,26.9115688],[75.7878091,26.9115731],[75.7878156,26.911581],[75.7878452,26.9115526]]]}},{"type":"Feature","properties":{"kind":"open ground"},"geometry":{"type":"Polygon","coordinates":[[[75.788111,26.9114219],[75.7881124,26.9114002],[75.7880849,26.9113794],[75.7880655,26.9113745],[75.7880464,26.9114035],[75.7880248,26.9114274],[75.7880715,26.9114272],[75.7880851,26.9114126],[75.7880773,26.9114531],[75.788111,26.9114219]]]}}]}