{"type":"FeatureCollection","features":[{"type":"Feature","properties":{"parcel_id":"TMP-TO-0001","building_id":"B-0001","area_m2":20.4,"perimeter_m":19.2,"building_coverage":0.77,"vegetation_share":0.0,"landuse":"Built-up","status":"Draft / Unverified"},"geometry":{"type":"Polygon","coordinates":[[[75.7873883,26.9123562],[75.7873802,26.9123439],[75.7873794,26.9123439],[75.7873745,26.9123418],[75.7873745,26.9123425],[75.7873689,26.9123483],[75.787356,26.9123477],[75.7873464,26.9123593],[75.7873328,26.9123709],[75.7873385,26.912381],[75.7874014,26.9123807],[75.7874078,26.9123712],[75.7874077,26.9123691],[75.7873883,26.9123562]]]}},{"type":"Feature","properties":{"parcel_id":"TMP-TO-0002","building_id":"B-0002","area_m2":30.8,"perimeter_m":24.9,"building_coverage":0.87,"vegetation_share":0.0,"landuse":"Built-up","status":"Draft / Unverified"},"geometry":{"type":"Polygon","coordinates":[[[75.7878662,26.9123745],[75.7878524,26.9123623],[75.7878467,26.9123529],[75.78782,26.9123415],[75.7878199,26.9123256],[75.7878135,26.9123271],[75.7877902,26.9123424],[75.7877879,26.9123511],[75.7877759,26.9123576],[75.7877768,26.9123764],[75.7877913,26.9123785],[75.787859,26.9123788],[75.7878646,26.9123773],[75.7878662,26.9123745]]]}},{"type":"Feature","properties":{"parcel_id":"TMP-TO-0003","building_id":"B-0003","area_m2":29.9,"perimeter_m":21.7,"building_coverage":0.93,"vegetation_share":0.0,"landuse":"Built-up","status":"Draft / Unverified"},"geometry":{"type":"Polygon","coordinates":[[[75.7879095,26.912341],[75.7878974,26.9123389],[75.7878893,26.912331],[75.7878844,26.9123339],[75.7878531,26.9123377],[75.7878467,26.9123529],[75.7878524,26.9123623],[75.7878662,26.9123745],[75.7878646,26.9123773],[75.7878952,26.9123779],[75.7879137,26.9123735],[75.7879281,26.9123604],[75.7879281,26.9123488],[75.7879095,26.912341]]]}},{"type":"Feature","properties":{"parcel_id":"TMP-TO-0004","building_id":"B-0004","area_m2":21.1,"perimeter_m":18.6,"building_coverage":0.82,"vegetation_share":0.0,"landuse":"Built-up","status":"Draft / Unverified"},"geometry":{"type":"Polygon","coordinates":[[[75.7874308,26.9123256],[75.7874283,26.9123141],[75.7874178,26.9123105],[75.7874178,26.9123112],[75.7873914,26.9123395],[75.787381,26.9123439],[75.7873802,26.9123439],[75.7873883,26.9123562],[75.7874077,26.9123691],[75.787419,26.9123654],[75.7874422,26.9123407],[75.7874422,26.9123393],[75.7874308,26.9123256]]]}},{"type":"Feature","properties":{"parcel_id":"TMP-TO-0005","building_id":"B-0005","area_m2":32.8,"perimeter_m":26.8,"building_coverage":0.93,"vegetation_share":0.0,"landuse":"Built-up","status":"Draft / Unverified"},"geometry":{"type":"Polygon","coordinates":[[[75.788227,26.9123508],[75.7882237,26.9123486],[75.7882259,26.9123074],[75.7882218,26.912306],[75.7882218,26.9123067],[75.788209,26.9123119],[75.7881799,26.9123077],[75.7881759,26.9123077],[75.788172,26.9123229],[75.7881833,26.9123221],[75.7881874,26.9123344],[75.7881826,26.9123416],[75.7881756,26.9123756],[75.7882247,26.9123746],[75.788227,26.9123508]]]}},{"type":"Feature","properties":{"parcel_id":"TMP-TO-0006","building_id":"B-0007","area_m2":28.0,"perimeter_m":45.3,"building_coverage":0.78,"vegetation_share":0.0,"landuse":"Built-up","status":"Draft / Unverified"},"geometry":{"type":"Polygon","coordinates":[[[75.7873,26.9124],[75.7873016,26.9123978],[75.7873013,26.9123574],[75.7873094,26.9123559],[75.7873215,26.9123681],[75.7873328,26.9123709],[75.7873464,26.9123593],[75.787356,26.9123477],[75.7873689,26.9123483],[75.7873745,26.9123425],[75.7873745,26.9123367],[75.7873719,26.9123173],[75.7873606,26.912305],[75.787359,26.9123051],[75.7873525,26.9123073],[75.7873413,26.9123203],[75.7873101,26.9123487],[75.7873012,26.9123473],[75.7873008,26.9122902],[75.7872992,26.9122909],[75.7873,26.9124]]]}},{"type":"Feature","properties":{"parcel_id":"TMP-TO-0007","building_id":"B-0008","area_m2":80.9,"perimeter_m":36.6,"building_coverage":0.95,"vegetation_share":0.0,"landuse":"Built-up","status":"Draft / Unverified"},"geometry":{"type":"Polygon","coordinates":[[[75.7881759,26.9123077],[75.7881743,26.9123077],[75.7881372,26.9122993],[75.7881203,26.9122979],[75.7880936,26.9122901],[75.7880807,26.9122895],[75.7880807,26.9122909],[75.7880777,26.9123155],[75.7880809,26.9123213],[75.7880698,26.9123343],[75.7880683,26.9123596],[75.7880635,26.9123661],[75.7880717,26.9123762],[75.7881571,26.9123757],[75.7881626,26.9123605],[75.7881656,26.9123309],[75.788172,26.9123229],[75.7881759,26.9123077]]]}},{"type":"Feature","properties":{"parcel_id":"TMP-TO-0008","building_id":"B-0015","area_m2":72.5,"perimeter_m":46.5,"building_coverage":0.42,"vegetation_share":0.0,"landuse":"Built-up","status":"Draft / Unverified"},"geometry":{"type":"Polygon","coordinates":[[[75.7876426,26.9123179],[75.7876483,26.9123215],[75.7876668,26.9123207],[75.7876612,26.9123258],[75.7876509,26.9123497],[75.7876405,26.9123591],[75.7876341,26.9123584],[75.7876422,26.912375],[75.7876785,26.9123748],[75.7876946,26.9123732],[75.7877155,26.9123666],[75.7877338,26.9123376],[75.7877353,26.9123225],[75.7877208,26.9123225],[75.7877056,26.9123291],[75.7876813,26.9123199],[75.7876886,26.9123184],[75.7876974,26.9123089],[75.7876981,26.9122945],[75.7876738,26.9122838],[75.7876471,26.9122695],[75.7876367,26.9122724],[75.7876184,26.9123108],[75.7876426,26.9123179]]]}},{"type":"Feature","properties":{"parcel_id":"TMP-TO-0009","building_id":"B-0009","area_m2":15.6,"perimeter_m":15.3,"building_coverage":0.96,"vegetation_share":0.0,"landuse":"Built-up","status":"Draft / Unverified"},"geometry":{"type":"Polygon","coordinates":[[[75.7878214,26.9123075],[75.7878125,26.9122931],[75.787806,26.9122932],[75.7877835,26.9123056],[75.7877756,26.9123157],[75.7877837,26.9123337],[75.7877902,26.9123424],[75.7878135,26.9123271],[75.7878199,26.9123256],[75.7878214,26.9123075]]]}},{"type":"Feature","properties":{"parcel_id":"TMP-TO-0010","building_id":"B-0010","area_m2":104.5,"perimeter_m":40.7,"building_coverage":0.9,"vegetation_share":0.0,"landuse":"Built-up","status":"Draft / Unverified"},"geometry":{"type":"Polygon","coordinates":[[[75.7880125,26.9123238],[75.7880146,26.9122812],[75.788013,26.9122812],[75.7880041,26.9122755],[75.7879525,26.9122729],[75.7879493,26.9122707],[75.7879452,26.9122707],[75.7879251,26.912268],[75.7878985,26.9122681],[75.7878922,26.9122862],[75.7878893,26.912331],[75.7878974,26.9123389],[75.7879095,26.912341],[75.7879281,26.9123488],[75.787945,26.912348],[75.7879483,26.9123588],[75.7879564,26.9123631],[75.787983,26.9123659],[75.7879909,26.9123463],[75.7880078,26.9123412],[75.7880125,26.9123238]]]}},{"type":"Feature","properties":{"parcel_id":"TMP-TO-0011","building_id":"B-0011","area_m2":64.4,"perimeter_m":35.8,"building_coverage":0.87,"vegetation_share":0.0,"landuse":"Built-up","status":"Draft / Unverified"},"geometry":{"type":"Polygon","coordinates":[[[75.7880683,26.9123596],[75.7880698,26.9123343],[75.7880809,26.9123213],[75.7880777,26.9123155],[75.7880807,26.9122909],[75.7880807,26.9122888],[75.7880605,26.9122816],[75.7880516,26.9122795],[75.7880451,26.9122579],[75.7880264,26.9122472],[75.7880209,26.9122616],[75.7880202,26.9122746],[75.7880154,26.9122812],[75.7880146,26.9122812],[75.7880125,26.9123238],[75.7880078,26.9123412],[75.7880078,26.912344],[75.7880119,26.9123512],[75.7880103,26.9123614],[75.7880305,26.9123649],[75.7880409,26.9123583],[75.7880635,26.9123661],[75.7880683,26.9123596]]]}},{"type":"Feature","properties":{"parcel_id":"TMP-TO-0012","building_id":"B-0006","area_m2":58.6,"perimeter_m":38.2,"building_coverage":0.52,"vegetation_share":0.0,"landuse":"Built-up","status":"Draft / Unverified"},"geometry":{"type":"Polygon","coordinates":[[[75.7882238,26.9122417],[75.7882174,26.9122548],[75.7882175,26.9122562],[75.7882191,26.9122598],[75.7882194,26.9122981],[75.7882218,26.9123046],[75.7882218,26.912306],[75.7882259,26.9123074],[75.7882237,26.9123486],[75.788227,26.9123508],[75.7882247,26.9123746],[75.7882328,26.912376],[75.7882674,26.9123758],[75.7882678,26.9123144],[75.7882597,26.9123058],[75.7882628,26.9122913],[75.7882547,26.9122813],[75.7882544,26.9122408],[75.7882238,26.9122417]]]}},{"type":"Feature","properties":{"parcel_id":"TMP-TO-0013","building_id":"B-0012","area_m2":22.3,"perimeter_m":19.1,"building_coverage":0.8,"vegetation_share":0.0,"landuse":"Built-up","status":"Draft / Unverified"},"geometry":{"type":"Polygon","coordinates":[[[75.7873914,26.9123395],[75.7874178,26.9123112],[75.7874178,26.9123098],[75.7873838,26.9122804],[75.7873765,26.9122826],[75.7873629,26.9122956],[75.7873606,26.912305],[75.7873719,26.9123173],[75.7873745,26.9123367],[75.7873745,26.9123418],[75.7873794,26.9123439],[75.787381,26.9123439],[75.7873914,26.9123395]]]}},{"type":"Feature","properties":{"parcel_id":"TMP-TO-0014","building_id":"B-0013","area_m2":22.4,"perimeter_m":24.5,"building_coverage":0.94,"vegetation_share":0.0,"landuse":"Built-up","status":"Draft / Unverified"},"geometry":{"type":"Polygon","coordinates":[[[75.787403,26.912268],[75.7873853,26.912276],[75.7873838,26.9122804],[75.7874178,26.9123098],[75.7874178,26.9123105],[75.7874283,26.9123141],[75.7874308,26.9123256],[75.7874422,26.9123393],[75.7874567,26.912337],[75.787467,26.9123146],[75.787454,26.9123045],[75.7874419,26.9123046],[75.7874185,26.9122881],[75.7874152,26.9122759],[75.787403,26.912268]]]}},{"type":"Feature","properties":{"parcel_id":"TMP-TO-0015","building_id":"B-0014","area_m2":101.6,"perimeter_m":41.1,"building_coverage":0.97,"vegetation_share":0.0,"landuse":"Built-up","status":"Draft / Unverified"},"geometry":{"type":"Polygon","coordinates":[[[75.7876367,26.9122724],[75.7876367,26.9122688],[75.7876213,26.9122603],[75.7876131,26.9122408],[75.7875824,26.9122265],[75.7875759,26.9122251],[75.787556,26.9122527],[75.7875425,26.9122867],[75.7875362,26.9122976],[75.7875259,26.912328],[75.7875219,26.9123338],[75.7875317,26.912346],[75.7875665,26.9123703],[75.7875825,26.9123529],[75.7875921,26.9123456],[75.7876024,26.9123232],[75.7876184,26.9123108],[75.7876367,26.9122724]]]}},{"type":"Feature","properties":{"parcel_id":"TMP-TO-0016","building_id":"B-0016","area_m2":76.5,"perimeter_m":43.4,"building_coverage":0.9,"vegetation_share":0.0,"landuse":"Built-up","status":"Draft / Unverified"},"geometry":{"type":"Polygon","coordinates":[[[75.788209,26.9123119],[75.7882218,26.9123067],[75.7882218,26.9123046],[75.7882194,26.9122981],[75.7882191,26.9122598],[75.7882175,26.9122562],[75.7882174,26.9122555],[75.7881836,26.9122528],[75.7881836,26.9122521],[75.7881651,26.9122579],[75.7881522,26.9122508],[75.7881393,26.912253],[75.7881337,26.9122675],[75.7881111,26.9122619],[75.7880998,26.9122496],[75.7880869,26.9122447],[75.7880748,26.9122454],[75.7880716,26.9122498],[75.7880693,26.9122715],[75.7880605,26.9122816],[75.7880807,26.9122888],[75.7880807,26.9122895],[75.7880936,26.9122901],[75.7881203,26.9122979],[75.7881372,26.9122993],[75.7881743,26.9123077],[75.7881799,26.9123077],[75.788209,26.9123119]]]}},{"type":"Feature","properties":{"parcel_id":"TMP-TO-0017","building_id":"B-0017","area_m2":17.1,"perimeter_m":32.5,"building_coverage":0.87,"vegetation_share":0.0,"landuse":"Built-up","status":"Draft / Unverified"},"geometry":{"type":"Polygon","coordinates":[[[75.7883125,26.9122578],[75.7882859,26.9122537],[75.7882739,26.9122674],[75.788274,26.9122747],[75.7883056,26.9123041],[75.7883129,26.9123062],[75.7883131,26.9123467],[75.7883148,26.9123474],[75.7883139,26.9122261],[75.7883123,26.9122261],[75.7883125,26.9122578]]]}},{"type":"Feature","properties":{"parcel_id":"TMP-TO-0018","building_id":"B-0018","area_m2":17.8,"perimeter_m":16.2,"building_coverage":0.89,"vegetation_share":0.0,"landuse":"Built-up","status":"Draft / Unverified"},"geometry":{"type":"Polygon","coordinates":[[[75.7877252,26.9122575],[75.7877342,26.9122755],[75.7877487,26.9122819],[75.787764,26.9122761],[75.7877776,26.9122572],[75.7877776,26.9122558],[75.7877686,26.9122479],[75.7877686,26.9122472],[75.78775,26.9122379],[75.7877339,26.9122358],[75.7877339,26.9122372],[75.7877316,26.9122445],[75.7877212,26.9122561],[75.7877252,26.9122575]]]}},{"type":"Feature","properties":{"parcel_id":"TMP-TO-0019","building_id":"B-0019","area_m2":15.6,"perimeter_m":16.3,"building_coverage":0.94,"vegetation_share":0.0,"landuse":"Built-up","status":"Draft / Unverified"},"geometry":{"type":"Polygon","coordinates":[[[75.7876664,26.9122607],[75.7876971,26.9122743],[75.787714,26.9122735],[75.7877155,26.9122576],[75.7877212,26.9122561],[75.7876807,26.9122325],[75.7876607,26.9122528],[75.7876664,26.9122607]]]}},{"type":"Feature","properties":{"parcel_id":"TMP-TO-0020","building_id":"B-0020","area_m2":31.6,"perimeter_m":23.3,"building_coverage":0.87,"vegetation_share":0.0,"landuse":"Built-up","status":"Draft / Unverified"},"geometry":{"type":"Polygon","coordinates":[[[75.7880154,26.9122812],[75.7880202,26.9122746],[75.7880209,26.9122616],[75.7880264,26.9122472],[75.788024,26.9122436],[75.7880014,26.9122357],[75.7879933,26.912225],[75.7879812,26.9122279],[75.7879691,26.9122265],[75.7879564,26.9122533],[75.78795,26.9122548],[75.7879493,26.9122707],[75.7879525,26.9122729],[75.7880041,26.9122755],[75.788013,26.9122812],[75.7880154,26.9122812]]]}},{"type":"Feature","properties":{"parcel_id":"TMP-TO-0021","building_id":"B-0021","area_m2":40.6,"perimeter_m":25.3,"building_coverage":1.0,"vegetation_share":0.0,"landuse":"Built-up","status":"Draft / Unverified"},"geometry":{"type":"Polygon","coordinates":[[[75.7874296,26.912262],[75.7874528,26.9122475],[75.7874632,26.9122359],[75.7874688,26.9122351],[75.7874655,26.9122221],[75.7874566,26.9122164],[75.7874412,26.9121984],[75.7874235,26.9122007],[75.7874042,26.9122138],[75.7873834,26.9122327],[75.7874038,26.9122622],[75.787403,26.912268],[75.7874152,26.9122759],[75.7874296,26.912262]]]}},{"type":"Feature","properties":{"parcel_id":"TMP-TO-0022","building_id":"B-0022","area_m2":31.4,"perimeter_m":25.6,"building_coverage":0.93,"vegetation_share":0.0,"landuse":"Built-up","status":"Draft / Unverified"},"geometry":{"type":"Polygon","coordinates":[[[75.7882174,26.9122555],[75.7882174,26.9122548],[75.7882238,26.9122417],[75.7882544,26.9122408],[75.78826,26.9122372],[75.7882599,26.9122206],[75.7882518,26.9122098],[75.7882517,26.9122004],[75.7882451,26.9121817],[75.7882427,26.9121817],[75.7882299,26.9121919],[75.7882099,26.9122129],[75.7882076,26.912223],[75.7881867,26.9122419],[75.7881836,26.9122492],[75.7881836,26.9122528],[75.7882174,26.9122555]]]}},{"type":"Feature","properties":{"parcel_id":"TMP-TO-0023","building_id":"B-0023","area_m2":45.1,"perimeter_m":25.5,"building_coverage":0.96,"vegetation_share":0.0,"landuse":"Built-up","status":"Draft / Unverified"},"geometry":{"type":"Polygon","coordinates":[[[75.7874811,26.9122538],[75.7874972,26.9122552],[75.7875069,26.9122631],[75.7875166,26.9122608],[75.7875286,26.9122471],[75.7875357,26.9122318],[75.7875356,26.9122196],[75.7875307,26.9122145],[75.7875314,26.9121936],[75.7875249,26.9121886],[75.7874838,26.9121888],[75.7874734,26.9121917],[75.7874694,26.9122019],[75.7874695,26.9122156],[75.7874655,26.9122221],[75.7874688,26.9122351],[75.7874811,26.9122538]]]}},{"type":"Feature","properties":{"parcel_id":"TMP-TO-0024","building_id":"B-0024","area_m2":104.3,"perimeter_m":45.6,"building_coverage":0.95,"vegetation_share":0.0,"landuse":"Built-up","status":"Draft / Unverified"},"geometry":{"type":"Polygon","coordinates":[[[75.7877316,26.9122445],[75.7877339,26.9122372],[75.7877339,26.9122351],[75.7877274,26.9122315],[75.7877071,26.9122085],[75.7876974,26.9121927],[75.787682,26.9121776],[75.7876569,26.9121654],[75.7876471,26.9121532],[75.7876342,26.9121432],[75.7876214,26.9121526],[75.787607,26.9121686],[75.7876022,26.9121787],[75.7875942,26.9121838],[75.7875726,26.9122136],[75.7875759,26.9122251],[75.7875824,26.9122265],[75.7876131,26.9122408],[75.7876292,26.9122378],[75.7876445,26.9122435],[75.7876607,26.9122528],[75.7876807,26.9122325],[75.7877212,26.9122561],[75.7877316,26.9122445]]]}},{"type":"Feature","properties":{"parcel_id":"TMP-TO-0025","building_id":"B-0025","area_m2":103.5,"perimeter_m":42.8,"building_coverage":0.95,"vegetation_share":0.0,"landuse":"Built-up","status":"Draft / Unverified"},"geometry":{"type":"Polygon","coordinates":[[[75.7877921,26.91226],[75.7877953,26.9122571],[75.7878106,26.9122585],[75.7878138,26.9122505],[75.787825,26.9122418],[75.7878436,26.9122496],[75.7878653,26.9122502],[75.7878845,26.9122321],[75.7879093,26.9121944],[75.7879148,26.9121821],[75.7879147,26.9121712],[75.7878711,26.9121549],[75.7878445,26.9121492],[75.7878445,26.91215],[75.7878397,26.9121594],[75.7878285,26.9121667],[75.7878285,26.9121681],[75.7878157,26.912179],[75.7878053,26.9121928],[75.7878013,26.9121928],[75.7878005,26.9121986],[75.7877702,26.9122421],[75.7877686,26.9122464],[75.7877686,26.9122479],[75.7877776,26.9122558],[75.7877921,26.91226]]]}},{"type":"Feature","properties":{"parcel_id":"TMP-TO-0026","building_id":"B-0026","area_m2":86.3,"perimeter_m":40.0,"building_coverage":0.82,"vegetation_share":0.0,"landuse":"Built-up","status":"Draft / Unverified"},"geometry":{"type":"Polygon","coordinates":[[[75.7880512,26.9122152],[75.788064,26.9122065],[75.788064,26.9121978],[75.7880574,26.9121791],[75.7880574,26.9121769],[75.7880371,26.9121583],[75.7880225,26.912141],[75.7880225,26.9121403],[75.7880041,26.9121548],[75.7879824,26.9121759],[75.7879567,26.9121775],[75.7879502,26.9121739],[75.7879478,26.9121739],[75.7879317,26.9121755],[75.7879263,26.9122058],[75.7879473,26.9122158],[75.7879667,26.9122215],[75.7879691,26.9122265],[75.7879812,26.9122279],[75.7879933,26.912225],[75.7880014,26.9122357],[75.788024,26.9122436],[75.7880512,26.9122152]]]}},{"type":"Feature","properties":{"parcel_id":"TMP-TO-0027","building_id":"B-0028","area_m2":100.9,"perimeter_m":62.9,"building_coverage":0.81,"vegetation_share":0.0,"landuse":"Built-up","status":"Draft / Unverified"},"geometry":{"type":"Polygon","coordinates":[[[75.7873008,26.9122902],[75.7873007,26.91227],[75.7873257,26.9122764],[75.7873489,26.9122553],[75.7873368,26.9122409],[75.787319,26.9122294],[75.787343,26.9122149],[75.7873486,26.9122076],[75.7873583,26.9122054],[75.7873663,26.9121974],[75.7873565,26.9121787],[75.7873564,26.9121729],[75.7873765,26.9121576],[75.7873861,26.9121467],[75.787386,26.9121373],[75.787365,26.9121259],[75.7873479,26.9121058],[75.7873399,26.9121058],[75.787319,26.9121132],[75.7873077,26.9121226],[75.7872997,26.9121212],[75.7872995,26.9120909],[75.7872979,26.9120909],[75.7872992,26.9122909],[75.7873008,26.9122902]]]}},{"type":"Feature","properties":{"parcel_id":"TMP-TO-0028","building_id":"B-0027","area_m2":91.1,"perimeter_m":48.3,"building_coverage":0.94,"vegetation_share":0.0,"landuse":"Built-up","status":"Draft / Unverified"},"geometry":{"type":"Polygon","coordinates":[[[75.78775,26.9122379],[75.7877686,26.9122472],[75.7877686,26.9122464],[75.7877702,26.9122421],[75.7878005,26.9121986],[75.7878013,26.9121928],[75.7878005,26.9121928],[75.7877729,26.9121713],[75.7877657,26.9121713],[75.7877309,26.9121499],[75.7877156,26.9121456],[75.7877116,26.9121579],[75.7877052,26.9121623],[75.7876874,26.9121573],[75.7876962,26.9121457],[75.7876881,26.9121378],[75.7876623,26.9121344],[75.7876526,26.9121308],[75.787639,26.9121345],[75.7876342,26.9121432],[75.7876471,26.9121532],[75.7876569,26.9121654],[75.787682,26.9121776],[75.7876974,26.9121927],[75.7877071,26.9122085],[75.7877274,26.9122315],[75.7877339,26.9122351],[75.7877339,26.9122358],[75.78775,26.9122379]]]}},{"type":"Feature","properties":{"parcel_id":"TMP-TO-0029","building_id":"B-0029","area_m2":16.9,"perimeter_m":16.2,"building_coverage":0.87,"vegetation_share":0.0,"landuse":"Built-up","status":"Draft / Unverified"},"geometry":{"type":"Polygon","coordinates":[[[75.7878053,26.9121928],[75.7878157,26.912179],[75.7878285,26.9121681],[75.7878285,26.9121659],[75.7878228,26.9121602],[75.7877913,26.9121423],[75.7877729,26.9121699],[75.7877729,26.9121713],[75.7878005,26.9121928],[75.7878053,26.9121928]]]}},{"type":"Feature","properties":{"parcel_id":"TMP-TO-0030","building_id":"B-0030","area_m2":183.5,"perimeter_m":56.9,"building_coverage":0.91,"vegetation_share":0.0,"landuse":"Built-up","status":"Draft / Unverified"},"geometry":{"type":"Polygon","coordinates":[[[75.7881651,26.9122579],[75.7881836,26.9122521],[75.7881836,26.9122492],[75.7881867,26.9122419],[75.7882076,26.912223],[75.7882099,26.9122129],[75.7882299,26.9121919],[75.7882427,26.9121817],[75.7882467,26.9121752],[75.7882434,26.9121614],[75.7882449,26.9121506],[75.7882327,26.9121384],[75.788227,26.9121254],[75.7882181,26.9121161],[75.7882188,26.9121045],[75.7882082,26.9120887],[75.788209,26.9120793],[75.7882033,26.9120707],[75.7881871,26.9120657],[75.7881847,26.9120657],[75.7881727,26.9120788],[75.7881447,26.9120999],[75.7881118,26.9121275],[75.788111,26.9121275],[75.7881095,26.9121376],[75.7880863,26.9121645],[75.7880904,26.912171],[75.7881268,26.9122004],[75.7881342,26.9122112],[75.7881593,26.9122305],[75.7881522,26.9122508],[75.7881651,26.9122579]]]}},{"type":"Feature","properties":{"parcel_id":"TMP-TO-0031","building_id":"B-0031","area_m2":32.2,"perimeter_m":23.5,"building_coverage":1.0,"vegetation_share":0.0,"landuse":"Built-up","status":"Draft / Unverified"},"geometry":{"type":"Polygon","coordinates":[[[75.7875666,26.9121602],[75.7875447,26.9121379],[75.7875366,26.9121235],[75.7875075,26.9121143],[75.787489,26.9121165],[75.7874834,26.9121224],[75.787481,26.9121339],[75.7874883,26.9121397],[75.7874908,26.9121505],[75.7875062,26.9121591],[75.7875142,26.912159],[75.787532,26.9121669],[75.7875401,26.9121748],[75.787549,26.9121762],[75.7875666,26.9121602]]]}},{"type":"Feature","properties":{"parcel_id":"TMP-TO-0032","building_id":"B-0033","area_m2":31.9,"perimeter_m":24.8,"building_coverage":0.66,"vegetation_share":0.0,"landuse":"Built-up","status":"Draft / Unverified"},"geometry":{"type":"Polygon","coordinates":[[[75.7879567,26.9121775],[75.7879824,26.9121759],[75.7880041,26.9121548],[75.7880225,26.9121403],[75.7880225,26.9121396],[75.7880257,26.9121331],[75.7880232,26.9121331],[75.788003,26.912126],[75.7879779,26.9121066],[75.7879723,26.9121052],[75.7879723,26.9121059],[75.7879644,26.912124],[75.7879677,26.912142],[75.7879549,26.9121493],[75.7879533,26.9121493],[75.7879494,26.9121739],[75.7879502,26.9121739],[75.7879567,26.9121775]]]}},{"type":"Feature","properties":{"parcel_id":"TMP-TO-0033","building_id":"B-0032","area_m2":39.6,"perimeter_m":24.7,"building_coverage":0.7,"vegetation_share":0.0,"landuse":"Built-up","status":"Draft / Unverified"},"geometry":{"type":"Polygon","coordinates":[[[75.7880695,26.9121761],[75.7880782,26.9121653],[75.7880831,26.9121645],[75.7880863,26.9121645],[75.7881095,26.9121376],[75.788111,26.9121275],[75.7881094,26.9121275],[75.7880924,26.912119],[75.7880811,26.9121089],[75.7880779,26.9121089],[75.7880586,26.9121199],[75.7880345,26.9121236],[75.7880265,26.912133],[75.7880257,26.9121331],[75.7880225,26.9121396],[75.7880225,26.912141],[75.7880371,26.9121583],[75.7880574,26.9121769],[75.7880695,26.9121761]]]}},{"type":"Feature","properties":{"parcel_id":"TMP-TO-0034","building_id":"B-0034","area_m2":24.3,"perimeter_m":27.1,"building_coverage":0.86,"vegetation_share":0.0,"landuse":"Built-up","status":"Draft / Unverified"},"geometry":{"type":"Polygon","coordinates":[[[75.7878397,26.9121594],[75.7878445,26.91215],[75.7878445,26.9121485],[75.787817,26.9121335],[75.7878017,26.9121307],[75.7877968,26.9121257],[75.7877959,26.9121134],[75.787787,26.9121062],[75.7877684,26.9120991],[75.7877587,26.9120991],[75.7877548,26.9121049],[75.7877443,26.9121057],[75.7877419,26.912113],[75.7877573,26.9121223],[75.7877856,26.9121322],[75.7877913,26.9121423],[75.7878228,26.9121602],[75.7878285,26.9121659],[75.7878285,26.9121667],[75.7878397,26.9121594]]]}},{"type":"Feature","properties":{"parcel_id":"TMP-TO-0035","building_id":"B-0035","area_m2":104.1,"perimeter_m":45.9,"building_coverage":0.88,"vegetation_share":0.0,"landuse":"Built-up","status":"Draft / Unverified"},"geometry":{"type":"Polygon","coordinates":[[[75.7879478,26.9121739],[75.7879494,26.9121739],[75.7879533,26.9121493],[75.7879516,26.9121494],[75.7879443,26.9121414],[75.7879242,26.9121358],[75.7879161,26.9121301],[75.7879334,26.9120794],[75.7879318,26.9120794],[75.787923,26.9120787],[75.7878761,26.9120595],[75.7878704,26.912053],[75.7878704,26.9120516],[75.7878479,26.9120604],[75.7878479,26.9120633],[75.7878376,26.9120908],[75.7878377,26.9121016],[75.7878289,26.9121125],[75.787817,26.9121335],[75.7878445,26.9121485],[75.7878445,26.9121492],[75.7878711,26.9121549],[75.7879147,26.9121712],[75.7879252,26.9121704],[75.7879317,26.9121755],[75.7879478,26.9121739]]]}},{"type":"Feature","properties":{"parcel_id":"TMP-TO-0036","building_id":"B-0036","area_m2":31.4,"perimeter_m":22.6,"building_coverage":0.68,"vegetation_share":0.0,"landuse":"Built-up","status":"Draft / Unverified"},"geometry":{"type":"Polygon","coordinates":[[[75.7879549,26.9121493],[75.7879677,26.912142],[75.7879644,26.912124],[75.7879723,26.9121059],[75.7879723,26.912103],[75.7879673,26.9120821],[75.7879657,26.9120821],[75.7879479,26.9120743],[75.7879415,26.9120743],[75.7879342,26.9120794],[75.7879334,26.9120794],[75.7879161,26.9121301],[75.7879242,26.9121358],[75.7879443,26.9121414],[75.7879516,26.9121494],[75.7879549,26.9121493]]]}},{"type":"Feature","properties":{"parcel_id":"TMP-TO-0037","building_id":"B-0037","area_m2":90.4,"perimeter_m":54.5,"building_coverage":0.93,"vegetation_share":0.0,"landuse":"Built-up","status":"Draft / Unverified"},"geometry":{"type":"Polygon","coordinates":[[[75.7883139,26.9122261],[75.7883125,26.9120282],[75.7882852,26.9120406],[75.7882708,26.9120428],[75.7882708,26.912045],[75.7882724,26.9120529],[75.7882628,26.9120631],[75.7882484,26.9120733],[75.7882356,26.9120864],[75.7882333,26.9120979],[75.7882405,26.9120993],[75.7882617,26.9121346],[75.7882763,26.9121468],[75.7882773,26.9121678],[75.7882733,26.9121743],[75.7882774,26.9121916],[75.7882823,26.9121973],[75.7882944,26.9121987],[75.7882984,26.9121915],[75.7883121,26.9121921],[75.7883123,26.9122261],[75.7883139,26.9122261]]]}},{"type":"Feature","properties":{"parcel_id":"TMP-TO-0038","building_id":"B-0038","area_m2":42.5,"perimeter_m":27.9,"building_coverage":0.64,"vegetation_share":0.0,"landuse":"Built-up","status":"Draft / Unverified"},"geometry":{"type":"Polygon","coordinates":[[[75.7880265,26.912133],[75.7880345,26.9121236],[75.7880586,26.9121199],[75.7880779,26.9121089],[75.7880795,26.9121089],[75.7880681,26.9120931],[75.7880665,26.9120931],[75.788052,26.9120946],[75.7880196,26.9120782],[75.7880196,26.9120775],[75.7879922,26.9120747],[75.7879689,26.9120821],[75.7879673,26.9120821],[75.7879723,26.912103],[75.7879723,26.9121052],[75.7879779,26.9121066],[75.788003,26.912126],[75.7880232,26.9121331],[75.7880265,26.912133]]]}},{"type":"Feature","properties":{"parcel_id":"TMP-TO-0039","building_id":"B-0039","area_m2":36.9,"perimeter_m":23.6,"building_coverage":0.97,"vegetation_share":0.0,"landuse":"Built-up","status":"Draft / Unverified"},"geometry":{"type":"Polygon","coordinates":[[[75.7875844,26.9120452],[75.7875635,26.9120641],[75.7875636,26.9120685],[75.7875871,26.9120857],[75.7875928,26.9120957],[75.7876041,26.9121043],[75.7876194,26.9121043],[75.787633,26.9120926],[75.7876442,26.912076],[75.7876425,26.9120651],[75.7876304,26.912058],[75.787598,26.9120336],[75.7875923,26.9120336],[75.7875844,26.9120452]]]}},{"type":"Feature","properties":{"parcel_id":"TMP-TO-0040","building_id":"B-0040","area_m2":77.9,"perimeter_m":35.5,"building_coverage":0.88,"vegetation_share":0.0,"landuse":"Built-up","status":"Draft / Unverified"},"geometry":{"type":"Polygon","coordinates":[[[75.7881118,26.9121275],[75.7881447,26.9120999],[75.7881727,26.9120788],[75.7881847,26.9120657],[75.7881855,26.9120657],[75.788183,26.9120578],[75.7881693,26.9120441],[75.788162,26.9120442],[75.788149,26.9120349],[75.7881466,26.9120248],[75.7881312,26.9120147],[75.7881024,26.9120431],[75.7880896,26.9120612],[75.78808,26.9120685],[75.7880664,26.9120873],[75.7880673,26.9120931],[75.7880681,26.9120931],[75.7880795,26.9121089],[75.7880811,26.9121089],[75.7880924,26.912119],[75.7881094,26.9121275],[75.7881118,26.9121275]]]}},{"type":"Feature","properties":{"parcel_id":"TMP-TO-0041","building_id":"B-0042","area_m2":41.1,"perimeter_m":25.6,"building_coverage":0.72,"vegetation_share":0.0,"landuse":"Built-up","status":"Draft / Unverified"},"geometry":{"type":"Polygon","coordinates":[[[75.7879342,26.9120794],[75.7879415,26.9120743],[75.7879487,26.9120743],[75.7879631,26.9120561],[75.7879678,26.9120416],[75.7879678,26.9120388],[75.7879565,26.9120338],[75.7879194,26.9120231],[75.787908,26.9120174],[75.7879056,26.9120174],[75.787888,26.9120392],[75.787876,26.9120407],[75.787876,26.9120429],[75.7878704,26.9120509],[75.7878704,26.912053],[75.7878761,26.9120595],[75.787923,26.9120787],[75.7879318,26.9120794],[75.7879342,26.9120794]]]}},{"type":"Feature","properties":{"parcel_id":"TMP-TO-0042","building_id":"B-0041","area_m2":31.0,"perimeter_m":23.5,"building_coverage":0.99,"vegetation_share":0.0,"landuse":"Built-up","status":"Draft / Unverified"},"geometry":{"type":"Polygon","coordinates":[[[75.7877235,26.9120185],[75.7876948,26.9120533],[75.7876869,26.9120728],[75.787699,26.9120785],[75.7877248,26.9120798],[75.7877343,26.9120632],[75.7877623,26.9120233],[75.7877622,26.9120204],[75.7877404,26.9120061],[75.7877235,26.9120185]]]}},{"type":"Feature","properties":{"parcel_id":"TMP-TO-0043","building_id":"B-0043","area_m2":64.8,"perimeter_m":34.7,"building_coverage":0.99,"vegetation_share":0.0,"landuse":"Built-up","status":"Draft / Unverified"},"geometry":{"type":"Polygon","coordinates":[[[75.788052,26.9120946],[75.7880665,26.9120931],[75.7880673,26.9120931],[75.7880664,26.9120873],[75.78808,26.9120685],[75.7880896,26.9120612],[75.7881024,26.9120431],[75.7881312,26.9120147],[75.7881287,26.9120097],[75.7881191,26.9120112],[75.7881126,26.9120026],[75.7880972,26.911994],[75.7880754,26.911989],[75.7880714,26.9119927],[75.7880675,26.9120043],[75.7880602,26.9120094],[75.7880403,26.9120376],[75.7880275,26.9120493],[75.7880275,26.9120507],[75.7880195,26.9120637],[75.7880196,26.912076],[75.7880196,26.9120782],[75.788052,26.9120946]]]}},{"type":"Feature","properties":{"parcel_id":"TMP-TO-0044","building_id":"B-0044","area_m2":64.3,"perimeter_m":37.7,"building_coverage":0.79,"vegetation_share":0.0,"landuse":"Built-up","status":"Draft / Unverified"},"geometry":{"type":"Polygon","coordinates":[[[75.7882333,26.9120979],[75.7882356,26.9120864],[75.7882484,26.9120733],[75.7882628,26.9120631],[75.7882724,26.9120529],[75.7882708,26.912045],[75.7882708,26.9120421],[75.7882408,26.9120213],[75.7882408,26.9120206],[75.7882199,26.9120265],[75.7882086,26.9120201],[75.7881972,26.912005],[75.7881972,26.9120035],[75.7881714,26.912008],[75.7881577,26.9119994],[75.788157,26.9120204],[75.7881651,26.9120239],[75.7881708,26.9120362],[75.7881693,26.9120441],[75.788183,26.9120578],[75.7881855,26.9120657],[75.7881871,26.9120657],[75.7882033,26.9120707],[75.788209,26.9120793],[75.7882082,26.9120887],[75.7882188,26.9121045],[75.7882333,26.9120979]]]}},{"type":"Feature","properties":{"parcel_id":"TMP-TO-0045","building_id":"B-0047","area_m2":81.6,"perimeter_m":37.5,"building_coverage":0.94,"vegetation_share":0.0,"landuse":"Built-up","status":"Draft / Unverified"},"geometry":{"type":"Polygon","coordinates":[[[75.7874057,26.9120787],[75.7874179,26.9120953],[75.7874228,26.912096],[75.787466,26.9120632],[75.78747,26.912056],[75.7874821,26.9120487],[75.7874949,26.9120378],[75.7875093,26.9120298],[75.7875181,26.9120189],[75.7875181,26.9120131],[75.7875099,26.9120016],[75.7875091,26.9119936],[75.7875018,26.9119922],[75.7874897,26.9119822],[75.7874623,26.9119838],[75.7874535,26.9119911],[75.7874519,26.911999],[75.7874319,26.9120136],[75.7874238,26.9120143],[75.7874006,26.9120412],[75.7873967,26.9120521],[75.7873993,26.9120752],[75.7874057,26.9120787]]]}},{"type":"Feature","properties":{"parcel_id":"TMP-TO-0046","building_id":"B-0045","area_m2":63.6,"perimeter_m":35.9,"building_coverage":0.91,"vegetation_share":0.0,"landuse":"Built-up","status":"Draft / Unverified"},"geometry":{"type":"Polygon","coordinates":[[[75.7877385,26.912087],[75.7877522,26.9120905],[75.7877596,26.9120991],[75.7877676,26.912094],[75.7877868,26.9120708],[75.7878019,26.9120455],[75.7878083,26.9120418],[75.7878242,26.9120164],[75.7878371,26.9120077],[75.787837,26.9120027],[75.7878362,26.9120005],[75.7878354,26.9120005],[75.7878063,26.9119797],[75.7878022,26.9119797],[75.7877878,26.9119863],[75.7877726,26.9120102],[75.7877622,26.9120211],[75.7877623,26.9120233],[75.7877343,26.9120632],[75.7877248,26.9120798],[75.7877385,26.912087]]]}},{"type":"Feature","properties":{"parcel_id":"TMP-TO-0047","building_id":"B-0046","area_m2":23.5,"perimeter_m":18.8,"building_coverage":0.67,"vegetation_share":0.0,"landuse":"Built-up","status":"Draft / Unverified"},"geometry":{"type":"Polygon","coordinates":[[[75.7878083,26.912044],[75.7878245,26.9120533],[75.7878479,26.9120604],[75.7878704,26.9120516],[75.7878704,26.9120509],[75.787876,26.9120429],[75.787876,26.9120385],[75.7878371,26.912007],[75.7878371,26.9120077],[75.7878242,26.9120164],[75.7878083,26.9120418],[75.7878083,26.912044]]]}},{"type":"Feature","properties":{"parcel_id":"TMP-TO-0048","building_id":"B-0051","area_m2":65.7,"perimeter_m":37.4,"building_coverage":0.88,"vegetation_share":0.0,"landuse":"Built-up","status":"Draft / Unverified"},"geometry":{"type":"Polygon","coordinates":[[[75.7879689,26.9120821],[75.7879922,26.9120747],[75.7880196,26.9120775],[75.7880196,26.912076],[75.7880195,26.9120637],[75.7880275,26.9120507],[75.7880275,26.9120471],[75.7880352,26.9119979],[75.7880439,26.9119791],[75.788039,26.9119669],[75.7880237,26.9119604],[75.7880076,26.9119649],[75.7879901,26.9120018],[75.7879869,26.9120025],[75.7879869,26.9120061],[75.787971,26.9120373],[75.7879678,26.9120395],[75.7879678,26.9120416],[75.7879631,26.9120561],[75.7879487,26.9120743],[75.7879479,26.9120743],[75.7879657,26.9120821],[75.7879689,26.9120821]]]}},{"type":"Feature","properties":{"parcel_id":"TMP-TO-0049","building_id":"B-0048","area_m2":114.4,"perimeter_m":44.6,"building_coverage":0.97,"vegetation_share":0.0,"landuse":"Built-up","status":"Draft / Unverified"},"geometry":{"type":"Polygon","coordinates":[[[75.7873967,26.9120521],[75.7874006,26.9120412],[75.7874238,26.9120143],[75.7874221,26.9120057],[75.7874292,26.9119789],[75.7874283,26.9119695],[75.7874162,26.9119566],[75.7874145,26.9119566],[75.7874008,26.9119488],[75.7873984,26.9119488],[75.7873919,26.9119495],[75.7873766,26.9119417],[75.7873645,26.9119403],[75.787359,26.9119555],[75.787359,26.911962],[75.787332,26.9120235],[75.7873289,26.9120365],[75.7873202,26.9120539],[75.7873219,26.9120713],[75.7873623,26.9120905],[75.7873905,26.9120889],[75.7873993,26.9120752],[75.7873967,26.9120521]]]}},{"type":"Feature","properties":{"parcel_id":"TMP-TO-0050","building_id":"B-0049","area_m2":29.7,"perimeter_m":25.3,"building_coverage":0.95,"vegetation_share":0.0,"landuse":"Built-up","status":"Draft / Unverified"},"geometry":{"type":"Polygon","coordinates":[[[75.7874966,26.9120551],[75.787532,26.912052],[75.7875392,26.9120469],[75.7875432,26.9120361],[75.7875616,26.9120179],[75.7875616,26.9120165],[75.787551,26.9120042],[75.7875429,26.912],[75.7875275,26.9119849],[75.7875195,26.9119849],[75.7875091,26.9119936],[75.7875099,26.9120016],[75.7875181,26.9120131],[75.7875181,26.9120189],[75.7875093,26.9120298],[75.7874949,26.9120378],[75.7874821,26.9120487],[75.7874966,26.9120551]]]}},{"type":"Feature","properties":{"parcel_id":"TMP-TO-0051","building_id":"B-0050","area_m2":21.0,"perimeter_m":21.9,"building_coverage":0.9,"vegetation_share":0.0,"landuse":"Built-up","status":"Draft / Unverified"},"geometry":{"type":"Polygon","coordinates":[[[75.787971,26.9120373],[75.7879869,26.9120061],[75.7879869,26.9120018],[75.7879594,26.9119926],[75.787957,26.9119926],[75.7879458,26.9119999],[75.7879362,26.9120144],[75.7879209,26.9120123],[75.7879088,26.9120059],[75.7879088,26.9120116],[75.7879072,26.9120174],[75.787908,26.9120174],[75.7879194,26.9120231],[75.7879565,26.9120338],[75.7879678,26.9120388],[75.7879678,26.9120395],[75.787971,26.9120373]]]}},{"type":"Feature","properties":{"parcel_id":"TMP-TO-0052","building_id":"B-0052","area_m2":30.4,"perimeter_m":21.5,"building_coverage":0.73,"vegetation_share":0.0,"landuse":"Built-up","status":"Draft / Unverified"},"geometry":{"type":"Polygon","coordinates":[[[75.787888,26.9120392],[75.7879056,26.9120174],[75.7879072,26.9120174],[75.7879088,26.9120116],[75.7879088,26.9120051],[75.7878772,26.91198],[75.7878667,26.9119758],[75.7878634,26.9119758],[75.7878378,26.9120005],[75.7878362,26.9120005],[75.787837,26.9120027],[75.7878371,26.912007],[75.787876,26.9120385],[75.787876,26.9120407],[75.787888,26.9120392]]]}},{"type":"Feature","properties":{"parcel_id":"TMP-TO-0053","building_id":"B-0053","area_m2":15.8,"perimeter_m":19.1,"building_coverage":0.93,"vegetation_share":0.0,"landuse":"Built-up","status":"Draft / Unverified"},"geometry":{"type":"Polygon","coordinates":[[[75.7880403,26.9120376],[75.7880602,26.9120094],[75.7880675,26.9120043],[75.7880714,26.9119927],[75.7880714,26.9119898],[75.7880463,26.9119791],[75.7880439,26.9119791],[75.7880352,26.9119979],[75.7880275,26.9120471],[75.7880275,26.9120493],[75.7880403,26.9120376]]]}},{"type":"Feature","properties":{"parcel_id":"TMP-TO-0054","building_id":"B-0055","area_m2":126.5,"perimeter_m":45.4,"building_coverage":0.96,"vegetation_share":0.0,"landuse":"Built-up","status":"Draft / Unverified"},"geometry":{"type":"Polygon","coordinates":[[[75.7876545,26.91206],[75.7876745,26.9120281],[75.7876905,26.9120107],[75.7876944,26.9119998],[75.787708,26.9119839],[75.7877208,26.911965],[75.7877207,26.9119571],[75.7877134,26.9119448],[75.7876988,26.9119348],[75.7876859,26.9119305],[75.7876753,26.9119227],[75.7876608,26.9119227],[75.7876512,26.9119264],[75.7876416,26.9119351],[75.7876376,26.9119438],[75.7876256,26.9119554],[75.7876208,26.9119555],[75.7876184,26.911962],[75.7876032,26.9119736],[75.7875921,26.9119939],[75.787588,26.9119968],[75.7875881,26.911999],[75.7875729,26.9120142],[75.7875923,26.9120279],[75.7875923,26.9120336],[75.787598,26.9120336],[75.7876304,26.912058],[75.7876425,26.9120651],[75.7876545,26.91206]]]}},{"type":"Feature","properties":{"parcel_id":"TMP-TO-0055","building_id":"B-0056","area_m2":26.3,"perimeter_m":23.7,"building_coverage":0.77,"vegetation_share":0.0,"landuse":"Built-up","status":"Draft / Unverified"},"geometry":{"type":"Polygon","coordinates":[[[75.7881972,26.912005],[75.7882086,26.9120201],[75.7882199,26.9120265],[75.7882408,26.9120206],[75.7882407,26.912004],[75.7882406,26.9119932],[75.7882582,26.9119808],[75.7882582,26.911975],[75.7882387,26.9119564],[75.7882387,26.9119556],[75.7882203,26.9119687],[75.7882083,26.9119818],[75.7882092,26.9119912],[75.7882043,26.9119854],[75.7882012,26.9119992],[75.7881972,26.9120021],[75.7881972,26.912005]],[[75.7882124,26.9119933],[75.7882092,26.9119934],[75.7882092,26.9119912],[75.7882124,26.9119933]]]}},{"type":"Feature","properties":{"parcel_id":"TMP-TO-0056","building_id":"B-0057","area_m2":69.6,"perimeter_m":34.7,"building_coverage":0.9,"vegetation_share":0.0,"landuse":"Built-up","status":"Draft / Unverified"},"geometry":{"type":"Polygon","coordinates":[[[75.788312,26.9119516],[75.7882869,26.9119315],[75.7882853,26.9119315],[75.7882516,26.9119469],[75.7882483,26.9119469],[75.7882387,26.9119549],[75.7882387,26.9119564],[75.7882582,26.911975],[75.7882582,26.9119808],[75.7882406,26.9119932],[75.7882407,26.912004],[75.7882408,26.9120213],[75.7882708,26.9120421],[75.7882708,26.9120428],[75.7882852,26.9120406],[75.7883125,26.9120282],[75.788312,26.9119516]]]}},{"type":"Feature","properties":{"parcel_id":"TMP-TO-0057","building_id":"B-0054","area_m2":19.1,"perimeter_m":23.0,"building_coverage":0.93,"vegetation_share":0.0,"landuse":"Built-up","status":"Draft / Unverified"},"geometry":{"type":"Polygon","coordinates":[[[75.7875688,26.9120143],[75.7875729,26.9120142],[75.7875881,26.911999],[75.787588,26.9119961],[75.7875832,26.9119932],[75.7875572,26.9119609],[75.7875572,26.911958],[75.7875467,26.9119631],[75.7875299,26.9119791],[75.7875267,26.9119849],[75.7875275,26.9119849],[75.7875429,26.912],[75.787551,26.9120042],[75.7875616,26.9120165],[75.7875688,26.9120143]],[[75.7875543,26.9120057],[75.7875647,26.9120006],[75.7875712,26.912002],[75.7875688,26.9120121],[75.7875543,26.9120057]]]}},{"type":"Feature","properties":{"parcel_id":"TMP-TO-0058","building_id":"B-0058","area_m2":26.1,"perimeter_m":21.9,"building_coverage":0.91,"vegetation_share":0.0,"landuse":"Built-up","status":"Draft / Unverified"},"geometry":{"type":"Polygon","coordinates":[[[75.7877726,26.9120102],[75.7877878,26.9119863],[75.7878022,26.9119797],[75.7878046,26.9119797],[75.7877956,26.9119574],[75.7877859,26.9119488],[75.787773,26.9119474],[75.787769,26.911951],[75.7877515,26.9119851],[75.7877419,26.9119988],[75.7877404,26.9120061],[75.7877622,26.9120204],[75.7877622,26.9120211],[75.7877726,26.9120102]]]}},{"type":"Feature","properties":{"parcel_id":"TMP-TO-0059","building_id":"B-0059","area_m2":17.4,"perimeter_m":16.6,"building_coverage":0.89,"vegetation_share":0.0,"landuse":"Built-up","status":"Draft / Unverified"},"geometry":{"type":"Polygon","coordinates":[[[75.7879901,26.9120018],[75.7880076,26.9119649],[75.7879801,26.9119527],[75.787972,26.9119513],[75.7879609,26.9119788],[75.7879578,26.9119926],[75.7879594,26.9119926],[75.7879869,26.9120018],[75.7879869,26.9120025],[75.7879901,26.9120018]]]}},{"type":"Feature","properties":{"parcel_id":"TMP-TO-0060","building_id":"B-0061","area_m2":24.0,"perimeter_m":19.7,"building_coverage":0.82,"vegetation_share":0.0,"landuse":"Built-up","status":"Draft / Unverified"},"geometry":{"type":"Polygon","coordinates":[[[75.7875921,26.9119939],[75.7876032,26.9119736],[75.7876184,26.911962],[75.7876208,26.9119555],[75.7876005,26.9119354],[75.7875852,26.9119333],[75.7875852,26.9119347],[75.7875804,26.9119412],[75.7875572,26.9119573],[75.7875572,26.9119609],[75.7875832,26.9119932],[75.787588,26.9119961],[75.787588,26.9119968],[75.7875921,26.9119939]]]}},{"type":"Feature","properties":{"parcel_id":"TMP-TO-0061","building_id":"B-0060","area_m2":63.6,"perimeter_m":31.7,"building_coverage":0.93,"vegetation_share":0.0,"landuse":"Built-up","status":"Draft / Unverified"},"geometry":{"type":"Polygon","coordinates":[[[75.7879209,26.9120123],[75.7879362,26.9120144],[75.7879458,26.9119999],[75.787957,26.9119926],[75.7879578,26.9119926],[75.7879609,26.9119788],[75.787972,26.9119513],[75.787955,26.9119384],[75.7879283,26.9119227],[75.7879154,26.9119206],[75.7879051,26.911938],[75.7878794,26.9119598],[75.787873,26.9119591],[75.7878658,26.9119678],[75.787865,26.9119758],[75.7878667,26.9119758],[75.7878772,26.91198],[75.7879088,26.9120051],[75.7879088,26.9120059],[75.7879209,26.9120123]]]}},{"type":"Feature","properties":{"parcel_id":"TMP-TO-0062","building_id":"B-0062","area_m2":57.1,"perimeter_m":31.1,"building_coverage":0.82,"vegetation_share":0.0,"landuse":"Built-up","status":"Draft / Unverified"},"geometry":{"type":"Polygon","coordinates":[[[75.7878378,26.9120005],[75.7878634,26.9119758],[75.787865,26.9119758],[75.7878658,26.9119678],[75.787873,26.9119591],[75.7878656,26.9119462],[75.78788,26.9119302],[75.78788,26.9119251],[75.787846,26.9119015],[75.7878396,26.9119015],[75.7878268,26.911916],[75.7878043,26.9119364],[75.7877988,26.9119451],[75.7877859,26.9119488],[75.7877956,26.9119574],[75.7878046,26.9119797],[75.7878063,26.9119797],[75.7878354,26.9120005],[75.7878378,26.9120005]]]}},{"type":"Feature","properties":{"parcel_id":"TMP-TO-0063","building_id":"B-0063","area_m2":53.2,"perimeter_m":29.1,"building_coverage":0.96,"vegetation_share":0.0,"landuse":"Built-up","status":"Draft / Unverified"},"geometry":{"type":"Polygon","coordinates":[[[75.7875299,26.9119791],[75.7875467,26.9119631],[75.7875572,26.911958],[75.7875572,26.9119573],[75.7875804,26.9119412],[75.7875852,26.9119347],[75.7875852,26.9119318],[75.7875495,26.9118974],[75.7875463,26.9118974],[75.7875302,26.9118982],[75.7875157,26.9119062],[75.7875157,26.9119091],[75.7875053,26.91192],[75.7874869,26.9119324],[75.7874869,26.9119382],[75.787504,26.9119568],[75.7875065,26.9119677],[75.7875203,26.9119849],[75.7875267,26.9119849],[75.7875299,26.9119791]]]}},{"type":"Feature","properties":{"parcel_id":"TMP-TO-0064","building_id":"B-0064","area_m2":25.5,"perimeter_m":37.1,"building_coverage":0.89,"vegetation_share":0.0,"landuse":"Built-up","status":"Draft / Unverified"},"geometry":{"type":"Polygon","coordinates":[[[75.7873627,26.9119215],[75.7873579,26.9119172],[75.7873305,26.9119138],[75.7873143,26.9119088],[75.7872981,26.9119009],[75.7872964,26.9118749],[75.7872971,26.9119818],[75.7872987,26.9119818],[75.7872984,26.9119399],[75.7873363,26.9119419],[75.7873444,26.9119534],[75.787359,26.9119555],[75.7873645,26.9119403],[75.7873627,26.9119215]]]}},{"type":"Feature","properties":{"parcel_id":"TMP-TO-0065","building_id":"B-0065","area_m2":26.1,"perimeter_m":20.3,"building_coverage":0.94,"vegetation_share":0.0,"landuse":"Built-up","status":"Draft / Unverified"},"geometry":{"type":"Polygon","coordinates":[[[75.7874319,26.9118973],[75.7874255,26.9119082],[75.787407,26.9119148],[75.7873983,26.9119372],[75.7874008,26.9119488],[75.7874145,26.9119566],[75.7874234,26.9119486],[75.7874306,26.9119486],[75.7874635,26.9119267],[75.7874585,26.9119073],[75.7874512,26.9118979],[75.7874319,26.9118973]]]}},{"type":"Feature","properties":{"parcel_id":"TMP-TO-0066","building_id":"B-0066","area_m2":24.9,"perimeter_m":23.8,"building_coverage":1.0,"vegetation_share":0.0,"landuse":"Built-up","status":"Draft / Unverified"},"geometry":{"type":"Polygon","coordinates":[[[75.7876976,26.9118806],[75.7876863,26.9118692],[75.7876766,26.9118728],[75.7876936,26.9118872],[75.7876849,26.9119118],[75.7877197,26.9119311],[75.7877278,26.9119383],[75.7877415,26.9119338],[75.7877535,26.9119172],[75.7877534,26.9119157],[75.7877461,26.9119078],[75.7877292,26.9119],[75.7877081,26.9118835],[75.7876976,26.9118806]]]}},{"type":"Feature","properties":{"parcel_id":"TMP-TO-0067","building_id":"B-0067","area_m2":21.9,"perimeter_m":29.1,"building_coverage":0.85,"vegetation_share":0.0,"landuse":"Built-up","status":"Draft / Unverified"},"geometry":{"type":"Polygon","coordinates":[[[75.788312,26.9119516],[75.7883112,26.9118375],[75.7883096,26.9118382],[75.7883099,26.9118758],[75.788293,26.911878],[75.7882754,26.9118926],[75.788273,26.9119056],[75.7882811,26.9119135],[75.7882869,26.9119315],[75.788312,26.9119516]]]}},{"type":"Feature","properties":{"parcel_id":"TMP-TO-0068","building_id":"B-0068","area_m2":26.8,"perimeter_m":20.5,"building_coverage":0.83,"vegetation_share":0.0,"landuse":"Built-up","status":"Draft / Unverified"},"geometry":{"type":"Polygon","coordinates":[[[75.787474,26.911939],[75.7874869,26.9119374],[75.7874869,26.9119324],[75.7875053,26.91192],[75.7875157,26.9119091],[75.7875043,26.9118933],[75.787493,26.9118897],[75.7874873,26.9118768],[75.7874688,26.9118776],[75.7874592,26.9118834],[75.7874512,26.9118979],[75.7874585,26.9119073],[75.7874635,26.9119267],[75.787474,26.911939]]]}},{"type":"Feature","properties":{"parcel_id":"TMP-TO-0069","building_id":"B-0069","area_m2":319.5,"perimeter_m":77.6,"building_coverage":0.98,"vegetation_share":0.0,"landuse":"Built-up","status":"Draft / Unverified"},"geometry":{"type":"Polygon","coordinates":[[[75.7881714,26.912008],[75.7881972,26.9120035],[75.7881972,26.9120021],[75.7882012,26.9119992],[75.7882043,26.9119854],[75.7882083,26.9119818],[75.7882203,26.9119687],[75.7882387,26.9119556],[75.7882387,26.9119549],[75.7882483,26.9119469],[75.7882434,26.911939],[75.7882426,26.9119267],[75.7882473,26.9119166],[75.7882384,26.9119116],[75.7882399,26.9118964],[75.7882261,26.911882],[75.7881978,26.9118562],[75.7881977,26.9118504],[75.7882114,26.9118417],[75.7882105,26.9118359],[75.7881952,26.911836],[75.7881872,26.9118425],[75.7881767,26.9118375],[75.7881555,26.9118109],[75.7881361,26.9117966],[75.7881296,26.9117894],[75.7881224,26.9117894],[75.7881055,26.9118025],[75.7880687,26.9118367],[75.7880551,26.9118447],[75.7880343,26.911865],[75.7880174,26.9118774],[75.7880118,26.9118767],[75.7880094,26.9118767],[75.7880094,26.9118775],[75.7880119,26.9118912],[75.7880395,26.9119177],[75.7880444,26.91193],[75.7880581,26.9119379],[75.7880816,26.9119558],[75.7880977,26.9119514],[75.7881253,26.911975],[75.7881334,26.9119858],[75.7881487,26.91198],[75.7881584,26.9119907],[75.7881577,26.9119994],[75.7881714,26.912008]]]}},{"type":"Feature","properties":{"parcel_id":"TMP-TO-0070","building_id":"B-0070","area_m2":74.9,"perimeter_m":33.4,"building_coverage":0.96,"vegetation_share":0.0,"landuse":"Built-up","status":"Draft / Unverified"},"geometry":{"type":"Polygon","coordinates":[[[75.7876005,26.9119354],[75.7876021,26.9119288],[75.7876157,26.9119244],[75.7876286,26.911915],[75.7876414,26.9119113],[75.7876566,26.9118982],[75.7876638,26.9118794],[75.7876427,26.9118607],[75.7876192,26.9118486],[75.7876087,26.9118371],[75.7875958,26.9118357],[75.7875814,26.9118524],[75.7875734,26.9118575],[75.7875558,26.9118778],[75.7875495,26.9118974],[75.7875852,26.9119318],[75.7875852,26.9119333],[75.7876005,26.9119354]]]}},{"type":"Feature","properties":{"parcel_id":"TMP-TO-0071","building_id":"B-0071","area_m2":39.0,"perimeter_m":25.9,"building_coverage":0.95,"vegetation_share":0.0,"landuse":"Built-up","status":"Draft / Unverified"},"geometry":{"type":"Polygon","coordinates":[[[75.7877599,26.9119121],[75.787767,26.9118998],[75.787787,26.9118758],[75.7877901,26.9118628],[75.7877642,26.9118427],[75.7877457,26.9118385],[75.787736,26.9118335],[75.7877345,26.9118523],[75.7877209,26.9118762],[75.7877081,26.9118835],[75.7877292,26.9119],[75.7877461,26.9119078],[75.7877534,26.9119157],[75.7877599,26.9119121]]]}},{"type":"Feature","properties":{"parcel_id":"TMP-TO-0072","building_id":"B-0072","area_m2":30.8,"perimeter_m":20.8,"building_coverage":0.92,"vegetation_share":0.0,"landuse":"Built-up","status":"Draft / Unverified"},"geometry":{"type":"Polygon","coordinates":[[[75.787392,26.9118412],[75.7873912,26.9118412],[75.7873839,26.911834],[75.7873815,26.911834],[75.7873412,26.911835],[75.7873243,26.9118408],[75.787322,26.9118604],[75.7873302,26.9118769],[75.7873375,26.9118805],[75.7873721,26.9118825],[75.7873857,26.9118694],[75.787392,26.9118412]]]}},{"type":"Feature","properties":{"parcel_id":"TMP-TO-0073","building_id":"B-0073","area_m2":17.0,"perimeter_m":16.3,"building_coverage":0.84,"vegetation_share":0.0,"landuse":"Built-up","status":"Draft / Unverified"},"geometry":{"type":"Polygon","coordinates":[[[75.7873914,26.9118701],[75.7874181,26.9118822],[75.7874309,26.91188],[75.7874405,26.9118597],[75.7874372,26.9118503],[75.7874275,26.9118504],[75.7874009,26.9118404],[75.7873936,26.9118412],[75.787392,26.9118412],[75.7873857,26.9118694],[75.7873914,26.9118701]]]}},{"type":"Feature","properties":{"parcel_id":"TMP-TO-0074","building_id":"B-0074","area_m2":30.1,"perimeter_m":25.9,"building_coverage":0.88,"vegetation_share":0.0,"landuse":"Built-up","status":"Draft / Unverified"},"geometry":{"type":"Polygon","coordinates":[[[75.7874009,26.9118404],[75.7874275,26.9118504],[75.7874372,26.9118503],[75.7874411,26.9118424],[75.7874411,26.9118308],[75.7874201,26.9118215],[75.7874184,26.911815],[75.7874022,26.9118093],[75.7873941,26.9118014],[75.787374,26.9117965],[75.787353,26.9117887],[75.7873426,26.9118068],[75.7873491,26.911814],[75.7873766,26.9118247],[75.7873839,26.911834],[75.7873912,26.9118412],[75.7873936,26.9118412],[75.7874009,26.9118404]]]}},{"type":"Feature","properties":{"parcel_id":"TMP-TO-0075","building_id":"B-0075","area_m2":185.5,"perimeter_m":56.8,"building_coverage":0.98,"vegetation_share":0.0,"landuse":"Built-up","status":"Draft / Unverified"},"geometry":{"type":"Polygon","coordinates":[[[75.7878991,26.9117741],[75.7878863,26.9117915],[75.7878609,26.9118407],[75.7878609,26.9118451],[75.7878803,26.9118572],[75.7878868,26.9118651],[75.7879127,26.9118794],[75.7879208,26.9118787],[75.7879345,26.9118844],[75.7879499,26.9118959],[75.787975,26.9119094],[75.7879878,26.9119072],[75.787995,26.9118956],[75.7879957,26.9118869],[75.7880029,26.9118768],[75.7880094,26.9118775],[75.7880094,26.9118767],[75.7880085,26.9118695],[75.7880149,26.9118536],[75.7879922,26.9118378],[75.7880192,26.9117828],[75.7880192,26.9117813],[75.7879957,26.9117678],[75.7879957,26.9117663],[75.7879909,26.9117663],[75.7879569,26.9117514],[75.7879214,26.9117335],[75.7878991,26.9117741]]]}},{"type":"Feature","properties":{"parcel_id":"TMP-TO-0076","building_id":"B-0076","area_m2":21.3,"perimeter_m":20.4,"building_coverage":0.97,"vegetation_share":0.0,"landuse":"Built-up","status":"Draft / Unverified"},"geometry":{"type":"Polygon","coordinates":[[[75.7880268,26.9118355],[75.7880292,26.9118254],[75.7880371,26.9118116],[75.7880499,26.9117963],[75.7880313,26.9117849],[75.7880192,26.9117821],[75.7880192,26.9117828],[75.7879922,26.9118378],[75.7880149,26.9118536],[75.7880268,26.9118355]]]}},{"type":"Feature","properties":{"parcel_id":"TMP-TO-0077","building_id":"B-0077","area_m2":18.5,"perimeter_m":16.6,"building_coverage":0.94,"vegetation_share":0.0,"landuse":"Built-up","status":"Draft / Unverified"},"geometry":{"type":"Polygon","coordinates":[[[75.7874288,26.9118085],[75.7874394,26.9118164],[75.7874636,26.9118256],[75.7874724,26.9118248],[75.7874772,26.911814],[75.7874802,26.9117858],[75.7874351,26.9117839],[75.7874288,26.9118027],[75.7874288,26.9118085]]]}},{"type":"Feature","properties":{"parcel_id":"TMP-TO-0078","building_id":"B-0079","area_m2":174.8,"perimeter_m":54.3,"building_coverage":0.95,"vegetation_share":0.0,"landuse":"Built-up","status":"Draft / Unverified"},"geometry":{"type":"Polygon","coordinates":[[[75.7878079,26.9118641],[75.7878207,26.9118561],[75.7878279,26.9118409],[75.7878517,26.9117989],[75.7878516,26.9117859],[75.7878363,26.9117809],[75.787833,26.9117737],[75.7877967,26.9117616],[75.7877869,26.9117465],[75.7877869,26.9117451],[75.7877635,26.9117373],[75.7877635,26.9117366],[75.7877514,26.9117359],[75.7877207,26.9117231],[75.7877037,26.9117181],[75.7876901,26.9117283],[75.7876901,26.9117333],[75.787683,26.9117493],[75.787671,26.9117602],[75.7876727,26.9117724],[75.7876623,26.9117891],[75.7876624,26.911792],[75.7876632,26.9117971],[75.7877028,26.9118156],[75.7877133,26.911817],[75.7877335,26.9118277],[75.787736,26.9118335],[75.7877457,26.9118385],[75.7877642,26.9118427],[75.7877901,26.9118628],[75.7878079,26.9118641]]]}},{"type":"Feature","properties":{"parcel_id":"TMP-TO-0079","building_id":"B-0078","area_m2":38.7,"perimeter_m":27.9,"building_coverage":0.93,"vegetation_share":0.0,"landuse":"Built-up","status":"Draft / Unverified"},"geometry":{"type":"Polygon","coordinates":[[[75.7882556,26.9118349],[75.7882756,26.911811],[75.7882892,26.9117979],[75.7882923,26.9117849],[75.7882688,26.9117655],[75.7882502,26.9117526],[75.7882373,26.9117498],[75.7882357,26.911757],[75.7882471,26.911762],[75.7882487,26.9117678],[75.7882399,26.9117794],[75.7882246,26.9117802],[75.7882231,26.9117867],[75.7882119,26.9117983],[75.7882467,26.9118328],[75.7882556,26.9118349]]]}},{"type":"Feature","properties":{"parcel_id":"TMP-TO-0080","building_id":"B-0081","area_m2":34.1,"perimeter_m":27.2,"building_coverage":0.96,"vegetation_share":0.0,"landuse":"Built-up","status":"Draft / Unverified"},"geometry":{"type":"Polygon","coordinates":[[[75.787374,26.9117965],[75.7873941,26.9118014],[75.7874022,26.9118093],[75.7874184,26.911815],[75.7874288,26.9118092],[75.7874288,26.9118027],[75.7874351,26.9117839],[75.787431,26.9117789],[75.7874222,26.9117789],[75.7874117,26.9117739],[75.7873681,26.9117604],[75.7873656,26.911751],[75.7873583,26.9117468],[75.7873583,26.911746],[75.7873551,26.9117461],[75.7873551,26.9117518],[75.7873376,26.9117837],[75.787353,26.9117887],[75.787374,26.9117965]]]}},{"type":"Feature","properties":{"parcel_id":"TMP-TO-0081","building_id":"B-0080","area_m2":22.2,"perimeter_m":32.3,"building_coverage":0.93,"vegetation_share":0.0,"landuse":"Built-up","status":"Draft / Unverified"},"geometry":{"type":"Polygon","coordinates":[[[75.7872962,26.9118591],[75.7872977,26.9118374],[75.7873144,26.9118026],[75.7873159,26.9117853],[75.7873207,26.9117773],[75.787323,26.9117636],[75.7873228,26.9117405],[75.787297,26.9117312],[75.7872969,26.911724],[75.7872953,26.911724],[75.7872962,26.9118591]]]}},{"type":"Feature","properties":{"parcel_id":"TMP-TO-0082","building_id":"B-0082","area_m2":45.5,"perimeter_m":28.3,"building_coverage":0.95,"vegetation_share":0.0,"landuse":"Built-up","status":"Draft / Unverified"},"geometry":{"type":"Polygon","coordinates":[[[75.7880701,26.9118006],[75.7880804,26.9117825],[75.7880884,26.9117774],[75.7880908,26.9117658],[75.7880987,26.9117491],[75.7880809,26.9117406],[75.7880713,26.9117457],[75.7880496,26.9117465],[75.7880237,26.9117337],[75.7880172,26.9117322],[75.7879957,26.9117649],[75.7879957,26.9117678],[75.7880192,26.9117813],[75.7880192,26.9117821],[75.7880313,26.9117849],[75.7880499,26.9117963],[75.7880701,26.9118006]]]}},{"type":"Feature","properties":{"parcel_id":"TMP-TO-0083","building_id":"B-0083","area_m2":20.5,"perimeter_m":18.1,"building_coverage":0.97,"vegetation_share":0.0,"landuse":"Built-up","status":"Draft / Unverified"},"geometry":{"type":"Polygon","coordinates":[[[75.7875002,26.9117539],[75.7874931,26.9117771],[75.7875092,26.9117827],[75.7875309,26.9117783],[75.7875404,26.9117522],[75.7875403,26.9117407],[75.787525,26.911735],[75.7875088,26.9117242],[75.7875056,26.9117264],[75.7874993,26.911746],[75.7875002,26.9117539]]]}},{"type":"Feature","properties":{"parcel_id":"TMP-TO-0084","building_id":"B-0084","area_m2":39.2,"perimeter_m":26.4,"building_coverage":0.92,"vegetation_share":0.0,"landuse":"Built-up","status":"Draft / Unverified"},"geometry":{"type":"Polygon","coordinates":[[[75.7874302,26.9117789],[75.7874302,26.9117731],[75.7874422,26.9117672],[75.7874453,26.9117455],[75.7874501,26.911734],[75.78745,26.9117311],[75.7874315,26.9117276],[75.7874202,26.9117197],[75.7874177,26.9117197],[75.787413,26.9117277],[75.7873791,26.9117206],[75.7873767,26.9117207],[75.7873711,26.9117344],[75.7873583,26.9117453],[75.7873583,26.9117468],[75.7873656,26.911751],[75.7873681,26.9117604],[75.7874117,26.9117739],[75.7874222,26.9117789],[75.7874302,26.9117789]]]}},{"type":"Feature","properties":{"parcel_id":"TMP-TO-0085","building_id":"B-0085","area_m2":35.2,"perimeter_m":31.0,"building_coverage":0.96,"vegetation_share":0.0,"landuse":"Built-up","status":"Draft / Unverified"},"geometry":{"type":"Polygon","coordinates":[[[75.7876449,26.9117163],[75.7876393,26.911725],[75.7876208,26.9117251],[75.7876129,26.9117533],[75.787613,26.9117663],[75.7876219,26.911772],[75.7876397,26.9117777],[75.7876469,26.9117762],[75.7876541,26.9117574],[75.7876637,26.9117559],[75.7876678,26.9117602],[75.7876679,26.9117718],[75.7876591,26.9117834],[75.7876623,26.9117891],[75.7876727,26.9117724],[75.787671,26.9117602],[75.787683,26.9117493],[75.7876901,26.9117333],[75.7876901,26.911729],[75.7876707,26.9117212],[75.7876691,26.9117212],[75.7876505,26.9117162],[75.7876449,26.9117163]]]}},{"type":"Feature","properties":{"parcel_id":"TMP-TO-0086","building_id":"B-0086","area_m2":46.6,"perimeter_m":28.4,"building_coverage":0.94,"vegetation_share":0.0,"landuse":"Built-up","status":"Draft / Unverified"},"geometry":{"type":"Polygon","coordinates":[[[75.7879569,26.9117514],[75.7879909,26.9117663],[75.7879957,26.9117663],[75.7879957,26.9117649],[75.7880172,26.9117322],[75.7880164,26.911725],[75.7880219,26.9117098],[75.7880009,26.9116991],[75.7879929,26.9117057],[75.787972,26.9117101],[75.7879485,26.9116994],[75.7879429,26.9116994],[75.7879237,26.9117263],[75.7879214,26.9117335],[75.7879569,26.9117514]]]}},{"type":"Feature","properties":{"parcel_id":"TMP-TO-0087","building_id":"B-0087","area_m2":24.8,"perimeter_m":18.5,"building_coverage":0.95,"vegetation_share":0.0,"landuse":"Built-up","status":"Draft / Unverified"},"geometry":{"type":"Polygon","coordinates":[[[75.7881671,26.9117365],[75.788172,26.9117487],[75.7881874,26.9117537],[75.7882148,26.9117528],[75.7882228,26.9117506],[75.7882268,26.9117412],[75.7882242,26.9117174],[75.7881992,26.9117103],[75.7881742,26.9117104],[75.7881686,26.9117184],[75.7881671,26.9117321],[75.7881671,26.9117365]]]}},{"type":"Feature","properties":{"parcel_id":"TMP-TO-0088","building_id":"B-0088","area_m2":19.0,"perimeter_m":17.0,"building_coverage":0.86,"vegetation_share":0.0,"landuse":"Built-up","status":"Draft / Unverified"},"geometry":{"type":"Polygon","coordinates":[[[75.7874638,26.9117353],[75.7874993,26.911746],[75.7875056,26.9117264],[75.7875088,26.9117242],[75.7875079,26.9117062],[75.7874804,26.911697],[75.7874683,26.9116978],[75.7874668,26.91171],[75.7874589,26.9117289],[75.7874638,26.9117353]]]}},{"type":"Feature","properties":{"parcel_id":"TMP-TO-0089","building_id":"B-0089","area_m2":20.9,"perimeter_m":20.8,"building_coverage":0.82,"vegetation_share":0.0,"landuse":"Built-up","status":"Draft / Unverified"},"geometry":{"type":"Polygon","coordinates":[[[75.7873583,26.911746],[75.7873583,26.9117453],[75.7873711,26.9117344],[75.7873767,26.9117207],[75.7873775,26.9117206],[75.7873782,26.9117105],[75.7873564,26.911702],[75.7873548,26.9116984],[75.7873586,26.9116781],[75.7873538,26.9116731],[75.7873426,26.911684],[75.7873418,26.9116934],[75.7873339,26.9117122],[75.7873324,26.9117238],[75.7873316,26.9117346],[75.7873551,26.9117461],[75.7873583,26.911746]]]}},{"type":"Feature","properties":{"parcel_id":"TMP-TO-0090","building_id":"B-0090","area_m2":72.8,"perimeter_m":37.3,"building_coverage":0.91,"vegetation_share":0.0,"landuse":"Built-up","status":"Draft / Unverified"},"geometry":{"type":"Polygon","coordinates":[[[75.7877967,26.9117616],[75.787833,26.9117737],[75.7878362,26.9117701],[75.7878483,26.9117707],[75.7878554,26.911744],[75.7878736,26.9116955],[75.7878816,26.9116846],[75.7878806,26.911668],[75.7878685,26.9116652],[75.7878419,26.9116523],[75.787833,26.9116524],[75.7878274,26.9116596],[75.7878266,26.9116596],[75.7878219,26.9116806],[75.7878163,26.9116908],[75.7878051,26.9116959],[75.7878004,26.911714],[75.7878069,26.911719],[75.7877981,26.91174],[75.7877869,26.9117458],[75.7877869,26.9117465],[75.7877967,26.9117616]]]}},{"type":"Feature","properties":{"parcel_id":"TMP-TO-0091","building_id":"B-0091","area_m2":31.3,"perimeter_m":21.1,"building_coverage":0.93,"vegetation_share":0.0,"landuse":"Built-up","status":"Draft / Unverified"},"geometry":{"type":"Polygon","coordinates":[[[75.7881337,26.9116861],[75.7881153,26.9117057],[75.7881171,26.9117339],[75.7881228,26.911741],[75.7881502,26.9117416],[75.7881671,26.9117321],[75.7881686,26.9117184],[75.7881742,26.9117104],[75.7881725,26.9116945],[75.7881643,26.9116823],[75.7881643,26.9116794],[75.7881611,26.911678],[75.7881337,26.9116861]]]}},{"type":"Feature","properties":{"parcel_id":"TMP-TO-0092","building_id":"B-0092","area_m2":20.9,"perimeter_m":18.5,"building_coverage":0.91,"vegetation_share":0.0,"landuse":"Built-up","status":"Draft / Unverified"},"geometry":{"type":"Polygon","coordinates":[[[75.787413,26.9117277],[75.7874177,26.9117197],[75.7874194,26.9117197],[75.7874201,26.911711],[75.7874312,26.9116842],[75.7874304,26.9116842],[75.7874263,26.9116814],[75.7873957,26.9116722],[75.7873885,26.9116838],[75.7873846,26.911704],[75.7873782,26.9117105],[75.7873775,26.9117206],[75.7873791,26.9117206],[75.787413,26.9117277]]]}},{"type":"Feature","properties":{"parcel_id":"TMP-TO-0093","building_id":"B-0093","area_m2":18.3,"perimeter_m":16.1,"building_coverage":0.81,"vegetation_share":0.0,"landuse":"Built-up","status":"Draft / Unverified"},"geometry":{"type":"Polygon","coordinates":[[[75.7874589,26.9117289],[75.7874668,26.91171],[75.7874683,26.9116978],[75.7874586,26.9116913],[75.7874336,26.9116842],[75.7874312,26.9116842],[75.7874201,26.911711],[75.7874194,26.9117197],[75.7874202,26.9117197],[75.7874315,26.9117276],[75.78745,26.9117311],[75.7874589,26.9117289]]]}},{"type":"Feature","properties":{"parcel_id":"TMP-TO-0094","building_id":"B-0094","area_m2":19.6,"perimeter_m":24.9,"building_coverage":0.85,"vegetation_share":0.0,"landuse":"Built-up","status":"Draft / Unverified"},"geometry":{"type":"Polygon","coordinates":[[[75.7872969,26.911724],[75.7873017,26.911716],[75.787317,26.9117181],[75.7873324,26.9117238],[75.7873339,26.9117122],[75.7873418,26.9116934],[75.7873426,26.911684],[75.7873313,26.9116826],[75.7872966,26.9116742],[75.7872964,26.9116489],[75.7872948,26.9116489],[75.7872953,26.911724],[75.7872969,26.911724]]]}},{"type":"Feature","properties":{"parcel_id":"TMP-TO-0095","building_id":"B-0095","area_m2":21.5,"perimeter_m":19.2,"building_coverage":0.91,"vegetation_share":0.01,"landuse":"Built-up","status":"Draft / Unverified"},"geometry":{"type":"Polygon","coordinates":[[[75.787677,26.911693],[75.7876769,26.9116778],[75.7876704,26.9116699],[75.7876575,26.9116772],[75.7876374,26.911673],[75.7876286,26.9116867],[75.7876295,26.9116983],[75.7876199,26.9117077],[75.7876441,26.9117163],[75.7876505,26.9117162],[75.7876691,26.9117212],[75.787677,26.911693]]]}},{"type":"Feature","properties":{"parcel_id":"TMP-TO-0096","building_id":"B-0096","area_m2":34.5,"perimeter_m":27.7,"building_coverage":0.84,"vegetation_share":0.0,"landuse":"Built-up","status":"Draft / Unverified"},"geometry":{"type":"Polygon","coordinates":[[[75.7877981,26.91174],[75.7878069,26.911719],[75.7878004,26.911714],[75.7878051,26.9116959],[75.7878163,26.9116908],[75.7878219,26.9116806],[75.7878266,26.9116596],[75.787825,26.9116596],[75.7878104,26.9116511],[75.7877999,26.911649],[75.7877999,26.9116497],[75.7877967,26.9116519],[75.7877959,26.9116519],[75.7877634,26.911725],[75.7877635,26.9117373],[75.7877869,26.9117451],[75.7877869,26.9117458],[75.7877981,26.91174]]]}},{"type":"Feature","properties":{"parcel_id":"TMP-TO-0097","building_id":"B-0097","area_m2":24.2,"perimeter_m":22.3,"building_coverage":0.86,"vegetation_share":0.0,"landuse":"Built-up","status":"Draft / Unverified"},"geometry":{"type":"Polygon","coordinates":[[[75.7875382,26.9116569],[75.7875414,26.9116591],[75.7875224,26.9117039],[75.7875216,26.9117105],[75.7875297,26.911714],[75.7875547,26.9117182],[75.7875627,26.9117174],[75.7875731,26.9117066],[75.7875731,26.9117051],[75.7875601,26.9116907],[75.7875608,26.9116734],[75.7875664,26.911669],[75.7875696,26.9116582],[75.7875688,26.9116582],[75.7875631,26.9116532],[75.7875397,26.9116504],[75.7875397,26.9116526],[75.7875381,26.9116547],[75.7875382,26.9116569]]]}},{"type":"Feature","properties":{"parcel_id":"TMP-TO-0098","building_id":"B-0098","area_m2":66.6,"perimeter_m":33.1,"building_coverage":0.94,"vegetation_share":0.0,"landuse":"Built-up","status":"Draft / Unverified"},"geometry":{"type":"Polygon","coordinates":[[[75.7877207,26.9117231],[75.7877514,26.9117359],[75.7877635,26.9117366],[75.7877634,26.911725],[75.7877959,26.9116519],[75.7877951,26.9116519],[75.7877499,26.9116341],[75.7877402,26.9116334],[75.7877314,26.9116378],[75.7877314,26.9116385],[75.7877243,26.911658],[75.7877187,26.9116667],[75.7877091,26.9116733],[75.7877091,26.9116747],[75.7877107,26.911682],[75.7877036,26.9116957],[75.7877037,26.9117181],[75.7877207,26.9117231]]]}},{"type":"Feature","properties":{"parcel_id":"TMP-TO-0099","building_id":"B-0099","area_m2":37.7,"perimeter_m":40.1,"building_coverage":0.9,"vegetation_share":0.0,"landuse":"Built-up","status":"Draft / Unverified"},"geometry":{"type":"Polygon","coordinates":[[[75.788249,26.9116948],[75.7882684,26.911707],[75.7883088,26.9117277],[75.7883091,26.9117573],[75.7883107,26.9117581],[75.7883096,26.9116042],[75.7883082,26.9116317],[75.7882985,26.9116361],[75.788297,26.9116418],[75.7882657,26.9116702],[75.7882474,26.9116891],[75.788249,26.9116948]]]}},{"type":"Feature","properties":{"parcel_id":"TMP-TO-0100","building_id":"B-0101","area_m2":48.7,"perimeter_m":26.2,"building_coverage":0.94,"vegetation_share":0.02,"landuse":"Built-up","status":"Draft / Unverified"},"geometry":{"type":"Polygon","coordinates":[[[75.7875869,26.9117086],[75.7876199,26.9117077],[75.7876295,26.9116983],[75.7876286,26.9116867],[75.7876374,26.911673],[75.7876316,26.9116578],[75.7876323,26.9116456],[75.7876178,26.911637],[75.7875896,26.911635],[75.7875871,26.911635],[75.7875807,26.9116401],[75.7875704,26.9116582],[75.7875696,26.9116582],[75.7875664,26.911669],[75.7875608,26.9116734],[75.7875601,26.9116907],[75.7875731,26.9117051],[75.7875869,26.9117086]]]}},{"type":"Feature","properties":{"parcel_id":"TMP-TO-0101","building_id":"B-0100","area_m2":15.3,"perimeter_m":17.7,"building_coverage":0.91,"vegetation_share":0.0,"landuse":"Built-up","status":"Draft / Unverified"},"geometry":{"type":"Polygon","coordinates":[[[75.7874586,26.9116913],[75.7874633,26.9116667],[75.7874391,26.9116596],[75.7874278,26.9116532],[75.7874181,26.9116533],[75.7874069,26.9116685],[75.7873972,26.9116678],[75.7873972,26.9116693],[75.7873957,26.9116722],[75.7874263,26.9116814],[75.7874304,26.9116842],[75.7874336,26.9116842],[75.7874586,26.9116913]]]}},{"type":"Feature","properties":{"parcel_id":"TMP-TO-0102","building_id":"B-0102","area_m2":61.7,"perimeter_m":34.4,"building_coverage":0.93,"vegetation_share":0.0,"landuse":"Built-up","status":"Draft / Unverified"},"geometry":{"type":"Polygon","coordinates":[[[75.7880793,26.9116149],[75.7880809,26.9116214],[75.7880555,26.911675],[75.7880435,26.9116808],[75.7880387,26.9116946],[75.7880573,26.9117024],[75.7880815,26.9117016],[75.7880944,26.9117051],[75.7881103,26.9116732],[75.7881191,26.9116717],[75.7881271,26.9116594],[75.788127,26.9116392],[75.7881349,26.9116189],[75.7881348,26.9116131],[75.7881235,26.9116067],[75.788109,26.9116032],[75.7881074,26.9115996],[75.788092,26.9116004],[75.7880792,26.9116134],[75.7880793,26.9116149]]]}},{"type":"Feature","properties":{"parcel_id":"TMP-TO-0103","building_id":"B-0104","area_m2":22.9,"perimeter_m":18.9,"building_coverage":0.92,"vegetation_share":0.0,"landuse":"Built-up","status":"Draft / Unverified"},"geometry":{"type":"Polygon","coordinates":[[[75.7881852,26.9116757],[75.7881971,26.9116525],[75.7882059,26.9116395],[75.7882067,26.911633],[75.7881703,26.9116209],[75.7881631,26.9116267],[75.7881497,26.9116593],[75.7881626,26.9116729],[75.7881611,26.911678],[75.7881643,26.9116794],[75.7881852,26.9116757]]]}},{"type":"Feature","properties":{"parcel_id":"TMP-TO-0104","building_id":"B-0103","area_m2":23.7,"perimeter_m":20.8,"building_coverage":0.86,"vegetation_share":0.0,"landuse":"Built-up","status":"Draft / Unverified"},"geometry":{"type":"Polygon","coordinates":[[[75.7874848,26.9116276],[75.7874825,26.9116471],[75.7874978,26.9116528],[75.7874963,26.9116701],[75.7875214,26.9116751],[75.7875285,26.9116584],[75.7875381,26.9116547],[75.7875397,26.9116526],[75.7875397,26.9116497],[75.7875364,26.9116331],[75.7875323,26.9116273],[75.7875323,26.9116266],[75.7875186,26.9116289],[75.7874927,26.9116138],[75.7874848,26.9116276]]]}},{"type":"Feature","properties":{"parcel_id":"TMP-TO-0105","building_id":"B-0107","area_m2":27.2,"perimeter_m":21.1,"building_coverage":0.89,"vegetation_share":0.0,"landuse":"Built-up","status":"Draft / Unverified"},"geometry":{"type":"Polygon","coordinates":[[[75.7877305,26.9116226],[75.7876998,26.9116098],[75.7876941,26.9116098],[75.7876805,26.9116193],[75.787675,26.9116367],[75.7876767,26.9116576],[75.7877033,26.9116582],[75.7877026,26.9116719],[75.7877091,26.9116733],[75.7877187,26.9116667],[75.7877243,26.911658],[75.7877314,26.9116385],[75.7877314,26.9116371],[75.7877305,26.9116291],[75.7877305,26.9116226]]]}},{"type":"Feature","properties":{"parcel_id":"TMP-TO-0106","building_id":"B-0108","area_m2":21.3,"perimeter_m":18.5,"building_coverage":0.92,"vegetation_share":0.02,"landuse":"Built-up","status":"Draft / Unverified"},"geometry":{"type":"Polygon","coordinates":[[[75.7878895,26.9116622],[75.7878893,26.9116391],[75.7878852,26.9116268],[75.7878746,26.9116168],[75.7878697,26.9116074],[75.7878617,26.9116067],[75.787841,26.911648],[75.7878402,26.9116523],[75.7878419,26.9116523],[75.7878685,26.9116652],[75.7878806,26.911668],[75.7878895,26.9116622]]]}},{"type":"Feature","properties":{"parcel_id":"TMP-TO-0107","building_id":"B-0105","area_m2":38.2,"perimeter_m":28.4,"building_coverage":0.98,"vegetation_share":0.0,"landuse":"Built-up","status":"Draft / Unverified"},"geometry":{"type":"Polygon","coordinates":[[[75.7882856,26.9116231],[75.7882669,26.911598],[75.7882531,26.9115944],[75.7882436,26.9116118],[75.7882364,26.9116198],[75.7882301,26.9116357],[75.7882478,26.9116421],[75.7882479,26.9116479],[75.7882288,26.9116805],[75.7882474,26.9116891],[75.7882657,26.9116702],[75.788297,26.9116418],[75.7882985,26.9116361],[75.7882856,26.9116231]]]}},{"type":"Feature","properties":{"parcel_id":"TMP-TO-0108","building_id":"B-0106","area_m2":16.9,"perimeter_m":17.9,"building_coverage":0.99,"vegetation_share":0.0,"landuse":"Built-up","status":"Draft / Unverified"},"geometry":{"type":"Polygon","coordinates":[[[75.7874026,26.9116216],[75.787397,26.9116382],[75.7873972,26.9116678],[75.7874069,26.9116685],[75.7874181,26.9116533],[75.7874278,26.9116532],[75.7874269,26.911646],[75.7874341,26.9116373],[75.7874323,26.9116178],[75.7874097,26.9116092],[75.7874025,26.9116086],[75.7874026,26.9116216]]]}},{"type":"Feature","properties":{"parcel_id":"TMP-TO-0109","building_id":"B-0109","area_m2":23.7,"perimeter_m":20.1,"building_coverage":0.84,"vegetation_share":0.0,"landuse":"Built-up","status":"Draft / Unverified"},"geometry":{"type":"Polygon","coordinates":[[[75.7873357,26.9116219],[75.787339,26.9116327],[75.7873592,26.9116406],[75.7873625,26.9116521],[75.787373,26.9116521],[75.7873809,26.9116376],[75.7873896,26.9116094],[75.7873936,26.9116057],[75.7873936,26.9116043],[75.7873758,26.9116015],[75.787354,26.9115929],[75.7873411,26.9115952],[75.7873412,26.9116017],[75.7873356,26.9116162],[75.7873357,26.9116219]]]}},{"type":"Feature","properties":{"parcel_id":"TMP-TO-0110","building_id":"B-0110","area_m2":30.2,"perimeter_m":23.4,"building_coverage":0.96,"vegetation_share":0.0,"landuse":"Built-up","status":"Draft / Unverified"},"geometry":{"type":"Polygon","coordinates":[[[75.7878402,26.9116523],[75.787841,26.911648],[75.7878617,26.9116067],[75.7878496,26.911601],[75.7878495,26.9115938],[75.7878398,26.9115881],[75.787818,26.9115831],[75.7878125,26.9115954],[75.7878134,26.9116185],[75.7877999,26.9116482],[75.7877999,26.911649],[75.7878104,26.9116511],[75.787825,26.9116596],[75.7878274,26.9116596],[75.787833,26.9116524],[75.7878402,26.9116523]]]}},{"type":"Feature","properties":{"parcel_id":"TMP-TO-0111","building_id":"B-0111","area_m2":60.9,"perimeter_m":38.4,"building_coverage":0.99,"vegetation_share":0.0,"landuse":"Built-up","status":"Draft / Unverified"},"geometry":{"type":"Polygon","coordinates":[[[75.7882247,26.911682],[75.7882288,26.9116805],[75.7882479,26.9116479],[75.7882478,26.9116421],[75.7882301,26.9116357],[75.7882364,26.9116198],[75.7882436,26.9116118],[75.7882531,26.9115944],[75.7882507,26.9115858],[75.7882232,26.9115773],[75.788207,26.9115687],[75.788199,26.9115687],[75.7881902,26.9115782],[75.7881815,26.9115999],[75.7881719,26.9116137],[75.7881703,26.9116209],[75.7882067,26.911633],[75.7882059,26.9116395],[75.7881971,26.9116525],[75.7881852,26.9116757],[75.7882247,26.911682]]]}},{"type":"Feature","properties":{"parcel_id":"TMP-TO-0112","building_id":"B-0112","area_m2":48.0,"perimeter_m":30.6,"building_coverage":0.89,"vegetation_share":0.0,"landuse":"Built-up","status":"Draft / Unverified"},"geometry":{"type":"Polygon","coordinates":[[[75.7875704,26.9116582],[75.7875807,26.9116401],[75.7875871,26.911635],[75.7875863,26.911627],[75.7875942,26.9116075],[75.7875998,26.9116053],[75.7875998,26.9116038],[75.7876061,26.9115872],[75.7876061,26.9115764],[75.7875891,26.9115678],[75.787581,26.9115678],[75.7875779,26.9115801],[75.7875723,26.9115874],[75.7875659,26.9115874],[75.7875408,26.9115775],[75.7875384,26.9115775],[75.7875282,26.9116107],[75.7875323,26.9116259],[75.7875323,26.9116273],[75.7875364,26.9116331],[75.7875397,26.9116497],[75.7875397,26.9116504],[75.7875631,26.9116532],[75.7875688,26.9116582],[75.7875704,26.9116582]]]}},{"type":"Feature","properties":{"parcel_id":"TMP-TO-0113","building_id":"B-0113","area_m2":19.6,"perimeter_m":22.7,"building_coverage":0.78,"vegetation_share":0.0,"landuse":"Built-up","status":"Draft / Unverified"},"geometry":{"type":"Polygon","coordinates":[[[75.7872964,26.9116489],[75.7872962,26.9116243],[75.787301,26.9116221],[75.7873276,26.9116234],[75.7873356,26.9116162],[75.7873412,26.9116017],[75.7873411,26.9115937],[75.7873387,26.9115858],[75.7872943,26.9115803],[75.7872948,26.9116489],[75.7872964,26.9116489]]]}},{"type":"Feature","properties":{"parcel_id":"TMP-TO-0114","building_id":"B-0114","area_m2":20.7,"perimeter_m":18.8,"building_coverage":0.88,"vegetation_share":0.0,"landuse":"Built-up","status":"Draft / Unverified"},"geometry":{"type":"Polygon","coordinates":[[[75.7874387,26.911604],[75.7874556,26.9115996],[75.7874555,26.9115917],[75.7874547,26.9115902],[75.7874547,26.9115888],[75.787424,26.9115745],[75.7874086,26.9115652],[75.7874086,26.9115659],[75.7873982,26.9115804],[75.7873936,26.9116021],[75.7873936,26.911605],[75.7874025,26.9116086],[75.7874097,26.9116092],[75.7874323,26.9116178],[75.7874387,26.911604]]]}},{"type":"Feature","properties":{"parcel_id":"TMP-TO-0115","building_id":"B-0116","area_m2":201.0,"perimeter_m":62.0,"building_coverage":0.97,"vegetation_share":0.0,"landuse":"Built-up","status":"Draft / Unverified"},"geometry":{"type":"Polygon","coordinates":[[[75.7879229,26.9116064],[75.7879311,26.9116215],[75.7879408,26.9116308],[75.7879601,26.9116257],[75.7879682,26.9116321],[75.7879723,26.9116465],[75.7879796,26.9116552],[75.7879925,26.9116573],[75.7880054,26.9116543],[75.7880111,26.9116608],[75.7880199,26.9116571],[75.7880343,26.9116426],[75.7880504,26.9116317],[75.7880624,26.9116186],[75.7880792,26.9116134],[75.788092,26.9116004],[75.7881074,26.9115996],[75.7881073,26.911596],[75.7881305,26.9115727],[75.7881305,26.9115655],[75.7881183,26.9115533],[75.7881183,26.9115461],[75.7881134,26.9115389],[75.7881165,26.9115266],[75.7881165,26.9115244],[75.7880995,26.9115072],[75.7880898,26.9115043],[75.7880865,26.9114986],[75.7880776,26.9114986],[75.7880688,26.9114972],[75.7880543,26.9115038],[75.7880511,26.9115038],[75.7880495,26.9115082],[75.788011,26.9115308],[75.7880127,26.9115481],[75.7880015,26.9115583],[75.7879798,26.9115598],[75.7879621,26.9115715],[75.7879549,26.9115715],[75.7879405,26.9115839],[75.787922,26.9115934],[75.7879229,26.9116064]]]}},{"type":"Feature","properties":{"parcel_id":"TMP-TO-0116","building_id":"B-0117","area_m2":59.1,"perimeter_m":33.6,"building_coverage":0.87,"vegetation_share":0.0,"landuse":"Built-up","status":"Draft / Unverified"},"geometry":{"type":"Polygon","coordinates":[[[75.7875186,26.9116289],[75.7875323,26.9116266],[75.7875323,26.9116259],[75.7875282,26.9116107],[75.7875384,26.9115775],[75.7875391,26.9115551],[75.7875366,26.9115515],[75.7875213,26.911553],[75.787514,26.9115487],[75.7875156,26.9115422],[75.7875156,26.9115408],[75.7875043,26.9115336],[75.7875042,26.9115278],[75.7874929,26.9115228],[75.7874929,26.9115235],[75.7874801,26.911533],[75.7874801,26.9115366],[75.7874698,26.9115576],[75.7874579,26.9115873],[75.7874547,26.9115895],[75.7874547,26.9115902],[75.7874555,26.9115917],[75.7874556,26.9115989],[75.7874798,26.9116031],[75.7874911,26.9116081],[75.7874927,26.9116138],[75.7875186,26.9116289]]]}},{"type":"Feature","properties":{"parcel_id":"TMP-TO-0117","building_id":"B-0115","area_m2":123.4,"perimeter_m":51.0,"building_coverage":0.67,"vegetation_share":0.0,"landuse":"Built-up","status":"Draft / Unverified"},"geometry":{"type":"Polygon","coordinates":[[[75.7877967,26.9116519],[75.7877999,26.9116497],[75.7877999,26.9116482],[75.7878134,26.9116185],[75.7878125,26.9115954],[75.787818,26.9115831],[75.7878156,26.9115817],[75.7878396,26.911557],[75.7878436,26.911549],[75.7878321,26.9115282],[75.7878191,26.9115102],[75.7878021,26.9115038],[75.7877812,26.9115039],[75.7877726,26.9115451],[75.7877347,26.9115294],[75.7877285,26.9115685],[75.7877237,26.9115735],[75.7877215,26.9116053],[75.7877377,26.9116139],[75.7877305,26.9116291],[75.7877314,26.9116371],[75.7877314,26.9116378],[75.7877402,26.9116334],[75.7877499,26.9116341],[75.7877951,26.9116519],[75.7877967,26.9116519]]]}},{"type":"Feature","properties":{"parcel_id":"TMP-TO-0118","building_id":"B-0118","area_m2":53.4,"perimeter_m":30.4,"building_coverage":0.92,"vegetation_share":0.0,"landuse":"Built-up","status":"Draft / Unverified"},"geometry":{"type":"Polygon","coordinates":[[[75.787616,26.9116095],[75.7876466,26.9116166],[75.7876515,26.9116158],[75.7876578,26.9115992],[75.7876577,26.9115905],[75.7876649,26.9115811],[75.7876743,26.9115428],[75.7876742,26.911529],[75.7876573,26.911527],[75.7876468,26.9115184],[75.7876395,26.9115177],[75.7876266,26.9115214],[75.7876211,26.9115301],[75.7876219,26.911538],[75.7876156,26.9115539],[75.7876149,26.9115662],[75.7876061,26.9115764],[75.7876061,26.9115872],[75.7875998,26.9116038],[75.787616,26.9116095]]]}},{"type":"Feature","properties":{"parcel_id":"TMP-TO-0119","building_id":"B-0119","area_m2":25.0,"perimeter_m":22.3,"building_coverage":0.86,"vegetation_share":0.0,"landuse":"Built-up","status":"Draft / Unverified"},"geometry":{"type":"Polygon","coordinates":[[[75.7874579,26.9115873],[75.7874698,26.9115576],[75.7874801,26.9115366],[75.7874801,26.9115345],[75.7874664,26.9115316],[75.7874528,26.9115469],[75.7874294,26.9115369],[75.7874221,26.9115369],[75.7874182,26.9115485],[75.7874086,26.9115637],[75.7874086,26.9115652],[75.787424,26.9115745],[75.7874547,26.9115888],[75.7874547,26.9115895],[75.7874579,26.9115873]]]}},{"type":"Feature","properties":{"parcel_id":"TMP-TO-0120","building_id":"B-0120","area_m2":96.3,"perimeter_m":40.3,"building_coverage":0.91,"vegetation_share":0.0,"landuse":"Built-up","status":"Draft / Unverified"},"geometry":{"type":"Polygon","coordinates":[[[75.787354,26.9115929],[75.7873758,26.9116015],[75.7873936,26.9116043],[75.7873936,26.9116021],[75.7873982,26.9115804],[75.7874086,26.9115659],[75.7874086,26.9115637],[75.7874182,26.9115485],[75.7874221,26.9115369],[75.7874213,26.9115369],[75.7874035,26.9115269],[75.7873986,26.9115205],[75.7873954,26.9115205],[75.7873664,26.9115134],[75.7873494,26.9115113],[75.7873494,26.9115121],[75.7873462,26.9115143],[75.7872938,26.9115124],[75.7872943,26.9115803],[75.7873387,26.9115858],[75.7873411,26.9115937],[75.7873411,26.9115952],[75.787354,26.9115929]]]}},{"type":"Feature","properties":{"parcel_id":"TMP-TO-0121","building_id":"B-0121","area_m2":20.9,"perimeter_m":18.1,"building_coverage":0.93,"vegetation_share":0.0,"landuse":"Built-up","status":"Draft / Unverified"},"geometry":{"type":"Polygon","coordinates":[[[75.7877209,26.9115244],[75.7877144,26.9115165],[75.7876999,26.9115159],[75.7876959,26.9115246],[75.7876882,26.9115622],[75.7877237,26.9115735],[75.7877285,26.9115685],[75.7877347,26.9115294],[75.7877209,26.9115244]]]}},{"type":"Feature","properties":{"parcel_id":"TMP-TO-0122","building_id":"B-0123","area_m2":17.8,"perimeter_m":16.9,"building_coverage":0.96,"vegetation_share":0.0,"landuse":"Built-up","status":"Draft / Unverified"},"geometry":{"type":"Polygon","coordinates":[[[75.787547,26.9115362],[75.7875486,26.9115427],[75.7875761,26.911552],[75.7875865,26.911549],[75.7876011,26.9115511],[75.787609,26.9115294],[75.787567,26.9115123],[75.787567,26.9115116],[75.787547,26.9115326],[75.787547,26.9115362]]]}},{"type":"Feature","properties":{"parcel_id":"TMP-TO-0123","building_id":"B-0122","area_m2":50.2,"perimeter_m":35.1,"building_coverage":0.88,"vegetation_share":0.0,"landuse":"Built-up","status":"Draft / Unverified"},"geometry":{"type":"Polygon","coordinates":[[[75.7879459,26.9115593],[75.7879387,26.9115557],[75.7879281,26.9115392],[75.7879312,26.9115312],[75.7879312,26.9115276],[75.7879253,26.9114901],[75.7879317,26.9114814],[75.7879309,26.9114814],[75.7879188,26.9114786],[75.7878995,26.9114837],[75.7878851,26.9114939],[75.7878722,26.911499],[75.7878699,26.9115077],[75.7878739,26.9115164],[75.787886,26.9115199],[75.7878942,26.9115401],[75.7878862,26.9115445],[75.7878903,26.9115509],[75.7879024,26.9115588],[75.787922,26.9115934],[75.7879405,26.9115839],[75.7879549,26.9115715],[75.7879459,26.9115593]]]}},{"type":"Feature","properties":{"parcel_id":"TMP-TO-0124","building_id":"B-0125","area_m2":17.8,"perimeter_m":18.4,"building_coverage":0.94,"vegetation_share":0.0,"landuse":"Built-up","status":"Draft / Unverified"},"geometry":{"type":"Polygon","coordinates":[[[75.7876211,26.9115301],[75.7876266,26.9115214],[75.7876395,26.9115177],[75.7876363,26.9115141],[75.7876144,26.9115055],[75.787595,26.9114869],[75.7875829,26.9114877],[75.7875669,26.9115094],[75.787567,26.9115123],[75.787609,26.9115294],[75.7876211,26.9115301]]]}},{"type":"Feature","properties":{"parcel_id":"TMP-TO-0125","building_id":"B-0124","area_m2":50.5,"perimeter_m":32.5,"building_coverage":0.94,"vegetation_share":0.0,"landuse":"Built-up","status":"Draft / Unverified"},"geometry":{"type":"Polygon","coordinates":[[[75.7881295,26.9115446],[75.7881441,26.9115495],[75.7881546,26.9115574],[75.7881659,26.9115602],[75.7881746,26.91154],[75.7881874,26.9115197],[75.788197,26.9115189],[75.788209,26.9115037],[75.7882065,26.9114907],[75.7882137,26.9114791],[75.7882136,26.9114711],[75.7881958,26.9114633],[75.7881837,26.9114634],[75.7881702,26.9114815],[75.7881574,26.9114931],[75.7881278,26.9115243],[75.7881165,26.9115258],[75.7881165,26.9115266],[75.7881134,26.9115389],[75.7881183,26.9115461],[75.7881295,26.9115446]]]}},{"type":"Feature","properties":{"parcel_id":"TMP-TO-0126","building_id":"B-0127","area_m2":20.5,"perimeter_m":20.5,"building_coverage":0.75,"vegetation_share":0.0,"landuse":"Built-up","status":"Draft / Unverified"},"geometry":{"type":"Polygon","coordinates":[[[75.7873462,26.9115143],[75.7873494,26.9115121],[75.7873494,26.9115106],[75.7873389,26.9114999],[75.7873436,26.9114782],[75.7873419,26.9114782],[75.7873258,26.911479],[75.7873016,26.9114719],[75.7872935,26.9114647],[75.7872938,26.9115124],[75.7873462,26.9115143]]]}},{"type":"Feature","properties":{"parcel_id":"TMP-TO-0127","building_id":"B-0128","area_m2":21.4,"perimeter_m":18.7,"building_coverage":0.8,"vegetation_share":0.0,"landuse":"Built-up","status":"Draft / Unverified"},"geometry":{"type":"Polygon","coordinates":[[[75.7873994,26.9115205],[75.7874034,26.9115168],[75.7874066,26.9115009],[75.7873984,26.9114887],[75.7873807,26.9114866],[75.7873637,26.9114809],[75.7873444,26.9114782],[75.7873436,26.9114782],[75.7873389,26.9114999],[75.7873494,26.9115106],[75.7873494,26.9115113],[75.7873664,26.9115134],[75.7873954,26.9115205],[75.7873994,26.9115205]]]}},{"type":"Feature","properties":{"parcel_id":"TMP-TO-0128","building_id":"B-0129","area_m2":59.2,"perimeter_m":31.2,"building_coverage":0.87,"vegetation_share":0.0,"landuse":"Built-up","status":"Draft / Unverified"},"geometry":{"type":"Polygon","coordinates":[[[75.7875253,26.91154],[75.7875309,26.9115342],[75.787547,26.9115326],[75.787567,26.9115116],[75.7875669,26.9115094],[75.7875829,26.9114877],[75.7875829,26.911484],[75.7875627,26.9114748],[75.7875407,26.9114496],[75.7875327,26.9114453],[75.7875165,26.9114425],[75.7875102,26.9114613],[75.7875038,26.9114657],[75.7875039,26.9114874],[75.787492,26.9115127],[75.7874929,26.9115199],[75.7874929,26.9115228],[75.7875042,26.9115278],[75.7875043,26.9115336],[75.7875156,26.9115408],[75.7875253,26.91154]]]}},{"type":"Feature","properties":{"parcel_id":"TMP-TO-0129","building_id":"B-0126","area_m2":21.6,"perimeter_m":18.4,"building_coverage":0.75,"vegetation_share":0.0,"landuse":"Built-up","status":"Draft / Unverified"},"geometry":{"type":"Polygon","coordinates":[[[75.7879393,26.911529],[75.7879425,26.9115232],[75.7879746,26.911505],[75.787972,26.9114775],[75.7879574,26.911469],[75.787955,26.911469],[75.7879325,26.9114814],[75.7879317,26.9114814],[75.7879253,26.9114901],[75.7879312,26.9115276],[75.7879393,26.911529]]]}},{"type":"Feature","properties":{"parcel_id":"TMP-TO-0130","building_id":"B-0130","area_m2":26.5,"perimeter_m":24.3,"building_coverage":0.9,"vegetation_share":0.0,"landuse":"Built-up","status":"Draft / Unverified"},"geometry":{"type":"Polygon","coordinates":[[[75.7881278,26.9115243],[75.7881574,26.9114931],[75.7881702,26.9114815],[75.7881837,26.9114634],[75.7881813,26.9114533],[75.7881764,26.9114518],[75.7881556,26.911465],[75.7881475,26.9114657],[75.7881443,26.9114715],[75.788105,26.9114992],[75.7880995,26.9115072],[75.7881165,26.9115244],[75.7881165,26.9115258],[75.7881278,26.9115243]]]}},{"type":"Feature","properties":{"parcel_id":"TMP-TO-0131","building_id":"B-0131","area_m2":14.8,"perimeter_m":16.7,"building_coverage":0.95,"vegetation_share":0.01,"landuse":"Built-up","status":"Draft / Unverified"},"geometry":{"type":"Polygon","coordinates":[[[75.7880873,26.9114986],[75.7880905,26.911487],[75.7880726,26.9114748],[75.7880597,26.9114619],[75.7880524,26.9114619],[75.788038,26.9114808],[75.7880308,26.9114837],[75.7880333,26.9114902],[75.7880429,26.9114887],[75.7880543,26.9115038],[75.7880688,26.9114972],[75.7880776,26.9114986],[75.7880873,26.9114986]]]}},{"type":"Feature","properties":{"parcel_id":"TMP-TO-0132","building_id":"B-0132","area_m2":99.3,"perimeter_m":42.5,"building_coverage":0.93,"vegetation_share":0.17,"landuse":"Built-up","status":"Draft / Unverified"},"geometry":{"type":"Polygon","coordinates":[[[75.7874528,26.9115469],[75.7874664,26.9115316],[75.7874801,26.9115345],[75.7874801,26.911533],[75.7874929,26.9115235],[75.7874929,26.9115199],[75.787492,26.9115127],[75.7875039,26.9114874],[75.7875038,26.9114657],[75.7875102,26.9114613],[75.7875165,26.9114425],[75.7874914,26.9114253],[75.7874793,26.9114254],[75.7874648,26.9114146],[75.7874575,26.9114132],[75.7874399,26.9114372],[75.7874375,26.9114372],[75.7874376,26.9114531],[75.7874265,26.9114748],[75.7874209,26.9114784],[75.7874218,26.9114849],[75.7874146,26.9114987],[75.7874066,26.9115009],[75.7874034,26.9115168],[75.7873994,26.9115205],[75.7873986,26.9115205],[75.7874035,26.9115269],[75.7874213,26.9115369],[75.7874294,26.9115369],[75.7874528,26.9115469]]]}},{"type":"Feature","properties":{"parcel_id":"TMP-TO-0133","building_id":"B-0133","area_m2":73.1,"perimeter_m":62.3,"building_coverage":0.95,"vegetation_share":0.0,"landuse":"Built-up","status":"Draft / Unverified"},"geometry":{"type":"Polygon","coordinates":[[[75.7882756,26.9113545],[75.7883054,26.9113543],[75.7883064,26.9113782],[75.7882792,26.9114079],[75.788253,26.9114579],[75.7882371,26.9114847],[75.7882347,26.9114949],[75.7882696,26.911525],[75.78828,26.9115235],[75.7882993,26.9115125],[75.7883074,26.9115139],[75.7883077,26.9115659],[75.7883093,26.9115659],[75.7883079,26.9113529],[75.7882756,26.9113531],[75.7882756,26.9113545]]]}},{"type":"Feature","properties":{"parcel_id":"TMP-TO-0134","building_id":"B-0134","area_m2":26.7,"perimeter_m":20.5,"building_coverage":0.67,"vegetation_share":0.13,"landuse":"Built-up","status":"Draft / Unverified"},"geometry":{"type":"Polygon","coordinates":[[[75.7879878,26.9114363],[75.7879781,26.9114392],[75.7879565,26.9114538],[75.7879558,26.911469],[75.7879574,26.911469],[75.787972,26.9114775],[75.7879864,26.9114717],[75.7879961,26.911476],[75.7880138,26.9114723],[75.7880306,26.9114599],[75.7880184,26.9114376],[75.7880054,26.9114268],[75.7880014,26.9114268],[75.7879878,26.9114363]]]}},{"type":"Feature","properties":{"parcel_id":"TMP-TO-0135","building_id":"B-0135","area_m2":15.6,"perimeter_m":15.0,"building_coverage":0.88,"vegetation_share":0.0,"landuse":"Built-up","status":"Draft / Unverified"},"geometry":{"type":"Polygon","coordinates":[[[75.7874265,26.9114748],[75.7874376,26.9114531],[75.7874375,26.9114372],[75.7874367,26.9114372],[75.7874221,26.9114264],[75.7874101,26.9114337],[75.7873966,26.911454],[75.7874072,26.9114742],[75.7874209,26.9114784],[75.7874265,26.9114748]]]}},{"type":"Feature","properties":{"parcel_id":"TMP-TO-0136","building_id":"B-0136","area_m2":48.4,"perimeter_m":28.0,"building_coverage":0.72,"vegetation_share":0.0,"landuse":"Built-up","status":"Draft / Unverified"},"geometry":{"type":"Polygon","coordinates":[[[75.7873016,26.9114719],[75.7873258,26.911479],[75.7873419,26.9114782],[75.7873444,26.9114782],[75.7873435,26.9114724],[75.7873515,26.9114651],[75.7873611,26.9114463],[75.7873826,26.9114216],[75.7873753,26.9114101],[75.7873494,26.9113972],[75.7873398,26.9113958],[75.7873326,26.9114074],[75.7873038,26.911435],[75.7872933,26.9114402],[75.7872935,26.9114647],[75.7873016,26.9114719]]]}},{"type":"Feature","properties":{"parcel_id":"TMP-TO-0137","building_id":"B-0137","area_m2":17.3,"perimeter_m":17.9,"building_coverage":0.88,"vegetation_share":0.0,"landuse":"Built-up","status":"Draft / Unverified"},"geometry":{"type":"Polygon","coordinates":[[[75.7877919,26.9114208],[75.787783,26.9114136],[75.7877821,26.9114071],[75.7877813,26.9114071],[75.7877741,26.9114093],[75.7877533,26.9114311],[75.7877533,26.911434],[75.7877397,26.9114471],[75.7877495,26.91146],[75.78776,26.9114664],[75.7877672,26.9114664],[75.7877736,26.9114483],[75.7877912,26.9114338],[75.7877919,26.9114208]]]}},{"type":"Feature","properties":{"parcel_id":"TMP-TO-0138","building_id":"B-0139","area_m2":83.0,"perimeter_m":40.0,"building_coverage":0.93,"vegetation_share":0.0,"landuse":"Built-up","status":"Draft / Unverified"},"geometry":{"type":"Polygon","coordinates":[[[75.7879325,26.9114814],[75.787955,26.911469],[75.7879558,26.911469],[75.7879565,26.9114538],[75.7879781,26.9114392],[75.7879878,26.9114363],[75.7880014,26.9114268],[75.7880046,26.9114152],[75.7879867,26.9113944],[75.7879817,26.9113785],[75.7879753,26.9113714],[75.7879648,26.9113714],[75.7879375,26.9113918],[75.7879304,26.9114048],[75.7879095,26.9114172],[75.7878975,26.9114303],[75.7878912,26.911444],[75.7878711,26.9114593],[75.7878696,26.9114673],[75.7878777,26.9114716],[75.7878865,26.9114694],[75.7878995,26.9114794],[75.7878995,26.9114837],[75.7879188,26.9114786],[75.7879309,26.9114814],[75.7879325,26.9114814]]]}},{"type":"Feature","properties":{"parcel_id":"TMP-TO-0139","building_id":"B-0138","area_m2":28.6,"perimeter_m":22.3,"building_coverage":0.89,"vegetation_share":0.0,"landuse":"Built-up","status":"Draft / Unverified"},"geometry":{"type":"Polygon","coordinates":[[[75.7881556,26.911465],[75.7881764,26.9114518],[75.7881813,26.9114533],[75.7881877,26.9114518],[75.7882005,26.9114358],[75.7882109,26.9114285],[75.7882003,26.9114178],[75.7881785,26.9114013],[75.7881688,26.9113992],[75.7881673,26.9114086],[75.78816,26.9114151],[75.7881553,26.911426],[75.7881409,26.9114362],[75.7881361,26.9114513],[75.7881475,26.9114657],[75.7881556,26.911465]]]}},{"type":"Feature","properties":{"parcel_id":"TMP-TO-0140","building_id":"B-0140","area_m2":206.5,"perimeter_m":72.0,"building_coverage":0.98,"vegetation_share":0.0,"landuse":"Built-up","status":"Draft / Unverified"},"geometry":{"type":"Polygon","coordinates":[[[75.7876795,26.9113564],[75.7874555,26.9113576],[75.7874813,26.9113589],[75.7874879,26.9113798],[75.7875049,26.9113913],[75.787569,26.9114523],[75.7875973,26.9114739],[75.7876119,26.9114803],[75.7876256,26.911491],[75.7876393,26.9114946],[75.7876723,26.9114807],[75.7876996,26.9114747],[75.7877052,26.9114711],[75.7877052,26.9114617],[75.7876872,26.9114192],[75.7876814,26.9114019],[75.7876635,26.9113767],[75.787649,26.9113703],[75.7876473,26.911358],[75.7876795,26.9113578],[75.7876795,26.9113564]]]}},{"type":"Feature","properties":{"parcel_id":"TMP-TO-0141","building_id":"B-0142","area_m2":22.8,"perimeter_m":18.6,"building_coverage":0.91,"vegetation_share":0.0,"landuse":"Built-up","status":"Draft / Unverified"},"geometry":{"type":"Polygon","coordinates":[[[75.7874575,26.9114132],[75.7874558,26.9113945],[75.7874395,26.9113772],[75.7874234,26.9113795],[75.7874003,26.9114056],[75.7874221,26.9114221],[75.7874221,26.9114264],[75.7874367,26.9114372],[75.7874399,26.9114372],[75.7874575,26.9114132]]]}},{"type":"Feature","properties":{"parcel_id":"TMP-TO-0142","building_id":"B-0141","area_m2":85.4,"perimeter_m":49.9,"building_coverage":0.84,"vegetation_share":0.0,"landuse":"Built-up","status":"Draft / Unverified"},"geometry":{"type":"Polygon","coordinates":[[[75.7877964,26.9113716],[75.7877892,26.9113847],[75.7877893,26.9113962],[75.7877829,26.9114071],[75.7877821,26.9114071],[75.787783,26.9114136],[75.7877919,26.9114208],[75.7877912,26.9114338],[75.787796,26.9114337],[75.7878211,26.9114545],[75.7878293,26.9114632],[75.7878405,26.9114602],[75.7878637,26.911429],[75.7878781,26.9114203],[75.7878982,26.911413],[75.7878981,26.9114028],[75.7878916,26.9113928],[75.7878795,26.9113878],[75.7878503,26.9113641],[75.7878519,26.9113569],[75.7879131,26.9113565],[75.7879131,26.9113551],[75.7877979,26.9113557],[75.7877964,26.9113716]]]}},{"type":"Feature","properties":{"parcel_id":"TMP-TO-0143","building_id":"B-0145","area_m2":32.0,"perimeter_m":33.9,"building_coverage":0.74,"vegetation_share":0.13,"landuse":"Built-up","status":"Draft / Unverified"},"geometry":{"type":"Polygon","coordinates":[[[75.7873038,26.911435],[75.7873326,26.9114074],[75.7873398,26.9113958],[75.7873324,26.91138],[75.7873371,26.9113662],[75.7873435,26.9113597],[75.7873854,26.9113595],[75.7873854,26.911358],[75.7872928,26.9113585],[75.7872933,26.9114402],[75.7873038,26.911435]]]}},{"type":"Feature","properties":{"parcel_id":"TMP-TO-0144","building_id":"B-0143","area_m2":53.0,"perimeter_m":34.3,"building_coverage":0.76,"vegetation_share":0.0,"landuse":"Built-up","status":"Draft / Unverified"},"geometry":{"type":"Polygon","coordinates":[[[75.7877037,26.9113577],[75.787707,26.911383],[75.7877201,26.9114017],[75.7877533,26.9114311],[75.7877741,26.9114093],[75.7877813,26.9114071],[75.7877829,26.9114071],[75.7877893,26.9113962],[75.7877892,26.9113847],[75.7877964,26.9113716],[75.7877979,26.9113557],[75.7876795,26.9113564],[75.7876795,26.9113578],[75.7877037,26.9113577]]]}},{"type":"Feature","properties":{"parcel_id":"TMP-TO-0145","building_id":"B-0144","area_m2":134.9,"perimeter_m":81.9,"building_coverage":0.73,"vegetation_share":0.0,"landuse":"Built-up","status":"Draft / Unverified"},"geometry":{"type":"Polygon","coordinates":[[[75.7880057,26.9113546],[75.7880058,26.911356],[75.7880396,26.9113558],[75.7880542,26.911368],[75.7880663,26.9113737],[75.7880583,26.9113817],[75.7880448,26.9114071],[75.7880569,26.9114186],[75.7880731,26.9114243],[75.7880843,26.9114141],[75.7880812,26.9114285],[75.7880925,26.9114386],[75.788111,26.9114219],[75.7881124,26.9114009],[75.7881319,26.911416],[75.7881311,26.9114261],[75.7881409,26.9114362],[75.7881553,26.911426],[75.78816,26.9114151],[75.7881673,26.9114086],[75.7881688,26.9113992],[75.7881785,26.9114013],[75.7882003,26.9114178],[75.7882109,26.9114285],[75.7882165,26.9114271],[75.7882277,26.9114111],[75.7882437,26.9113951],[75.7882476,26.9113799],[75.788229,26.911362],[75.7882305,26.9113548],[75.7882756,26.9113545],[75.7882756,26.9113531],[75.7880057,26.9113546]]]}}]}