{"type":"FeatureCollection","features":[{"type":"Feature","properties":{"kind":"road corridor"},"geometry":{"type":"Polygon","coordinates":[[[75.7880693,26.9122715],[75.7880748,26.9122454],[75.7880901,26.9122454],[75.7880998,26.9122496],[75.7881128,26.9122633],[75.7881313,26.9122682],[75.7881369,26.9122646],[75.7881393,26.912253],[75.7881522,26.9122515],[75.7881529,26.9122428],[75.7881601,26.9122341],[75.7881585,26.9122291],[75.7881382,26.9122148],[75.7881268,26.9122004],[75.7880831,26.9121638],[75.7880695,26.9121761],[75.7880574,26.9121777],[75.7880558,26.9121827],[75.788064,26.9121978],[75.788064,26.9122065],[75.7880512,26.9122152],[75.7880248,26.9122436],[75.7880273,26.9122486],[75.7880451,26.9122579],[75.7880476,26.9122716],[75.7880565,26.9122817],[75.7880693,26.9122715]],[[75.7880658,26.912226],[75.7880658,26.9122224],[75.7880714,26.9122245],[75.7880682,26.9122282],[75.7880658,26.912226]]]}},{"type":"Feature","properties":{"kind":"road corridor"},"geometry":{"type":"Polygon","coordinates":[[[75.7883127,26.9123929],[75.7883129,26.9123062],[75.7883056,26.9123041],[75.7882805,26.9122826],[75.7882731,26.9122696],[75.7882859,26.9122537],[75.7883069,26.91226],[75.7883125,26.9122578],[75.7883121,26.9121921],[75.788304,26.9121886],[75.7882944,26.9121987],[75.7882815,26.9121966],[75.7882733,26.9121793],[75.7882773,26.9121678],[75.7882763,26.9121468],[75.7882617,26.9121346],[75.7882576,26.9121224],[75.7882397,26.9120986],[75.7882349,26.9120972],[75.7882204,26.9121045],[75.7882189,26.9121182],[75.7882449,26.9121506],[75.7882443,26.9121817],[75.7882526,26.912212],[75.7882599,26.9122206],[75.78826,26.9122372],[75.7882544,26.912243],[75.7882547,26.9122813],[75.7882572,26.9122885],[75.7882636,26.9122921],[75.7882597,26.9123058],[75.7882678,26.9123144],[75.7882674,26.9123758],[75.7881756,26.9123756],[75.7881818,26.9123409],[75.7881874,26.9123344],[75.7881865,26.912325],[75.7881808,26.9123214],[75.7881672,26.9123265],[75.7881571,26.9123757],[75.7880668,26.9123755],[75.7880627,26.9123661],[75.7880441,26.912359],[75.7880361,26.9123591],[75.7880289,26.9123656],[75.7880119,26.9123628],[75.7880118,26.9123484],[75.7880054,26.9123426],[75.7879909,26.9123463],[75.7879838,26.9123651],[75.7879789,26.9123666],[75.7879531,26.9123617],[75.7879483,26.9123588],[75.787945,26.912348],[75.7879329,26.9123459],[75.7879265,26.9123517],[75.7879281,26.9123604],[75.7879137,26.9123735],[75.7879049,26.9123764],[75.7878372,26.9123789],[75.7877768,26.9123764],[75.7877759,26.9123576],[75.7877911,26.912346],[75.7877756,26.9123157],[75.7877835,26.9123056],[75.787806,26.9122932],[75.7878125,26.9122931],[75.7878214,26.9123075],[75.7878184,26.9123393],[75.7878427,26.9123522],[75.7878475,26.91235],[75.7878547,26.912337],[75.7878893,26.9123317],[75.7878922,26.9122862],[75.7878985,26.9122681],[75.7879251,26.912268],[75.7879388,26.9122722],[75.7879477,26.91227],[75.7879484,26.9122563],[75.7879572,26.9122526],[75.7879691,26.9122258],[75.7879667,26.9122215],[75.7879263,26.9122058],[75.7879325,26.9121769],[75.7879228,26.9121697],[75.7879164,26.9121719],[75.7879093,26.9121944],[75.7878869,26.9122292],[75.7878686,26.9122488],[75.7878436,26.9122496],[75.787825,26.9122418],[75.7878154,26.9122483],[75.7878106,26.9122585],[75.7877977,26.9122564],[75.7877897,26.91226],[75.7877808,26.9122558],[75.787776,26.9122572],[75.7877664,26.9122746],[75.787752,26.9122819],[75.7877342,26.9122755],[75.7877236,26.9122568],[75.7877139,26.912259],[75.787714,26.9122735],[75.7877012,26.912275],[75.7876713,26.9122636],[75.7876591,26.9122507],[75.7876365,26.9122399],[75.7876155,26.9122386],[75.7876139,26.9122459],[75.7876262,26.9122653],[75.7876391,26.9122703],[75.7876471,26.9122695],[75.7876981,26.9122945],[75.7876974,26.9123089],[75.787691,26.9123169],[75.7876813,26.9123206],[75.7877015,26.9123291],[75.7877208,26.9123225],[75.7877523,26.9123238],[75.7877418,26.9123333],[75.7877419,26.9123426],[75.7877508,26.9123534],[75.7877412,26.9123564],[75.7877284,26.912368],[75.7877157,26.9123962],[75.7883127,26.9123929]]]}},{"type":"Feature","properties":{"kind":"road corridor"},"geometry":{"type":"Polygon","coordinates":[[[75.7878194,26.9121313],[75.7878369,26.9121038],[75.7878376,26.9120908],[75.7878487,26.9120633],[75.7878463,26.9120589],[75.7878334,26.9120568],[75.7878067,26.9120433],[75.7878019,26.9120455],[75.7877668,26.9120969],[75.78777,26.912102],[75.787787,26.9121062],[75.7877895,26.912112],[75.7877959,26.9121134],[75.7877976,26.9121271],[75.7878114,26.9121335],[75.7878194,26.9121313]]]}},{"type":"Feature","properties":{"kind":"road corridor"},"geometry":{"type":"Polygon","coordinates":[[[75.7874495,26.9120019],[75.7874535,26.9119911],[75.7874623,26.9119838],[75.7874897,26.9119822],[75.7875067,26.9119944],[75.7875187,26.9119885],[75.7875178,26.9119792],[75.7875105,26.9119741],[75.787504,26.9119568],[75.7874885,26.9119381],[75.787474,26.911939],[75.7874691,26.9119296],[75.7874627,26.9119267],[75.7874306,26.9119486],[75.7874169,26.9119523],[75.787417,26.9119602],[75.7874292,26.9119717],[75.7874214,26.9120079],[75.7874278,26.9120143],[75.7874495,26.9120019]]]}},{"type":"Feature","properties":{"kind":"road corridor"},"geometry":{"type":"Polygon","coordinates":[[[75.7873838,26.9117062],[75.7873877,26.9116859],[75.7873972,26.9116693],[75.7874016,26.9116064],[75.7873912,26.9116065],[75.787373,26.9116521],[75.7873625,26.9116521],[75.7873584,26.9116399],[75.7873406,26.9116349],[75.7873357,26.9116212],[75.787297,26.9116236],[75.7872966,26.9116742],[75.787341,26.9116847],[75.7873538,26.9116731],[75.7873586,26.9116781],[75.7873564,26.911702],[75.7873774,26.9117098],[75.7873838,26.9117062]]]}},{"type":"Feature","properties":{"kind":"road corridor"},"geometry":{"type":"Polygon","coordinates":[[[75.7875755,26.9115852],[75.787581,26.9115678],[75.7875891,26.9115678],[75.7876037,26.9115771],[75.7876109,26.9115742],[75.7876219,26.911538],[75.7876194,26.9115293],[75.7876082,26.9115309],[75.7876011,26.9115511],[75.7875729,26.9115513],[75.7875478,26.9115435],[75.7875486,26.9115377],[75.7875429,26.9115341],[75.7875333,26.9115334],[75.7875253,26.91154],[75.7875148,26.9115422],[75.7875157,26.9115509],[75.7875382,26.9115529],[75.7875392,26.9115775],[75.7875683,26.9115881],[75.7875755,26.9115852]]]}},{"type":"Feature","properties":{"kind":"road corridor"},"geometry":{"type":"Polygon","coordinates":[[[75.7874805,26.9123975],[75.7874746,26.912373],[75.7874769,26.912355],[75.7874971,26.9123621],[75.78751,26.9123598],[75.7874974,26.9123975],[75.7876279,26.9123967],[75.7876139,26.9123578],[75.7876405,26.9123591],[75.7876509,26.9123497],[75.7876596,26.9123287],[75.7876668,26.9123207],[75.7876483,26.9123215],[75.7876225,26.9123108],[75.7876152,26.9123116],[75.7876024,26.9123232],[75.7875913,26.9123471],[75.7875681,26.9123696],[75.7875632,26.9123704],[75.7875219,26.9123374],[75.7875362,26.9122976],[75.787556,26.9122527],[75.7875703,26.9122288],[75.7875759,26.9122258],[75.7875726,26.9122136],[75.7875758,26.9122078],[75.787639,26.9121345],[75.7876526,26.9121308],[75.7876881,26.9121378],[75.7876962,26.9121436],[75.7876866,26.9121544],[75.7876947,26.9121616],[75.7877068,26.9121616],[75.7877132,26.9121557],[75.7877156,26.9121456],[75.7877196,26.9121449],[75.7877608,26.9121692],[75.7877681,26.912172],[75.7877737,26.9121698],[75.7877745,26.9121626],[75.7877809,26.9121597],[75.7877921,26.9121401],[75.7877831,26.9121308],[75.787771,26.9121287],[75.7877419,26.912113],[75.7877443,26.9121057],[75.787758,26.9121028],[75.7877579,26.9120948],[75.7877232,26.9120791],[75.7877079,26.9120807],[75.7876966,26.9120778],[75.7876869,26.9120728],[75.7876868,26.9120685],[75.7877203,26.9120214],[75.7877404,26.9120068],[75.7877427,26.9119967],[75.787769,26.911951],[75.787773,26.9119474],[75.7877843,26.9119495],[75.7877915,26.9119444],[75.7878004,26.9119444],[75.7878059,26.9119342],[75.7878396,26.9119015],[75.7878549,26.9119058],[75.78788,26.9119251],[75.7878784,26.9119331],[75.7878649,26.9119483],[75.7878738,26.9119598],[75.787881,26.9119591],[75.7878939,26.9119489],[75.7879051,26.911938],[75.7879138,26.9119213],[75.7879235,26.9119206],[75.7879728,26.9119521],[75.7880076,26.9119641],[75.7880237,26.9119604],[75.788039,26.9119669],[75.7880463,26.9119798],[75.7880714,26.9119905],[75.7880835,26.911989],[75.7881004,26.9119954],[75.7881126,26.9120026],[75.7881175,26.9120105],[75.7881287,26.9120097],[75.7881401,26.9120176],[75.7881547,26.9120399],[75.7881644,26.9120449],[75.78817,26.9120427],[75.7881716,26.9120383],[75.7881651,26.9120239],[75.788157,26.9120204],[75.7881553,26.9120009],[75.7881592,26.9119958],[75.7881543,26.9119843],[75.7881446,26.9119793],[75.788131,26.9119858],[75.7881253,26.911975],[75.7880993,26.9119521],[75.7880945,26.9119507],[75.7880816,26.9119558],[75.788046,26.9119314],[75.7880395,26.9119177],[75.7880095,26.9118905],[75.7880126,26.9118839],[75.7880102,26.9118775],[75.7880053,26.911876],[75.7879989,26.9118797],[75.7879878,26.9119072],[75.787975,26.9119094],[75.7879345,26.9118844],[75.7879038,26.9118752],[75.7878617,26.9118465],[75.7878609,26.9118407],[75.7878768,26.9118089],[75.7879413,26.9117002],[75.7879485,26.9116994],[75.7879752,26.9117101],[75.7879824,26.9117057],[75.7879913,26.9117064],[75.7880009,26.9116991],[75.7880219,26.9117098],[75.788022,26.9117171],[75.7880156,26.9117272],[75.788018,26.9117322],[75.788052,26.9117472],[75.7880592,26.9117443],[75.7880689,26.9117464],[75.7880785,26.9117398],[75.7880987,26.9117491],[75.7880908,26.911773],[75.788078,26.9117854],[75.7880725,26.9117984],[75.7880661,26.9118013],[75.7880491,26.9117963],[75.7880371,26.9118116],[75.788022,26.9118413],[75.7880205,26.9118521],[75.7880125,26.9118558],[75.7880077,26.9118717],[75.7880102,26.9118767],[75.7880214,26.9118752],[75.7880551,26.9118447],[75.7880799,26.9118287],[75.7881087,26.9117996],[75.7881208,26.9117902],[75.7881296,26.9117894],[75.7881572,26.9118124],[75.7881823,26.9118418],[75.7881896,26.9118418],[75.7882008,26.9118345],[75.7882121,26.9118352],[75.788212,26.9118229],[75.7882233,26.9118257],[75.7882242,26.9118329],[75.7882129,26.9118359],[75.7882114,26.9118417],[75.7881993,26.9118482],[75.7881969,26.911854],[75.7882399,26.9118964],[75.7882384,26.9119116],[75.7882409,26.9119159],[75.7882473,26.9119166],[75.7882474,26.9119238],[75.7882418,26.9119289],[75.7882467,26.9119455],[75.7882548,26.9119469],[75.7882861,26.9119315],[75.788286,26.9119221],[75.788273,26.9119056],[75.7882738,26.9118962],[75.7882857,26.9118817],[75.7883099,26.9118758],[75.7883088,26.9117277],[75.7882514,26.911697],[75.7882465,26.9116876],[75.7882328,26.9116812],[75.7881699,26.9116765],[75.7881635,26.911683],[75.7881725,26.9116945],[75.7881742,26.9117097],[75.7882048,26.911711],[75.7882242,26.9117174],[75.7882268,26.9117412],[75.7882236,26.9117499],[75.7881914,26.9117544],[75.7881728,26.9117494],[75.7881704,26.9117386],[75.7881647,26.911735],[75.788147,26.9117424],[75.7881228,26.911741],[75.7881171,26.9117339],[75.7881153,26.9117057],[75.7881337,26.9116861],[75.7881611,26.9116787],[75.7881618,26.9116708],[75.7881497,26.9116593],[75.7881496,26.9116542],[75.7881815,26.9115999],[75.7881902,26.9115782],[75.788199,26.9115687],[75.788207,26.9115687],[75.7882232,26.9115773],[75.788249,26.9115843],[75.7882531,26.9115923],[75.7882669,26.911598],[75.7882953,26.9116354],[75.7883002,26.9116368],[75.7883082,26.9116317],[75.7883074,26.9115139],[75.7882993,26.9115125],[75.7882712,26.9115257],[75.7882347,26.9114949],[75.7882395,26.9114797],[75.7882768,26.9114108],[75.7883064,26.9113782],[75.7883054,26.9113543],[75.7882297,26.9113555],[75.7882306,26.9113649],[75.7882476,26.9113799],[75.7882477,26.9113886],[75.7882221,26.911422],[75.7882005,26.9114358],[75.7881813,26.9114569],[75.7881854,26.9114626],[75.7881958,26.9114633],[75.7882136,26.9114711],[75.7882137,26.9114791],[75.7882065,26.9114907],[75.7882082,26.9115051],[75.7881994,26.9115174],[75.7881874,26.9115197],[75.7881659,26.9115602],[75.7881295,26.9115446],[75.7881183,26.9115475],[75.7881199,26.9115562],[75.7881305,26.9115655],[75.7881305,26.9115727],[75.7881065,26.9115989],[75.788109,26.9116032],[75.7881316,26.9116103],[75.7881349,26.9116189],[75.788127,26.9116392],[75.7881279,26.911658],[75.7881191,26.9116717],[75.7881095,26.911674],[75.7880944,26.9117051],[75.7880815,26.9117016],[75.788063,26.9117038],[75.7880387,26.9116946],[75.7880435,26.9116808],[75.7880547,26.9116757],[75.7880611,26.9116648],[75.7880817,26.9116192],[75.7880793,26.9116142],[75.7880736,26.9116128],[75.7880624,26.9116186],[75.7880143,26.9116608],[75.7880014,26.9116529],[75.7879917,26.911658],[75.7879796,26.9116552],[75.7879723,26.9116465],[75.7879682,26.9116321],[75.7879617,26.9116264],[75.7879561,26.911625],[75.7879408,26.9116308],[75.7879311,26.9116215],[75.7879229,26.9116064],[75.7879196,26.9115876],[75.7878984,26.9115531],[75.7878903,26.9115509],[75.7878862,26.9115452],[75.7878935,26.9115415],[75.7878942,26.9115336],[75.787886,26.9115199],[75.7878748,26.9115171],[75.7878699,26.9115077],[75.7878722,26.911499],[75.7878979,26.9114866],[75.7879003,26.9114823],[75.7878865,26.9114694],[75.7878777,26.911473],[75.787872,26.9114709],[75.7878711,26.9114593],[75.7878912,26.911444],[75.7879055,26.9114209],[75.787928,26.9114077],[75.7879327,26.9113961],[75.7879648,26.9113714],[75.7879785,26.9113742],[75.7879883,26.911398],[75.7880046,26.9114152],[75.7880055,26.9114282],[75.78802,26.911439],[75.7880331,26.9114584],[75.7880218,26.9114635],[75.7880138,26.9114723],[75.7879961,26.911476],[75.7879888,26.9114709],[75.7879736,26.9114768],[75.7879712,26.9114826],[75.7879746,26.911505],[75.7879481,26.9115188],[75.7879393,26.911529],[75.7879288,26.911532],[75.7879305,26.9115442],[75.7879541,26.9115708],[75.7879621,26.9115715],[75.7879822,26.9115591],[75.7880079,26.9115553],[75.7880135,26.9115459],[75.788011,26.9115308],[75.7880511,26.911506],[75.7880454,26.9114901],[75.7880333,26.9114902],[75.78803,26.9114844],[75.788038,26.9114808],[75.7880524,26.9114619],[75.7880597,26.9114619],[75.7880864,26.9114827],[75.7880905,26.911487],[75.7880873,26.9115015],[75.788097,26.9115079],[75.7881027,26.9115057],[75.7881082,26.9114963],[75.7881443,26.9114715],[75.7881467,26.9114628],[75.7881361,26.9114513],[75.7881408,26.9114347],[75.7881319,26.9114283],[75.788131,26.9114145],[75.788114,26.9114009],[75.788111,26.9114219],[75.7880781,26.9114531],[75.7880757,26.9114495],[75.7880851,26.9114126],[75.7880715,26.9114272],[75.7880248,26.9114274],[75.7880663,26.9113745],[75.7880396,26.9113558],[75.7878519,26.9113569],[75.7878511,26.9113655],[75.7878957,26.9113964],[75.7878982,26.911413],[75.7878645,26.9114283],[75.7878373,26.9114617],[75.7878293,26.9114632],[75.7877928,26.911433],[75.7877736,26.9114483],[75.7877688,26.911465],[75.7877624,26.9114672],[75.7877503,26.9114607],[75.7877397,26.9114471],[75.7877525,26.9114383],[75.7877533,26.9114318],[75.7877225,26.9114045],[75.7877087,26.9113858],[75.7877045,26.9113584],[75.7876473,26.911358],[75.7876473,26.9113688],[75.7876635,26.9113767],[75.7876814,26.9114019],[75.7877044,26.9114588],[75.7877052,26.9114711],[75.7876393,26.9114946],[75.7876256,26.911491],[75.7875657,26.9114502],[75.7875365,26.9114186],[75.7874887,26.9113813],[75.7874813,26.9113589],[75.7873435,26.9113597],[75.7873371,26.9113662],[75.7873324,26.9113829],[75.7873381,26.9113951],[75.7873494,26.9113972],[75.7873826,26.9114165],[75.7873811,26.9114252],[75.7873658,26.911439],[75.7873515,26.9114651],[75.7873443,26.9114709],[75.7873452,26.9114796],[75.7873637,26.9114809],[75.7873807,26.9114866],[75.7873919,26.9114858],[75.7873992,26.9114894],[75.7874041,26.9115002],[75.7874146,26.9114987],[75.7874217,26.9114792],[75.7874047,26.911472],[75.7873965,26.9114519],[75.7874069,26.9114366],[75.7874206,26.9114293],[75.7874229,26.9114243],[75.7874002,26.9114027],[75.7874234,26.9113795],[75.7874395,26.9113772],[75.7874558,26.9113945],[75.7874583,26.9114132],[75.7874696,26.9114168],[75.7874793,26.9114254],[75.7874914,26.9114253],[75.7875157,26.9114425],[75.7875407,26.9114496],[75.7875627,26.9114748],[75.787595,26.9114869],[75.7876161,26.911507],[75.7876468,26.9115184],[75.7876549,26.9115263],[75.7876742,26.911529],[75.7876673,26.9115724],[75.7876577,26.9115905],[75.7876523,26.9116151],[75.7876386,26.9116152],[75.7875998,26.9116046],[75.7875942,26.9116075],[75.7875855,26.9116292],[75.7875896,26.9116357],[75.7876178,26.911637],[75.7876299,26.9116434],[75.7876374,26.9116723],[75.7876575,26.9116772],[75.7876704,26.9116699],[75.7876752,26.9116749],[75.787677,26.911693],[75.7876699,26.911714],[75.7876715,26.9117233],[75.7876901,26.911729],[75.7877029,26.9117203],[75.7877036,26.9116957],[75.7877115,26.9116798],[75.7877091,26.911674],[75.7877026,26.9116719],[75.7877058,26.9116639],[75.7877033,26.9116582],[75.7876767,26.9116576],[75.787675,26.9116367],[75.7876813,26.9116171],[75.7876998,26.9116098],[75.7877119,26.9116162],[75.7877224,26.9116169],[75.7877305,26.9116233],[75.7877385,26.9116175],[75.787736,26.9116118],[75.7877215,26.9116053],[75.7877229,26.9115728],[75.7876882,26.9115622],[75.7876983,26.9115188],[75.7876999,26.9115159],[75.7877144,26.9115165],[75.7877209,26.9115244],[75.787733,26.9115265],[75.7877726,26.9115451],[75.7877851,26.911488],[75.7878093,26.9114878],[75.7878173,26.9114842],[75.787819,26.91149],[75.7878409,26.9115086],[75.7878256,26.9115224],[75.7878538,26.9115237],[75.7878452,26.9115526],[75.7878156,26.9115817],[75.7878463,26.9115909],[75.787852,26.9116039],[75.7878697,26.9116074],[75.787886,26.911629],[75.7878895,26.9116622],[75.7878822,26.911668],[75.7878816,26.9116846],[75.7878688,26.9117064],[75.7878491,26.91177],[75.7878386,26.9117694],[75.7878322,26.9117752],[75.7878347,26.9117802],[75.7878516,26.9117859],[75.7878517,26.9117989],[75.787835,26.9118315],[75.7878151,26.9118619],[75.7877885,26.9118635],[75.787787,26.9118758],[75.7877583,26.9119143],[75.7877415,26.9119338],[75.7877294,26.9119382],[75.7876858,26.9119132],[75.7876849,26.9119053],[75.7876945,26.9118893],[75.7876766,26.9118699],[75.7876863,26.9118692],[75.7877049,26.9118842],[75.7877209,26.9118762],[75.7877345,26.9118523],[75.7877343,26.9118284],[75.7877181,26.9118184],[75.7876988,26.9118142],[75.7876632,26.9117971],[75.7876591,26.9117834],[75.7876671,26.9117754],[75.7876686,26.9117624],[75.7876653,26.9117566],[75.7876541,26.9117574],[75.7876469,26.911774],[75.7876486,26.9117791],[75.7876454,26.9117798],[75.787613,26.9117663],[75.78762,26.9117258],[75.7876433,26.9117235],[75.7876433,26.9117141],[75.7876191,26.911707],[75.7875869,26.9117086],[75.787578,26.9117051],[75.7875715,26.9117066],[75.7875684,26.9117131],[75.7875595,26.9117182],[75.7875216,26.9117105],[75.7875326,26.9116764],[75.7875422,26.9116612],[75.7875381,26.9116562],[75.7875301,26.911657],[75.7875214,26.9116751],[75.7874963,26.9116701],[75.7874978,26.9116528],[75.7874825,26.9116471],[75.7874856,26.9116247],[75.7874927,26.9116131],[75.7874903,26.9116073],[75.7874588,26.9115981],[75.7874387,26.911604],[75.787434,26.9116178],[75.7874341,26.9116373],[75.7874261,26.9116503],[75.787431,26.9116561],[75.7874633,26.9116667],[75.7874578,26.9116884],[75.7874603,26.9116942],[75.7875079,26.9117062],[75.7875088,26.911725],[75.7875387,26.9117392],[75.7875404,26.9117522],[75.7875309,26.9117783],[75.7875173,26.9117834],[75.7875092,26.9117827],[75.7874931,26.9117771],[75.7875009,26.9117517],[75.7874993,26.9117467],[75.7874638,26.9117353],[75.7874597,26.9117289],[75.7874508,26.9117303],[75.7874422,26.9117672],[75.787431,26.9117716],[75.7874302,26.9117789],[75.7874407,26.9117846],[75.7874746,26.9117837],[75.7874802,26.9117858],[75.7874803,26.911793],[75.7874724,26.9118248],[75.7874636,26.9118256],[75.7874434,26.9118192],[75.7874312,26.9118085],[75.7874192,26.9118129],[75.7874201,26.9118215],[75.7874411,26.9118308],[75.7874411,26.9118424],[75.7874372,26.9118489],[75.7874405,26.9118597],[75.7874309,26.91188],[75.7874181,26.9118822],[75.787389,26.9118686],[75.7873833,26.9118701],[75.7873721,26.9118825],[75.7873375,26.9118805],[75.7873302,26.9118769],[75.787322,26.9118604],[75.7873259,26.9118379],[75.7873702,26.9118348],[75.7873767,26.9118377],[75.7873831,26.9118311],[75.7873806,26.9118268],[75.7873426,26.911809],[75.7873522,26.9117908],[75.7873497,26.9117865],[75.7873376,26.9117837],[75.7873376,26.9117794],[75.7873543,26.911754],[75.7873543,26.9117439],[75.7873341,26.9117368],[75.7873308,26.9117231],[75.7873049,26.911716],[75.7872969,26.9117182],[75.7872978,26.9117319],[75.7873228,26.9117405],[75.787323,26.9117636],[75.7873144,26.9118026],[75.7872977,26.9118374],[75.7872981,26.9119009],[75.7873224,26.9119116],[75.7873595,26.9119179],[75.7873653,26.9119403],[75.7873766,26.9119417],[75.7873944,26.9119502],[75.7874,26.9119488],[75.7874024,26.9119437],[75.7873983,26.9119336],[75.787407,26.9119148],[75.7874239,26.9119096],[75.7874319,26.9118973],[75.7874512,26.9118972],[75.7874592,26.9118834],[75.7874688,26.9118776],[75.7874873,26.9118768],[75.787493,26.9118897],[75.7875019,26.9118911],[75.7875149,26.9119069],[75.7875302,26.9118982],[75.7875463,26.9118981],[75.787563,26.9118677],[75.7875958,26.9118357],[75.7876047,26.9118357],[75.7876249,26.9118529],[75.7876427,26.9118607],[75.787663,26.911878],[75.7876638,26.9118844],[75.787651,26.911904],[75.7876173,26.9119237],[75.7876021,26.9119288],[75.7876013,26.9119375],[75.7876232,26.9119562],[75.78764,26.9119416],[75.7876408,26.9119359],[75.7876488,26.9119329],[75.7876512,26.9119264],[75.7876753,26.9119227],[75.7877085,26.9119405],[75.7877207,26.9119571],[75.78772,26.9119665],[75.7876968,26.9119962],[75.7876873,26.9120158],[75.7876745,26.9120281],[75.7876594,26.9120556],[75.7876457,26.9120637],[75.7876394,26.9120846],[75.787621,26.9121035],[75.7876041,26.9121043],[75.7875928,26.9120957],[75.7875871,26.9120857],[75.7875636,26.9120685],[75.7875651,26.9120612],[75.7875844,26.9120452],[75.7875931,26.9120307],[75.787585,26.9120207],[75.7875721,26.9120142],[75.7875624,26.9120165],[75.7875592,26.912023],[75.7875488,26.9120295],[75.7875352,26.9120506],[75.7874966,26.9120551],[75.7874788,26.9120494],[75.7874604,26.9120683],[75.7874228,26.912096],[75.7874171,26.9120946],[75.7874106,26.912083],[75.7874001,26.9120759],[75.7873944,26.9120781],[75.7873905,26.9120889],[75.7873776,26.9120876],[75.7873663,26.9120912],[75.7873243,26.9120734],[75.7873202,26.9120539],[75.7873598,26.9119591],[75.7873557,26.9119541],[75.7873412,26.911952],[75.7873363,26.9119419],[75.7873137,26.9119413],[75.787304,26.9119377],[75.7872984,26.9119399],[75.7872997,26.9121212],[75.7873077,26.9121226],[75.7873222,26.9121117],[75.7873479,26.9121058],[75.787365,26.9121259],[75.787386,26.9121373],[75.7873861,26.9121467],[75.7873564,26.9121729],[75.7873655,26.9121988],[75.787319,26.9122294],[75.7873368,26.9122409],[75.7873522,26.9122581],[75.7873556,26.9122798],[75.7873225,26.9122764],[75.7873007,26.91227],[75.7873012,26.9123473],[75.7873077,26.9123494],[75.7873141,26.9123465],[75.7873525,26.9123073],[75.7873598,26.9123051],[75.7873717,26.9122862],[75.7873869,26.9122746],[75.787403,26.9122687],[75.7874038,26.9122622],[75.7873851,26.9122406],[75.7873834,26.9122327],[75.7874235,26.9122007],[75.7874412,26.9121984],[75.7874575,26.9122193],[75.7874631,26.9122214],[75.7874695,26.9122156],[75.7874734,26.9121917],[75.7874838,26.9121888],[75.7875249,26.9121886],[75.7875314,26.9121936],[75.7875299,26.9122124],[75.7875356,26.9122196],[75.7875357,26.9122318],[75.7875309,26.9122348],[75.7875286,26.9122471],[75.7875133,26.9122623],[75.7875069,26.9122631],[75.7874972,26.9122552],[75.7874811,26.9122538],[75.7874746,26.9122459],[75.7874729,26.9122365],[75.7874672,26.9122344],[75.7874159,26.9122737],[75.7874144,26.912278],[75.7874209,26.9122917],[75.7874419,26.9123046],[75.7874573,26.912306],[75.787467,26.9123146],[75.787467,26.9123218],[75.7874551,26.9123385],[75.7874406,26.9123407],[75.787419,26.9123654],[75.7874077,26.9123698],[75.7874054,26.9123799],[75.7873385,26.912381],[75.7873304,26.9123702],[75.7873215,26.9123681],[75.7873061,26.9123552],[75.7873013,26.9123574],[75.7873024,26.9123985],[75.7874805,26.9123975]],[[75.7875288,26.9121647],[75.7875142,26.912159],[75.7875062,26.9121605],[75.7874892,26.912149],[75.7874883,26.9121397],[75.787481,26.9121339],[75.787481,26.9121281],[75.787489,26.9121165],[75.7875075,26.9121143],[75.7875366,26.9121235],[75.7875512,26.9121465],[75.7875666,26.9121551],[75.7875666,26.9121602],[75.7875546,26.9121725],[75.7875442,26.9121762],[75.7875288,26.9121647]],[[75.7874361,26.9121587],[75.7874273,26.9121646],[75.7873998,26.9121474],[75.7874367,26.9121313],[75.7874578,26.9121471],[75.7874522,26.9121623],[75.7874458,26.9121681],[75.7874361,26.9121587]],[[75.7875639,26.9121219],[75.787568,26.9121212],[75.7875688,26.912132],[75.7875648,26.9121327],[75.7875639,26.9121219]],[[75.7874735,26.9120921],[75.7874744,26.9121007],[75.7874639,26.9120957],[75.7874735,26.9120921]],[[75.787554,26.9120873],[75.7875766,26.9120915],[75.7875637,26.9120937],[75.7875597,26.9120981],[75.7875517,26.9120981],[75.787554,26.9120873]],[[75.7875275,26.9118686],[75.7875324,26.9118664],[75.787538,26.9118714],[75.7875372,26.9118729],[75.7875292,26.9118729],[75.7875275,26.9118686]],[[75.7875055,26.9118254],[75.7875135,26.9118246],[75.7875263,26.911813],[75.787535,26.911779],[75.7876035,26.9117815],[75.7875834,26.9117953],[75.7875787,26.911804],[75.7875781,26.9118358],[75.7875297,26.9118274],[75.7875201,26.911839],[75.7875055,26.9118254]],[[75.7882119,26.9117983],[75.7882223,26.9117882],[75.7882246,26.9117802],[75.7882383,26.9117801],[75.7882479,26.91177],[75.7882471,26.911762],[75.7882357,26.911757],[75.7882373,26.9117498],[75.7882502,26.9117526],[75.7882923,26.9117849],[75.7882892,26.9117979],[75.7882572,26.9118335],[75.7882508,26.9118349],[75.7882119,26.9117983]],[[75.7875741,26.9117275],[75.7875749,26.9117246],[75.7875781,26.9117253],[75.7875765,26.9117311],[75.7875741,26.9117275]]]}}]}