{"type":"FeatureCollection","features":[{"type":"Feature","properties":{"kind":"vegetation"},"geometry":{"type":"Polygon","coordinates":[[[75.787476,26.9115287],[75.7874856,26.9115099],[75.7874968,26.9115069],[75.7874952,26.9114983],[75.7875039,26.911478],[75.787499,26.9114744],[75.787499,26.9114672],[75.787495,26.9114694],[75.7874909,26.9114658],[75.7874917,26.9114622],[75.7874852,26.9114636],[75.7874646,26.9115013],[75.7874638,26.9115064],[75.7874727,26.9115143],[75.7874704,26.9115302],[75.787476,26.9115287]]]}}]}