{"type":"FeatureCollection","features":[{"type":"Feature","properties":{"building_id":"B-0068","vertices":78},"geometry":{"type":"Polygon","coordinates":[[[77.1005572,22.7994978],[77.1005571,22.799496],[77.1005591,22.799496],[77.1005591,22.7994942],[77.1005629,22.7994942],[77.1005614,22.7993949],[77.1003667,22.7993974],[77.1003667,22.7993992],[77.1003648,22.7993993],[77.1003648,22.7994011],[77.1003609,22.7994011],[77.1003609,22.7994029],[77.100359,22.7994029],[77.100359,22.7994066],[77.1003571,22.7994066],[77.1003571,22.7994084],[77.1003552,22.7994084],[77.1003551,22.7994066],[77.1003532,22.7994066],[77.1003532,22.7994048],[77.1003512,22.7994048],[77.1003513,22.7994085],[77.1003532,22.7994084],[77.1003533,22.799412],[77.1003513,22.7994121],[77.1003514,22.7994139],[77.1003494,22.7994139],[77.1003494,22.7994157],[77.1003339,22.7994159],[77.1003339,22.7994195],[77.1003144,22.7994198],[77.1003145,22.7994216],[77.1003086,22.7994217],[77.1003087,22.7994235],[77.1003067,22.7994235],[77.1003067,22.7994253],[77.1003048,22.7994253],[77.1003048,22.7994271],[77.1003029,22.7994272],[77.1003029,22.799429],[77.1002971,22.799429],[77.1002971,22.7994327],[77.1002952,22.7994327],[77.1002953,22.7994435],[77.1002934,22.7994435],[77.1002935,22.799449],[77.1002954,22.7994489],[77.1002955,22.7994543],[77.1002974,22.7994543],[77.1002975,22.7994597],[77.1002956,22.7994598],[77.1002957,22.7994688],[77.1002977,22.7994688],[77.1002979,22.7994868],[77.1003038,22.7994867],[77.1003038,22.7994885],[77.1003077,22.7994885],[77.1003077,22.7994903],[77.1003097,22.7994903],[77.1003097,22.7994921],[77.1003117,22.7994921],[77.1003117,22.7994939],[77.1003136,22.7994938],[77.1003137,22.7994956],[77.1003253,22.7994955],[77.1003254,22.7994973],[77.1003526,22.7994969],[77.1003526,22.7994951],[77.1003779,22.7994948],[77.1003779,22.7994966],[77.1004052,22.7994962],[77.1004052,22.7994944],[77.1005123,22.799493],[77.1005123,22.7994948],[77.1005298,22.7994946],[77.1005299,22.7994964],[77.1005396,22.7994963],[77.1005396,22.7994981],[77.1005572,22.7994978]]]}},{"type":"Feature","properties":{"building_id":"B-0056","vertices":188},"geometry":{"type":"Polygon","coordinates":[[[77.1010525,22.7996647],[77.1010525,22.7996629],[77.1010583,22.7996628],[77.1010583,22.799661],[77.101068,22.7996609],[77.101068,22.7996591],[77.1010719,22.799659],[77.1010718,22.7996554],[77.1010738,22.7996554],[77.1010737,22.7996518],[77.1010776,22.7996517],[77.1010776,22.7996481],[77.1010756,22.7996481],[77.1010756,22.7996445],[77.1010775,22.7996445],[77.1010775,22.7996427],[77.1010794,22.7996427],[77.1010794,22.7996409],[77.1010775,22.7996409],[77.1010774,22.7996373],[77.1010794,22.7996372],[77.1010793,22.7996354],[77.1010813,22.7996354],[77.1010812,22.7996282],[77.1010831,22.7996282],[77.1010831,22.7996264],[77.101085,22.7996263],[77.1010849,22.7996191],[77.1010869,22.7996191],[77.1010868,22.7996119],[77.1010907,22.7996118],[77.1010906,22.79961],[77.1010926,22.79961],[77.1010925,22.7996082],[77.1010945,22.7996081],[77.1010944,22.7996045],[77.1010964,22.7996045],[77.1010963,22.7995991],[77.1010982,22.7995991],[77.1010981,22.79959],[77.1011001,22.79959],[77.1010999,22.7995792],[77.1010979,22.7995792],[77.1010979,22.7995756],[77.1010959,22.7995756],[77.1010957,22.799563],[77.1010977,22.799563],[77.1010975,22.7995503],[77.1010994,22.7995503],[77.1010994,22.7995449],[77.1011013,22.7995449],[77.1011012,22.7995376],[77.1011031,22.7995376],[77.101103,22.7995286],[77.101105,22.7995286],[77.1011048,22.7995195],[77.1011068,22.7995195],[77.1011067,22.7995177],[77.1011087,22.7995177],[77.1011087,22.7995159],[77.1011106,22.7995158],[77.1011105,22.7995104],[77.1011125,22.7995104],[77.1011124,22.7995068],[77.1011144,22.7995068],[77.1011143,22.7995013],[77.1011162,22.7995013],[77.1011161,22.7994941],[77.1011181,22.7994941],[77.1011177,22.7994688],[77.1011157,22.7994688],[77.1011157,22.7994652],[77.1011137,22.7994652],[77.1011137,22.7994616],[77.1011117,22.7994616],[77.1011117,22.7994598],[77.1011097,22.7994599],[77.1011097,22.7994581],[77.1011078,22.7994581],[77.1011077,22.7994563],[77.1009909,22.7994578],[77.1009909,22.7994596],[77.100989,22.7994597],[77.100989,22.7994633],[77.1009871,22.7994633],[77.1009872,22.7994705],[77.1009853,22.7994705],[77.1009855,22.799485],[77.1009835,22.799485],[77.1009838,22.7995031],[77.1009819,22.7995031],[77.1009819,22.7995049],[77.1009838,22.7995049],[77.1009839,22.7995067],[77.1009819,22.7995067],[77.1009821,22.7995193],[77.1009841,22.7995193],[77.1009841,22.7995229],[77.1009822,22.7995229],[77.1009824,22.7995374],[77.1009843,22.7995374],[77.1009844,22.7995428],[77.1009825,22.7995428],[77.1009827,22.7995591],[77.1009808,22.7995591],[77.1009808,22.7995609],[77.1009788,22.7995609],[77.1009789,22.7995627],[77.1009769,22.7995627],[77.100977,22.7995646],[77.100975,22.7995646],[77.100975,22.7995664],[77.1009731,22.7995664],[77.1009731,22.7995682],[77.1009712,22.7995682],[77.1009712,22.79957],[77.1009693,22.7995701],[77.1009693,22.7995719],[77.1009673,22.7995719],[77.1009674,22.7995737],[77.1009654,22.7995737],[77.1009656,22.7995864],[77.1009637,22.7995864],[77.1009638,22.7995954],[77.1009657,22.7995954],[77.1009658,22.799599],[77.1009677,22.799599],[77.1009678,22.7996026],[77.1009697,22.7996026],[77.1009698,22.7996044],[77.1009717,22.7996043],[77.1009718,22.7996062],[77.1009815,22.799606],[77.1009815,22.7996078],[77.1009971,22.7996076],[77.1009971,22.7996094],[77.101001,22.7996094],[77.101001,22.7996112],[77.101003,22.7996112],[77.101003,22.7996148],[77.101005,22.7996147],[77.101005,22.7996166],[77.1010089,22.7996165],[77.1010089,22.7996183],[77.1010187,22.7996182],[77.1010187,22.79962],[77.1010246,22.7996199],[77.1010246,22.7996217],[77.1010304,22.7996216],[77.1010305,22.7996234],[77.1010343,22.7996234],[77.1010344,22.7996252],[77.10105,22.799625],[77.10105,22.7996268],[77.1010519,22.7996268],[77.1010521,22.7996358],[77.101054,22.7996358],[77.1010541,22.7996412],[77.1010521,22.7996412],[77.1010522,22.799643],[77.1010483,22.7996431],[77.1010483,22.7996413],[77.1010463,22.7996413],[77.1010463,22.7996431],[77.1010405,22.7996432],[77.1010405,22.799645],[77.1010366,22.799645],[77.1010367,22.7996468],[77.1010347,22.7996469],[77.1010347,22.7996487],[77.1010308,22.7996487],[77.1010308,22.7996469],[77.1010289,22.7996469],[77.1010289,22.7996487],[77.1010269,22.7996488],[77.101027,22.7996542],[77.1010348,22.7996541],[77.1010348,22.7996559],[77.1010329,22.7996559],[77.1010329,22.7996577],[77.101031,22.7996577],[77.101031,22.7996595],[77.1010291,22.7996596],[77.1010291,22.7996614],[77.1010349,22.7996613],[77.101035,22.7996631],[77.1010369,22.7996631],[77.1010369,22.7996649],[77.1010525,22.7996647]]]}},{"type":"Feature","properties":{"building_id":"B-0017","vertices":104},"geometry":{"type":"Polygon","coordinates":[[[77.1008437,22.799895],[77.1008437,22.7998914],[77.1008456,22.7998913],[77.1008455,22.7998859],[77.1008436,22.7998859],[77.1008435,22.7998787],[77.1008415,22.7998788],[77.1008414,22.7998715],[77.1008395,22.7998716],[77.1008393,22.7998607],[77.1008374,22.7998607],[77.1008373,22.7998589],[77.1008354,22.799859],[77.1008354,22.7998572],[77.1008412,22.7998571],[77.1008412,22.7998553],[77.100849,22.7998552],[77.1008489,22.7998534],[77.1008509,22.7998533],[77.1008509,22.7998515],[77.1008528,22.7998515],[77.1008527,22.7998479],[77.1008547,22.7998479],[77.1008546,22.7998443],[77.1008566,22.7998442],[77.1008563,22.799828],[77.1008544,22.799828],[77.1008544,22.7998262],[77.1008368,22.7998264],[77.1008368,22.7998246],[77.1008173,22.7998249],[77.1008173,22.7998231],[77.1008017,22.7998233],[77.1008017,22.7998215],[77.1007959,22.7998216],[77.1007958,22.7998198],[77.1007939,22.7998198],[77.1007939,22.799818],[77.1007919,22.799818],[77.1007919,22.7998162],[77.1007899,22.7998162],[77.1007899,22.7998126],[77.1007879,22.7998126],[77.1007878,22.7998036],[77.1007858,22.7998036],[77.1007858,22.7998018],[77.1007761,22.799802],[77.1007761,22.7998002],[77.1007624,22.7998003],[77.1007624,22.7997985],[77.1007507,22.7997987],[77.1007507,22.7997969],[77.1007448,22.799797],[77.1007448,22.7997952],[77.1007429,22.7997952],[77.1007428,22.7997934],[77.1007078,22.7997938],[77.1007078,22.7997956],[77.1007,22.7997957],[77.1007,22.7997975],[77.1006981,22.7997976],[77.1006984,22.7998192],[77.1006965,22.7998193],[77.1006967,22.7998301],[77.1006947,22.7998301],[77.1006948,22.7998355],[77.1006928,22.7998356],[77.1006929,22.7998392],[77.1006909,22.7998392],[77.100691,22.7998446],[77.1006891,22.7998446],[77.1006894,22.7998627],[77.1006913,22.7998627],[77.1006914,22.7998681],[77.1006933,22.7998681],[77.1006934,22.7998699],[77.1006953,22.7998698],[77.1006954,22.7998735],[77.1006993,22.7998734],[77.1006993,22.7998752],[77.1007051,22.7998751],[77.1007052,22.7998769],[77.1007091,22.7998769],[77.1007091,22.7998787],[77.1007227,22.7998785],[77.1007227,22.7998803],[77.1007325,22.7998802],[77.1007325,22.799882],[77.1007345,22.799882],[77.1007345,22.7998838],[77.1007403,22.7998837],[77.1007404,22.7998855],[77.1007501,22.7998854],[77.1007501,22.7998872],[77.1007618,22.799887],[77.1007618,22.7998888],[77.1007852,22.7998885],[77.1007852,22.7998903],[77.1008164,22.7998899],[77.1008164,22.7998917],[77.1008242,22.7998916],[77.1008242,22.7998934],[77.100834,22.7998933],[77.100834,22.7998951],[77.1008437,22.799895]]]}},{"type":"Feature","properties":{"building_id":"B-0047","vertices":74},"geometry":{"type":"Polygon","coordinates":[[[77.1000308,22.7997251],[77.1000308,22.7997233],[77.1000406,22.7997232],[77.1000405,22.7997214],[77.1000425,22.7997213],[77.1000424,22.7997195],[77.1000463,22.7997195],[77.1000463,22.7997177],[77.1000483,22.7997176],[77.1000482,22.7997158],[77.1000502,22.7997158],[77.1000502,22.799714],[77.100054,22.799714],[77.100054,22.7997122],[77.100056,22.7997121],[77.1000559,22.7997103],[77.1000579,22.7997103],[77.1000579,22.7997085],[77.1000618,22.7997084],[77.1000617,22.7997066],[77.1000676,22.7997066],[77.1000675,22.7997048],[77.1000734,22.7997047],[77.1000734,22.7997029],[77.1000753,22.7997028],[77.1000753,22.799701],[77.1000772,22.799701],[77.1000772,22.7996992],[77.1000791,22.7996992],[77.1000791,22.7996974],[77.1000811,22.7996974],[77.100081,22.7996955],[77.100083,22.7996955],[77.1000826,22.799672],[77.1000807,22.7996721],[77.1000806,22.7996685],[77.1000787,22.7996685],[77.1000786,22.7996649],[77.1000767,22.7996649],[77.1000766,22.7996631],[77.1000747,22.7996631],[77.1000746,22.7996595],[77.1000727,22.7996595],[77.1000726,22.7996523],[77.1000706,22.7996523],[77.1000704,22.7996397],[77.1000685,22.7996397],[77.1000684,22.7996325],[77.1000703,22.7996325],[77.10007,22.7996108],[77.1000719,22.7996108],[77.1000719,22.799609],[77.10007,22.799609],[77.1000699,22.7996054],[77.1000719,22.7996054],[77.1000718,22.7995981],[77.1000698,22.7995982],[77.1000697,22.7995946],[77.1000717,22.7995945],[77.1000717,22.7995927],[77.1000697,22.7995928],[77.1000696,22.7995819],[77.1000676,22.799582],[77.1000676,22.7995783],[77.1000656,22.7995784],[77.1000656,22.7995766],[77.1000617,22.7995766],[77.1000617,22.7995748],[77.100013,22.7995754],[77.100013,22.7995773],[77.0999935,22.7995775],[77.0999958,22.7997238],[77.1000191,22.7997234],[77.1000192,22.7997253],[77.1000308,22.7997251]]]}},{"type":"Feature","properties":{"building_id":"B-0064","vertices":72},"geometry":{"type":"Polygon","coordinates":[[[77.1008116,22.7995776],[77.1008116,22.7995758],[77.1008194,22.7995757],[77.1008194,22.7995775],[77.1008252,22.7995774],[77.1008252,22.7995756],[77.100831,22.7995755],[77.100831,22.7995737],[77.100833,22.7995737],[77.1008329,22.7995719],[77.1008388,22.7995718],[77.1008387,22.7995682],[77.1008309,22.7995683],[77.1008309,22.7995665],[77.100829,22.7995665],[77.1008289,22.7995629],[77.1008386,22.7995628],[77.1008386,22.799561],[77.1008367,22.799561],[77.1008366,22.7995574],[77.1008405,22.7995573],[77.1008405,22.7995555],[77.1008424,22.7995555],[77.1008424,22.7995537],[77.100856,22.7995535],[77.1008561,22.7995553],[77.100858,22.7995553],[77.100858,22.7995535],[77.1008619,22.7995534],[77.1008618,22.7995498],[77.1008638,22.7995498],[77.1008635,22.7995353],[77.1008655,22.7995353],[77.1008654,22.7995281],[77.1008673,22.7995281],[77.1008671,22.7995118],[77.1008651,22.7995118],[77.100865,22.7995064],[77.100867,22.7995064],[77.100866,22.7994396],[77.1008621,22.7994397],[77.100862,22.7994378],[77.1008484,22.799438],[77.1008484,22.7994362],[77.1008328,22.7994364],[77.1008328,22.7994346],[77.1007938,22.7994351],[77.1007939,22.7994387],[77.1007919,22.7994388],[77.1007921,22.7994496],[77.1007902,22.7994496],[77.1007908,22.7994894],[77.1007927,22.7994893],[77.1007927,22.7994911],[77.1007966,22.7994911],[77.1007967,22.7994965],[77.1007948,22.7994965],[77.1007952,22.7995236],[77.1007932,22.7995236],[77.1007934,22.7995345],[77.1007915,22.7995345],[77.1007918,22.7995544],[77.1007898,22.7995544],[77.1007899,22.7995598],[77.1007879,22.7995598],[77.1007881,22.7995688],[77.1007861,22.7995689],[77.1007862,22.7995743],[77.1007843,22.7995743],[77.1007843,22.7995761],[77.1007863,22.7995761],[77.1007863,22.7995779],[77.1008116,22.7995776]]]}},{"type":"Feature","properties":{"building_id":"B-0053","vertices":58},"geometry":{"type":"Polygon","coordinates":[[[77.1009178,22.799643],[77.1009178,22.7996412],[77.1009255,22.7996411],[77.1009255,22.7996393],[77.1009489,22.799639],[77.1009489,22.7996372],[77.1009508,22.7996371],[77.1009508,22.7996353],[77.1009527,22.7996353],[77.1009526,22.7996245],[77.1009545,22.7996244],[77.100954,22.7995937],[77.1009521,22.7995938],[77.1009519,22.7995829],[77.1009539,22.7995829],[77.1009537,22.7995703],[77.1009517,22.7995703],[77.1009517,22.7995667],[77.1009536,22.7995667],[77.1009536,22.7995631],[77.1009516,22.7995631],[77.1009516,22.7995595],[77.1009496,22.7995595],[77.1009496,22.7995559],[77.1008892,22.7995567],[77.1008892,22.7995585],[77.1008639,22.7995588],[77.1008639,22.7995606],[77.100862,22.7995606],[77.1008621,22.7995697],[77.1008602,22.7995697],[77.1008602,22.7995715],[77.1008582,22.7995715],[77.1008583,22.7995751],[77.1008564,22.7995752],[77.1008564,22.799577],[77.1008544,22.799577],[77.1008545,22.7995806],[77.1008525,22.7995806],[77.1008526,22.7995861],[77.1008507,22.7995861],[77.1008508,22.7995951],[77.1008489,22.7995951],[77.1008492,22.7996186],[77.1008473,22.7996186],[77.1008473,22.7996204],[77.1008493,22.7996204],[77.1008493,22.7996258],[77.1008474,22.7996259],[77.1008476,22.7996367],[77.1008495,22.7996367],[77.1008495,22.7996385],[77.1008554,22.7996384],[77.1008554,22.7996402],[77.1008788,22.7996399],[77.1008788,22.7996417],[77.1009158,22.7996412],[77.1009158,22.799643],[77.1009178,22.799643]]]}},{"type":"Feature","properties":{"building_id":"B-0014","vertices":52},"geometry":{"type":"Polygon","coordinates":[[[77.1001283,22.7999803],[77.1001282,22.7999784],[77.1001321,22.7999784],[77.1001321,22.7999766],[77.100134,22.7999766],[77.100134,22.799973],[77.1001359,22.7999729],[77.1001358,22.7999675],[77.1001378,22.7999675],[77.1001378,22.7999657],[77.1001397,22.7999657],[77.1001388,22.7999079],[77.1001369,22.7999079],[77.1001369,22.7999061],[77.1001349,22.7999061],[77.1001349,22.7999043],[77.1001329,22.7999043],[77.1001328,22.7998989],[77.1001309,22.799899],[77.1001308,22.7998935],[77.1001328,22.7998935],[77.1001327,22.7998881],[77.1001346,22.7998881],[77.1001344,22.7998736],[77.1001364,22.7998736],[77.1001357,22.7998339],[77.1001377,22.7998339],[77.1001373,22.7998086],[77.1001354,22.7998086],[77.1001353,22.7998068],[77.1001256,22.7998069],[77.1001256,22.7998051],[77.1001178,22.7998052],[77.1001177,22.7998034],[77.1001119,22.7998035],[77.1001119,22.7998017],[77.1001021,22.7998018],[77.1001022,22.7998036],[77.1001002,22.7998036],[77.1001003,22.7998073],[77.1000983,22.7998073],[77.1000986,22.7998235],[77.1000966,22.7998236],[77.100097,22.7998506],[77.1000951,22.7998507],[77.1000957,22.7998904],[77.1000938,22.7998904],[77.1000951,22.7999771],[77.1001048,22.7999769],[77.1001049,22.7999788],[77.1001126,22.7999787],[77.1001127,22.7999805],[77.1001283,22.7999803]]]}},{"type":"Feature","properties":{"building_id":"B-0028","vertices":110},"geometry":{"type":"Polygon","coordinates":[[[77.1001373,22.799805],[77.1001372,22.7998032],[77.1001392,22.7998031],[77.1001391,22.7998013],[77.100145,22.7998012],[77.100145,22.7997994],[77.1001469,22.7997994],[77.1001469,22.7997958],[77.1001488,22.7997958],[77.1001488,22.799794],[77.1001507,22.7997939],[77.1001507,22.7997921],[77.1001526,22.7997921],[77.1001526,22.7997903],[77.1001546,22.7997903],[77.1001545,22.7997885],[77.1001584,22.7997884],[77.1001584,22.7997866],[77.1001642,22.7997865],[77.1001643,22.7997884],[77.1001682,22.7997883],[77.1001682,22.7997901],[77.1001721,22.7997901],[77.1001721,22.7997919],[77.100178,22.7997918],[77.100178,22.7997936],[77.1001858,22.7997935],[77.1001858,22.7997953],[77.1001897,22.7997952],[77.1001897,22.7997934],[77.1001955,22.7997934],[77.1001955,22.7997952],[77.1001975,22.7997951],[77.1001975,22.7997933],[77.1002052,22.7997932],[77.1002052,22.7997914],[77.1002072,22.7997914],[77.1002071,22.7997896],[77.1002091,22.7997896],[77.1002091,22.7997878],[77.100211,22.7997877],[77.1002109,22.7997823],[77.1002129,22.7997823],[77.1002128,22.7997769],[77.1002147,22.7997769],[77.1002146,22.7997678],[77.1002165,22.7997678],[77.100216,22.7997317],[77.100214,22.7997317],[77.100214,22.7997299],[77.1002121,22.7997299],[77.100212,22.7997281],[77.1002062,22.7997282],[77.1002062,22.7997264],[77.1001925,22.7997266],[77.1001926,22.7997284],[77.1001887,22.7997284],[77.1001886,22.7997266],[77.1001847,22.7997267],[77.1001847,22.7997249],[77.100175,22.799725],[77.100175,22.7997268],[77.1001731,22.7997268],[77.1001731,22.7997286],[77.1001692,22.7997287],[77.1001692,22.7997269],[77.1001653,22.7997269],[77.1001652,22.7997251],[77.1001613,22.7997252],[77.1001614,22.799727],[77.1001555,22.7997271],[77.1001556,22.7997289],[77.1001458,22.799729],[77.1001459,22.7997308],[77.100142,22.7997309],[77.100142,22.7997327],[77.10014,22.7997327],[77.1001401,22.7997363],[77.100142,22.7997363],[77.1001421,22.7997381],[77.1001401,22.7997381],[77.1001402,22.7997399],[77.1001226,22.7997401],[77.1001227,22.7997419],[77.1001207,22.799742],[77.1001207,22.7997438],[77.1001168,22.7997438],[77.1001169,22.7997456],[77.100113,22.7997457],[77.100113,22.7997475],[77.100111,22.7997475],[77.1001111,22.7997493],[77.1001091,22.7997494],[77.1001092,22.799753],[77.1001072,22.799753],[77.1001073,22.7997566],[77.1001053,22.7997566],[77.1001055,22.7997638],[77.1001035,22.7997639],[77.100104,22.7997964],[77.100106,22.7997963],[77.100106,22.7997982],[77.1001079,22.7997981],[77.100108,22.7997999],[77.1001138,22.7997999],[77.1001138,22.7998017],[77.1001177,22.7998016],[77.1001177,22.7998034],[77.1001236,22.7998033],[77.1001236,22.7998051],[77.1001373,22.799805]]]}},{"type":"Feature","properties":{"building_id":"B-0063","vertices":78},"geometry":{"type":"Polygon","coordinates":[[[77.1007608,22.7995692],[77.1007608,22.7995674],[77.1007647,22.7995673],[77.1007647,22.7995655],[77.1007666,22.7995655],[77.1007665,22.7995583],[77.1007684,22.7995583],[77.1007683,22.799551],[77.1007703,22.799551],[77.1007702,22.7995438],[77.1007721,22.7995438],[77.100772,22.7995329],[77.1007739,22.7995329],[77.1007737,22.7995221],[77.1007757,22.7995221],[77.1007755,22.799513],[77.1007775,22.799513],[77.1007774,22.799504],[77.1007793,22.7995039],[77.1007792,22.7994985],[77.1007812,22.7994985],[77.1007811,22.7994967],[77.1007831,22.7994967],[77.1007831,22.7994949],[77.100785,22.7994948],[77.1007849,22.7994876],[77.1007868,22.7994876],[77.1007868,22.7994822],[77.1007887,22.7994822],[77.1007882,22.7994497],[77.1007863,22.7994497],[77.1007862,22.7994443],[77.1007842,22.7994443],[77.1007842,22.7994425],[77.1007647,22.7994427],[77.1007648,22.7994445],[77.1007609,22.7994446],[77.1007609,22.7994464],[77.100755,22.7994465],[77.1007551,22.7994483],[77.1007492,22.7994484],[77.1007493,22.7994502],[77.1007415,22.7994503],[77.1007415,22.7994521],[77.1007376,22.7994521],[77.1007376,22.7994539],[77.1007337,22.799454],[77.1007338,22.7994558],[77.1007318,22.7994558],[77.1007319,22.7994594],[77.1007299,22.7994595],[77.10073,22.7994667],[77.1007281,22.7994667],[77.1007283,22.7994811],[77.1007264,22.7994812],[77.1007266,22.7994938],[77.1007246,22.7994938],[77.1007247,22.7995011],[77.1007228,22.7995011],[77.1007229,22.7995101],[77.100721,22.7995101],[77.1007211,22.7995174],[77.1007191,22.7995174],[77.1007192,22.7995246],[77.1007173,22.7995246],[77.1007174,22.7995337],[77.1007155,22.7995337],[77.1007157,22.7995481],[77.1007138,22.7995482],[77.100714,22.7995626],[77.1007159,22.7995626],[77.100716,22.7995644],[77.1007218,22.7995643],[77.1007218,22.7995661],[77.1007393,22.7995659],[77.1007394,22.7995677],[77.100755,22.7995675],[77.100755,22.7995693],[77.1007608,22.7995692]]]}},{"type":"Feature","properties":{"building_id":"B-0060","vertices":40},"geometry":{"type":"Polygon","coordinates":[[[77.1000245,22.7995627],[77.1000244,22.7995608],[77.1000283,22.7995608],[77.1000283,22.799559],[77.1000302,22.799559],[77.1000302,22.7995572],[77.1000322,22.7995571],[77.1000321,22.7995553],[77.1000341,22.7995553],[77.1000341,22.7995535],[77.100036,22.7995535],[77.1000359,22.7995481],[77.1000379,22.799548],[77.1000378,22.7995426],[77.1000417,22.7995426],[77.1000417,22.7995408],[77.1000514,22.7995406],[77.1000514,22.7995388],[77.100065,22.7995386],[77.100065,22.7995404],[77.1000689,22.7995404],[77.1000689,22.7995386],[77.1000708,22.7995386],[77.1000708,22.799535],[77.1000727,22.7995349],[77.1000726,22.7995259],[77.1000745,22.7995259],[77.1000742,22.7995024],[77.1000761,22.7995024],[77.1000757,22.7994735],[77.0999919,22.7994746],[77.0999932,22.7995558],[77.0999971,22.7995558],[77.0999971,22.7995576],[77.1000069,22.7995575],[77.1000069,22.7995593],[77.1000088,22.7995592],[77.1000089,22.7995611],[77.1000108,22.799561],[77.1000108,22.7995628],[77.1000245,22.7995627]]]}},{"type":"Feature","properties":{"building_id":"B-0070","vertices":18},"geometry":{"type":"Polygon","coordinates":[[[77.1000737,22.7994735],[77.1000737,22.7994717],[77.1000757,22.7994717],[77.1000756,22.7994699],[77.1000776,22.7994699],[77.1000775,22.799468],[77.1000795,22.799468],[77.1000794,22.799459],[77.1000813,22.799459],[77.1000808,22.7994247],[77.1000827,22.7994246],[77.1000824,22.799403],[77.0999909,22.7994042],[77.0999919,22.799471],[77.1000328,22.7994704],[77.1000328,22.7994723],[77.1000484,22.799472],[77.1000484,22.7994739],[77.1000737,22.7994735]]]}},{"type":"Feature","properties":{"building_id":"B-0041","vertices":70},"geometry":{"type":"Polygon","coordinates":[[[77.1003774,22.7997151],[77.1003774,22.7997133],[77.1003813,22.7997133],[77.1003812,22.7997115],[77.1003851,22.7997114],[77.1003851,22.7997096],[77.100389,22.7997095],[77.100389,22.7997077],[77.1003909,22.7997077],[77.1003909,22.7997059],[77.1003928,22.7997059],[77.1003928,22.7997041],[77.1003948,22.7997041],[77.1003947,22.7997022],[77.1003986,22.7997022],[77.1003985,22.799695],[77.1004005,22.7996949],[77.1004003,22.7996841],[77.1004022,22.7996841],[77.1004021,22.7996769],[77.1004002,22.7996769],[77.1004001,22.7996733],[77.1003962,22.7996733],[77.1003962,22.7996715],[77.1003923,22.7996716],[77.1003923,22.7996698],[77.1003826,22.7996699],[77.1003825,22.7996681],[77.1003786,22.7996681],[77.1003786,22.7996663],[77.1003767,22.7996664],[77.1003767,22.7996682],[77.100365,22.7996683],[77.100365,22.7996701],[77.1003631,22.7996702],[77.1003631,22.799672],[77.1003612,22.799672],[77.1003612,22.7996738],[77.1003592,22.7996738],[77.1003589,22.799654],[77.1003609,22.7996539],[77.1003608,22.7996485],[77.1003627,22.7996485],[77.1003627,22.7996467],[77.1003647,22.7996467],[77.1003646,22.799643],[77.1003666,22.799643],[77.1003664,22.799634],[77.1003645,22.799634],[77.1003644,22.7996322],[77.1003586,22.7996323],[77.1003586,22.7996305],[77.1003099,22.7996311],[77.1003109,22.7996943],[77.1003128,22.7996943],[77.1003129,22.7997033],[77.1003149,22.7997033],[77.1003149,22.7997051],[77.1003169,22.7997051],[77.1003169,22.7997069],[77.1003188,22.7997069],[77.1003189,22.7997087],[77.1003208,22.7997086],[77.1003208,22.7997104],[77.1003559,22.79971],[77.1003559,22.7997118],[77.1003637,22.7997117],[77.1003637,22.7997135],[77.1003657,22.7997135],[77.1003657,22.7997153],[77.1003774,22.7997151]]]}},{"type":"Feature","properties":{"building_id":"B-0044","vertices":46},"geometry":{"type":"Polygon","coordinates":[[[77.1005522,22.7996803],[77.1005521,22.7996785],[77.1005638,22.7996783],[77.1005639,22.7996802],[77.1006106,22.7996795],[77.1006106,22.7996777],[77.1006125,22.7996777],[77.1006125,22.7996759],[77.1006144,22.7996759],[77.1006144,22.7996723],[77.1006163,22.7996722],[77.1006162,22.799665],[77.1006182,22.799665],[77.1006178,22.7996433],[77.1005828,22.7996438],[77.1005827,22.799642],[77.1005808,22.799642],[77.1005806,22.7996276],[77.1005825,22.7996275],[77.1005824,22.7996221],[77.1005805,22.7996221],[77.1005804,22.7996185],[77.1005142,22.7996194],[77.1005143,22.7996248],[77.1005124,22.7996248],[77.1005127,22.7996483],[77.1005108,22.7996483],[77.1005108,22.7996502],[77.1005089,22.7996502],[77.1005089,22.799652],[77.1005069,22.799652],[77.1005071,22.799661],[77.1005051,22.7996611],[77.1005052,22.7996629],[77.1005071,22.7996628],[77.1005072,22.7996683],[77.1005091,22.7996682],[77.1005092,22.7996718],[77.1005111,22.7996718],[77.1005112,22.7996736],[77.1005131,22.7996736],[77.1005132,22.7996772],[77.1005151,22.7996772],[77.1005151,22.799679],[77.1005171,22.799679],[77.1005171,22.7996808],[77.1005522,22.7996803]]]}},{"type":"Feature","properties":{"building_id":"B-0027","vertices":28},"geometry":{"type":"Polygon","coordinates":[[[77.1000071,22.7998247],[77.100007,22.7998229],[77.1000109,22.7998229],[77.1000109,22.7998247],[77.1000148,22.7998246],[77.1000148,22.7998228],[77.1000226,22.7998227],[77.1000226,22.7998209],[77.1000245,22.7998209],[77.1000245,22.7998191],[77.1000284,22.799819],[77.1000284,22.7998172],[77.1000323,22.7998172],[77.1000322,22.7998154],[77.1000361,22.7998153],[77.1000361,22.7998135],[77.1000458,22.7998134],[77.1000458,22.7998116],[77.1000536,22.7998115],[77.1000535,22.7998079],[77.1000555,22.7998078],[77.1000545,22.7997447],[77.1000526,22.7997447],[77.1000523,22.7997284],[77.1000504,22.7997285],[77.1000503,22.7997248],[77.0999958,22.7997256],[77.0999973,22.7998249],[77.1000071,22.7998247]]]}},{"type":"Feature","properties":{"building_id":"B-0054","vertices":80},"geometry":{"type":"Polygon","coordinates":[[[77.1006158,22.7996415],[77.1006158,22.7996397],[77.1006197,22.7996397],[77.1006197,22.7996379],[77.1006216,22.7996379],[77.1006215,22.799627],[77.1006234,22.799627],[77.1006233,22.7996216],[77.1006253,22.7996216],[77.1006252,22.7996179],[77.1006291,22.7996179],[77.1006291,22.7996161],[77.100631,22.7996161],[77.100631,22.7996143],[77.100633,22.7996142],[77.1006329,22.7996088],[77.1006348,22.7996088],[77.1006347,22.799598],[77.1006366,22.7995979],[77.1006365,22.7995925],[77.1006385,22.7995925],[77.1006383,22.7995835],[77.1006403,22.7995834],[77.1006402,22.7995762],[77.1006421,22.7995762],[77.1006421,22.7995726],[77.100644,22.7995726],[77.1006439,22.7995671],[77.1006459,22.7995671],[77.1006458,22.7995599],[77.1006477,22.7995599],[77.1006474,22.79954],[77.1006455,22.79954],[77.1006454,22.7995346],[77.1006376,22.7995347],[77.1006376,22.7995329],[77.1006337,22.799533],[77.1006336,22.7995312],[77.1006044,22.7995315],[77.1006045,22.799537],[77.1006065,22.7995369],[77.1006065,22.7995405],[77.1006104,22.7995405],[77.1006105,22.7995477],[77.1006086,22.7995477],[77.1006085,22.7995459],[77.1006066,22.799546],[77.1006066,22.7995441],[77.1006046,22.7995442],[77.1006046,22.799546],[77.1006027,22.799546],[77.1006028,22.7995496],[77.1006047,22.7995496],[77.1006047,22.7995514],[77.1006106,22.7995513],[77.1006106,22.7995531],[77.1006087,22.7995532],[77.1006088,22.799564],[77.1006069,22.799564],[77.100607,22.7995694],[77.100605,22.7995695],[77.100605,22.7995713],[77.1006031,22.7995713],[77.1006031,22.7995731],[77.1005953,22.7995732],[77.1005953,22.7995714],[77.1005914,22.7995714],[77.1005915,22.799575],[77.1005895,22.7995751],[77.1005896,22.7995823],[77.1005877,22.7995823],[77.1005878,22.7995913],[77.1005859,22.7995914],[77.100586,22.7995986],[77.100584,22.7995986],[77.1005844,22.7996203],[77.1005863,22.7996203],[77.1005866,22.7996401],[77.1005886,22.7996401],[77.1005886,22.7996419],[77.1006158,22.7996415]]]}},{"type":"Feature","properties":{"building_id":"B-0051","vertices":42},"geometry":{"type":"Polygon","coordinates":[[[77.1007951,22.7996446],[77.1007951,22.7996428],[77.100797,22.7996428],[77.100797,22.7996446],[77.1008204,22.7996443],[77.1008204,22.7996425],[77.1008321,22.7996423],[77.100832,22.7996405],[77.1008418,22.7996404],[77.1008417,22.7996386],[77.1008456,22.7996385],[77.1008456,22.7996367],[77.1008476,22.7996367],[77.1008473,22.7996222],[77.1008493,22.7996222],[77.1008493,22.7996204],[77.1008473,22.7996204],[77.1008473,22.7996186],[77.1008492,22.7996186],[77.1008487,22.7995807],[77.1008409,22.7995808],[77.1008409,22.7995826],[77.100837,22.7995826],[77.100837,22.7995845],[77.1008351,22.7995845],[77.100835,22.7995791],[77.100833,22.7995791],[77.100833,22.7995773],[77.1007824,22.799578],[77.1007824,22.7995816],[77.1007805,22.7995816],[77.1007806,22.7995888],[77.1007787,22.7995888],[77.1007788,22.7995979],[77.1007768,22.7995979],[77.100777,22.7996051],[77.100775,22.7996051],[77.1007753,22.7996268],[77.1007734,22.7996268],[77.1007736,22.7996431],[77.1007756,22.7996431],[77.1007756,22.7996449],[77.1007951,22.7996446]]]}},{"type":"Feature","properties":{"building_id":"B-0023","vertices":70},"geometry":{"type":"Polygon","coordinates":[[[77.1003402,22.7998312],[77.1003402,22.7998294],[77.1003421,22.7998294],[77.1003421,22.7998275],[77.1003441,22.7998275],[77.100344,22.7998257],[77.100346,22.7998257],[77.100346,22.7998239],[77.1003479,22.7998239],[77.1003478,22.7998166],[77.1003497,22.7998166],[77.1003497,22.7998148],[77.1003536,22.7998148],[77.1003535,22.7998093],[77.1003555,22.7998093],[77.1003554,22.7998057],[77.1003593,22.7998056],[77.1003593,22.7998038],[77.1003612,22.7998038],[77.1003612,22.7998002],[77.1003631,22.7998002],[77.1003626,22.7997659],[77.1003606,22.7997659],[77.1003606,22.7997641],[77.1003411,22.7997644],[77.1003412,22.7997662],[77.1003373,22.7997662],[77.1003373,22.7997644],[77.1003295,22.7997645],[77.1003295,22.7997663],[77.1003236,22.7997664],[77.1003236,22.7997646],[77.1003197,22.7997646],[77.1003197,22.7997628],[77.1003158,22.7997629],[77.1003158,22.7997611],[77.1002924,22.7997614],[77.1002924,22.7997632],[77.1002846,22.7997633],[77.1002847,22.7997651],[77.1002769,22.7997652],[77.1002769,22.799767],[77.100275,22.799767],[77.1002753,22.7997869],[77.1002772,22.7997869],[77.1002776,22.7998139],[77.1002796,22.7998139],[77.1002796,22.7998175],[77.1002816,22.7998175],[77.1002816,22.7998193],[77.1002855,22.7998193],[77.1002855,22.7998211],[77.1002933,22.799821],[77.1002933,22.7998192],[77.1002991,22.7998191],[77.1002991,22.7998173],[77.1003049,22.7998172],[77.1003049,22.7998154],[77.1003205,22.7998152],[77.1003205,22.7998134],[77.1003224,22.7998134],[77.1003224,22.7998097],[77.1003243,22.7998097],[77.1003243,22.7998079],[77.1003262,22.7998079],[77.1003261,22.7998025],[77.1003281,22.7998024],[77.1003282,22.7998115],[77.1003302,22.7998114],[77.1003305,22.7998313],[77.1003402,22.7998312]]]}},{"type":"Feature","properties":{"building_id":"B-0018","vertices":84},"geometry":{"type":"Polygon","coordinates":[[[77.1005747,22.7998787],[77.1005747,22.7998769],[77.1005786,22.7998768],[77.1005785,22.799875],[77.1005824,22.7998749],[77.1005823,22.7998677],[77.1005843,22.7998677],[77.1005842,22.7998659],[77.1005862,22.7998659],[77.1005861,22.7998604],[77.100588,22.7998604],[77.1005877,22.7998406],[77.1005819,22.7998406],[77.1005819,22.7998388],[77.1005682,22.799839],[77.1005682,22.7998372],[77.1005663,22.7998372],[77.1005662,22.7998354],[77.1005643,22.7998355],[77.1005643,22.7998336],[77.1005623,22.7998337],[77.1005623,22.7998319],[77.1005603,22.7998319],[77.1005603,22.7998301],[77.1005661,22.79983],[77.1005661,22.7998282],[77.1005642,22.7998282],[77.1005641,22.7998264],[77.1005603,22.7998265],[77.1005602,22.7998247],[77.1005583,22.7998247],[77.1005582,22.7998193],[77.1005601,22.7998193],[77.1005601,22.7998156],[77.1005581,22.7998157],[77.1005581,22.7998139],[77.1005542,22.7998139],[77.1005541,22.7998085],[77.1005561,22.7998085],[77.100556,22.7998013],[77.1005579,22.7998012],[77.1005578,22.799794],[77.100552,22.7997941],[77.1005519,22.7997923],[77.1005461,22.7997924],[77.1005461,22.7997905],[77.1005324,22.7997907],[77.1005325,22.7997925],[77.1005305,22.7997926],[77.1005307,22.7998052],[77.1005288,22.7998052],[77.100529,22.7998179],[77.100527,22.7998179],[77.1005271,22.7998269],[77.1005252,22.7998269],[77.1005253,22.7998306],[77.1005136,22.7998307],[77.1005136,22.7998325],[77.1005097,22.7998326],[77.1005097,22.7998344],[77.1005078,22.7998344],[77.1005081,22.7998524],[77.10051,22.7998524],[77.1005101,22.799856],[77.100512,22.799856],[77.1005121,22.7998596],[77.100514,22.7998596],[77.100514,22.7998614],[77.100516,22.7998614],[77.100516,22.799865],[77.100518,22.799865],[77.100518,22.7998686],[77.10052,22.7998685],[77.10052,22.7998703],[77.1005239,22.7998703],[77.1005239,22.7998721],[77.1005317,22.799872],[77.1005318,22.7998738],[77.1005415,22.7998737],[77.1005415,22.7998755],[77.1005532,22.7998753],[77.1005532,22.7998771],[77.1005649,22.799877],[77.1005649,22.7998788],[77.1005747,22.7998787]]]}},{"type":"Feature","properties":{"building_id":"B-0052","vertices":64},"geometry":{"type":"Polygon","coordinates":[[[77.1007659,22.7996468],[77.1007659,22.799645],[77.1007698,22.7996449],[77.1007697,22.7996431],[77.1007717,22.7996431],[77.1007716,22.7996395],[77.1007736,22.7996395],[77.1007732,22.7996142],[77.1007751,22.7996142],[77.1007749,22.7995979],[77.1007768,22.7995979],[77.1007766,22.7995816],[77.1007746,22.7995817],[77.1007746,22.7995799],[77.1007649,22.79958],[77.1007649,22.7995782],[77.1007571,22.7995783],[77.100757,22.7995765],[77.1007551,22.7995765],[77.1007551,22.7995747],[77.1007531,22.7995747],[77.1007531,22.7995729],[77.1007492,22.799573],[77.1007492,22.7995712],[77.1007297,22.7995714],[77.1007297,22.7995732],[77.1007278,22.7995733],[77.1007278,22.7995751],[77.1007259,22.7995751],[77.100726,22.7995841],[77.100724,22.7995841],[77.1007241,22.7995896],[77.1007222,22.7995896],[77.1007222,22.7995914],[77.1007203,22.7995914],[77.1007203,22.7995932],[77.1007183,22.7995932],[77.1007184,22.799595],[77.1007145,22.7995951],[77.1007145,22.7995969],[77.1007126,22.7995969],[77.1007126,22.7996023],[77.1007107,22.7996024],[77.1007108,22.7996078],[77.1007088,22.7996078],[77.1007089,22.799615],[77.100707,22.7996151],[77.1007071,22.7996205],[77.1007051,22.7996205],[77.1007052,22.7996241],[77.1007071,22.7996241],[77.1007072,22.7996277],[77.1007052,22.7996277],[77.1007054,22.7996368],[77.1007073,22.7996367],[77.1007074,22.7996403],[77.100723,22.7996401],[77.100723,22.7996419],[77.1007366,22.7996418],[77.1007366,22.7996436],[77.1007503,22.7996434],[77.1007503,22.7996452],[77.100762,22.799645],[77.100762,22.7996468],[77.1007659,22.7996468]]]}},{"type":"Feature","properties":{"building_id":"B-0032","vertices":58},"geometry":{"type":"Polygon","coordinates":[[[77.1007194,22.7997919],[77.1007194,22.7997901],[77.1007233,22.79979],[77.1007233,22.7997882],[77.1007252,22.7997882],[77.1007252,22.7997846],[77.1007271,22.7997845],[77.1007271,22.7997809],[77.100729,22.7997809],[77.1007289,22.7997719],[77.1007308,22.7997719],[77.1007306,22.7997592],[77.1007326,22.7997592],[77.1007325,22.799752],[77.1007344,22.7997519],[77.1007342,22.7997357],[77.1007361,22.7997357],[77.1007361,22.7997321],[77.100738,22.799732],[77.1007376,22.799705],[77.1007356,22.799705],[77.1007356,22.7997032],[77.1007337,22.7997032],[77.1007336,22.7997014],[77.1007297,22.7997014],[77.1007297,22.7996996],[77.100683,22.7997003],[77.1006831,22.7997111],[77.1006851,22.7997111],[77.1006853,22.7997219],[77.1006872,22.7997219],[77.1006873,22.7997309],[77.1006893,22.7997309],[77.1006893,22.7997345],[77.1006913,22.7997345],[77.1006913,22.7997381],[77.1006894,22.7997381],[77.1006896,22.7997489],[77.1006876,22.799749],[77.1006877,22.7997562],[77.1006858,22.7997562],[77.1006859,22.7997616],[77.1006839,22.7997616],[77.1006841,22.7997725],[77.100686,22.7997724],[77.1006861,22.7997743],[77.100688,22.7997742],[77.100688,22.799776],[77.10069,22.799776],[77.10069,22.7997778],[77.100692,22.7997778],[77.100692,22.7997832],[77.100694,22.7997832],[77.1006941,22.7997886],[77.100696,22.7997886],[77.100696,22.7997904],[77.1006999,22.7997903],[77.1007,22.7997921],[77.1007194,22.7997919]]]}},{"type":"Feature","properties":{"building_id":"B-0072","vertices":32},"geometry":{"type":"Polygon","coordinates":[[[77.1010685,22.7994369],[77.1010685,22.7994351],[77.1010899,22.7994348],[77.1010899,22.7994367],[77.1010977,22.7994365],[77.1010977,22.7994347],[77.1011016,22.7994347],[77.1011014,22.7994257],[77.1010995,22.7994257],[77.1010994,22.7994221],[77.1010975,22.7994221],[77.1010974,22.7994149],[77.1010954,22.7994149],[77.1010954,22.7994131],[77.1010934,22.7994131],[77.1010933,22.7994041],[77.1010914,22.7994041],[77.1010912,22.7993951],[77.1010893,22.7993951],[77.1010892,22.7993879],[77.1010113,22.7993889],[77.1010118,22.7994232],[77.1010099,22.7994233],[77.10101,22.7994305],[77.1010119,22.7994305],[77.1010119,22.7994323],[77.1010139,22.7994322],[77.1010139,22.799434],[77.1010178,22.799434],[77.1010178,22.7994358],[77.1010509,22.7994354],[77.101051,22.7994372],[77.1010685,22.7994369]]]}},{"type":"Feature","properties":{"building_id":"B-0037","vertices":66},"geometry":{"type":"Polygon","coordinates":[[[77.1007931,22.799771],[77.1007931,22.7997692],[77.1007951,22.7997692],[77.100795,22.7997674],[77.100797,22.7997674],[77.1007969,22.7997656],[77.1007989,22.7997655],[77.1007988,22.7997619],[77.1008008,22.7997619],[77.1008007,22.7997547],[77.1008026,22.7997547],[77.1008025,22.7997474],[77.1008045,22.7997474],[77.1008043,22.7997402],[77.1008063,22.7997402],[77.1008062,22.7997329],[77.1008081,22.7997329],[77.100808,22.7997221],[77.1008099,22.7997221],[77.1008096,22.7996986],[77.1008076,22.7996986],[77.1008076,22.7996968],[77.1008056,22.7996968],[77.1008056,22.799695],[77.1007822,22.7996953],[77.1007823,22.7996971],[77.1007706,22.7996973],[77.1007706,22.7996991],[77.1007667,22.7996992],[77.1007667,22.799701],[77.1007648,22.799701],[77.1007648,22.7997028],[77.1007629,22.7997028],[77.1007629,22.7997046],[77.100761,22.7997046],[77.1007611,22.7997137],[77.100763,22.7997136],[77.1007633,22.7997335],[77.1007614,22.7997335],[77.1007615,22.7997371],[77.1007595,22.7997372],[77.1007596,22.7997426],[77.1007576,22.7997426],[77.1007577,22.7997444],[77.1007538,22.7997445],[77.1007537,22.7997427],[77.1007479,22.7997427],[77.1007479,22.7997445],[77.100746,22.7997446],[77.100746,22.7997428],[77.1007421,22.7997428],[77.1007421,22.7997446],[77.1007382,22.7997447],[77.1007384,22.7997573],[77.1007403,22.7997573],[77.1007404,22.7997591],[77.1007423,22.7997591],[77.1007423,22.7997609],[77.1007443,22.7997608],[77.1007443,22.7997627],[77.1007463,22.7997626],[77.1007463,22.799768],[77.1007502,22.799768],[77.1007503,22.7997698],[77.1007619,22.7997696],[77.100762,22.7997714],[77.1007931,22.799771]]]}},{"type":"Feature","properties":{"building_id":"B-0025","vertices":36},"geometry":{"type":"Polygon","coordinates":[[[77.1003828,22.7998144],[77.1003828,22.7998126],[77.1003906,22.7998125],[77.1003906,22.7998107],[77.1003964,22.7998106],[77.1003964,22.7998088],[77.1004139,22.7998085],[77.1004138,22.7998049],[77.1004158,22.7998049],[77.1004158,22.7998031],[77.1004177,22.7998031],[77.100417,22.7997543],[77.100415,22.7997543],[77.1004148,22.7997417],[77.1004129,22.7997417],[77.1004127,22.7997309],[77.1003699,22.7997315],[77.1003699,22.7997333],[77.100364,22.7997334],[77.1003641,22.799737],[77.1003622,22.799737],[77.1003623,22.7997442],[77.1003642,22.7997442],[77.1003644,22.7997586],[77.1003664,22.7997586],[77.1003664,22.7997622],[77.1003684,22.7997622],[77.1003684,22.7997658],[77.1003704,22.7997658],[77.1003707,22.7997874],[77.1003727,22.7997874],[77.100373,22.7998091],[77.1003749,22.7998091],[77.100375,22.7998127],[77.1003789,22.7998126],[77.1003789,22.7998144],[77.1003828,22.7998144]]]}},{"type":"Feature","properties":{"building_id":"B-0003","vertices":46},"geometry":{"type":"Polygon","coordinates":[[[77.1006251,22.7999918],[77.1006251,22.79999],[77.100627,22.7999899],[77.1006269,22.7999827],[77.1006289,22.7999827],[77.1006287,22.7999719],[77.1006307,22.7999718],[77.1006305,22.7999646],[77.1006325,22.7999646],[77.1006324,22.7999574],[77.1006343,22.7999573],[77.1006343,22.7999537],[77.1006362,22.7999537],[77.1006361,22.7999465],[77.1006381,22.7999464],[77.1006379,22.7999338],[77.1006398,22.7999338],[77.1006396,22.7999175],[77.1006123,22.7999179],[77.1006124,22.7999215],[77.1006104,22.7999215],[77.1006105,22.7999251],[77.1006085,22.7999252],[77.1006086,22.7999288],[77.1006066,22.7999288],[77.1006067,22.7999324],[77.1006047,22.7999324],[77.1006048,22.7999342],[77.1006028,22.7999343],[77.1006029,22.7999379],[77.100599,22.7999379],[77.100599,22.7999397],[77.1005893,22.7999399],[77.1005893,22.7999417],[77.1005854,22.7999417],[77.1005854,22.7999435],[77.1005835,22.7999436],[77.1005836,22.7999508],[77.1005816,22.7999508],[77.1005817,22.799958],[77.1005798,22.799958],[77.1005799,22.7999671],[77.100578,22.7999671],[77.1005781,22.7999761],[77.1005762,22.7999762],[77.1005764,22.7999924],[77.1006251,22.7999918]]]}},{"type":"Feature","properties":{"building_id":"B-0042","vertices":42},"geometry":{"type":"Polygon","coordinates":[[[77.1007179,22.7996926],[77.1007179,22.7996908],[77.1007218,22.7996907],[77.1007218,22.7996925],[77.1007296,22.7996924],[77.1007296,22.7996906],[77.1007335,22.7996906],[77.1007334,22.7996888],[77.1007373,22.7996887],[77.1007373,22.7996869],[77.1007451,22.7996868],[77.1007451,22.799685],[77.100749,22.7996849],[77.1007489,22.7996831],[77.1007509,22.7996831],[77.1007509,22.7996813],[77.1007528,22.7996813],[77.1007526,22.799665],[77.1007545,22.799665],[77.1007544,22.7996596],[77.1007564,22.7996596],[77.1007563,22.7996559],[77.1007583,22.7996559],[77.1007581,22.7996487],[77.1007543,22.7996488],[77.1007542,22.7996469],[77.1007484,22.799647],[77.1007484,22.7996452],[77.1007367,22.7996454],[77.1007366,22.7996436],[77.1006899,22.7996442],[77.1006899,22.799646],[77.1006841,22.7996461],[77.1006841,22.7996497],[77.1006822,22.7996497],[77.1006827,22.7996822],[77.1006808,22.7996822],[77.1006809,22.7996894],[77.1006828,22.7996894],[77.1006828,22.7996912],[77.100712,22.7996908],[77.1007121,22.7996926],[77.1007179,22.7996926]]]}},{"type":"Feature","properties":{"building_id":"B-0062","vertices":54},"geometry":{"type":"Polygon","coordinates":[[[77.1006905,22.7995557],[77.1006904,22.7995521],[77.1006924,22.799552],[77.1006922,22.7995412],[77.1006942,22.7995412],[77.1006939,22.7995267],[77.100692,22.7995268],[77.1006919,22.7995232],[77.10069,22.7995232],[77.1006898,22.7995105],[77.1006918,22.7995105],[77.1006916,22.7995033],[77.1006936,22.7995033],[77.1006934,22.7994888],[77.1006914,22.7994889],[77.1006914,22.7994852],[77.1006894,22.7994853],[77.1006892,22.799469],[77.1006911,22.799469],[77.1006909,22.7994582],[77.1006676,22.7994585],[77.1006676,22.7994603],[77.1006657,22.7994603],[77.1006658,22.7994675],[77.1006638,22.7994675],[77.100664,22.799482],[77.1006621,22.799482],[77.1006623,22.7994929],[77.1006603,22.7994929],[77.1006605,22.7995019],[77.1006585,22.7995019],[77.1006587,22.7995128],[77.1006567,22.7995128],[77.1006568,22.7995164],[77.1006548,22.7995164],[77.1006549,22.7995218],[77.100653,22.7995219],[77.100653,22.7995237],[77.1006511,22.7995237],[77.1006512,22.7995309],[77.1006492,22.7995309],[77.1006493,22.7995346],[77.1006512,22.7995345],[77.1006512,22.7995363],[77.1006493,22.7995364],[77.1006495,22.799549],[77.1006514,22.799549],[77.1006515,22.7995508],[77.1006554,22.7995507],[77.1006554,22.7995525],[77.1006671,22.7995524],[77.1006671,22.7995542],[77.1006749,22.7995541],[77.1006749,22.7995559],[77.1006905,22.7995557]]]}},{"type":"Feature","properties":{"building_id":"B-0001","vertices":52},"geometry":{"type":"Polygon","coordinates":[[[77.1010302,22.7999864],[77.1010301,22.799981],[77.1010281,22.799981],[77.1010281,22.7999792],[77.1010262,22.7999793],[77.1010261,22.7999774],[77.1010242,22.7999775],[77.1010242,22.7999757],[77.1010203,22.7999757],[77.1010202,22.7999739],[77.1010163,22.799974],[77.1010163,22.7999722],[77.1010144,22.7999722],[77.1010143,22.7999704],[77.1010104,22.7999704],[77.1010104,22.7999686],[77.1010046,22.7999687],[77.1010046,22.7999669],[77.1009987,22.799967],[77.1009987,22.7999652],[77.1009948,22.7999652],[77.1009948,22.7999634],[77.1009909,22.7999635],[77.1009908,22.7999617],[77.1009869,22.7999617],[77.1009869,22.7999599],[77.1009811,22.79996],[77.100981,22.7999582],[77.1009771,22.7999582],[77.1009771,22.7999564],[77.1009693,22.7999565],[77.1009693,22.7999547],[77.1009596,22.7999548],[77.1009595,22.799953],[77.1009342,22.7999534],[77.1009343,22.7999552],[77.1009304,22.7999552],[77.1009304,22.799957],[77.1009284,22.7999571],[77.1009285,22.7999589],[77.1009246,22.7999589],[77.1009246,22.7999607],[77.1009207,22.7999608],[77.1009207,22.7999626],[77.1009168,22.7999626],[77.1009169,22.7999644],[77.100911,22.7999645],[77.100911,22.7999663],[77.1009072,22.7999664],[77.1009072,22.7999718],[77.1009053,22.7999718],[77.1009055,22.7999881],[77.1010302,22.7999864]]]}},{"type":"Feature","properties":{"building_id":"B-0074","vertices":32},"geometry":{"type":"Polygon","coordinates":[[[77.1001803,22.7994342],[77.1001802,22.7994324],[77.1001822,22.7994324],[77.1001822,22.7994306],[77.1001861,22.7994305],[77.1001861,22.7994323],[77.1001939,22.7994322],[77.1001938,22.7994304],[77.1002094,22.7994302],[77.1002094,22.7994284],[77.1002405,22.799428],[77.1002405,22.7994262],[77.1002425,22.7994261],[77.1002421,22.7993991],[77.100133,22.7994005],[77.1001332,22.7994168],[77.1001352,22.7994167],[77.1001353,22.7994203],[77.100145,22.7994202],[77.100145,22.799422],[77.1001489,22.799422],[77.1001489,22.7994202],[77.1001508,22.7994201],[77.1001509,22.7994219],[77.1001528,22.7994219],[77.1001529,22.7994291],[77.1001549,22.7994291],[77.1001549,22.7994309],[77.1001568,22.7994309],[77.1001569,22.7994327],[77.1001588,22.7994327],[77.1001588,22.7994345],[77.1001803,22.7994342]]]}},{"type":"Feature","properties":{"building_id":"B-0040","vertices":40},"geometry":{"type":"Polygon","coordinates":[[[77.1009349,22.7997421],[77.1009349,22.7997403],[77.1009387,22.7997402],[77.1009387,22.7997384],[77.1009407,22.7997384],[77.1009406,22.7997348],[77.1009426,22.7997348],[77.1009424,22.7997257],[77.1009444,22.7997257],[77.1009442,22.7997167],[77.1009462,22.7997166],[77.1009459,22.7996986],[77.1009478,22.7996986],[77.1009477,22.7996913],[77.1009497,22.7996913],[77.1009495,22.7996823],[77.1009515,22.7996823],[77.1009509,22.7996425],[77.1009217,22.7996429],[77.1009217,22.7996447],[77.1009198,22.7996448],[77.1009198,22.7996502],[77.1009179,22.7996502],[77.100918,22.7996556],[77.100916,22.7996556],[77.1009161,22.7996593],[77.1009141,22.7996593],[77.1009142,22.7996629],[77.1009122,22.7996629],[77.1009125,22.7996774],[77.1009144,22.7996773],[77.1009145,22.7996864],[77.1009165,22.7996863],[77.1009169,22.7997098],[77.1009149,22.7997098],[77.1009154,22.7997387],[77.1009173,22.7997387],[77.1009173,22.7997405],[77.1009232,22.7997404],[77.1009232,22.7997422],[77.1009349,22.7997421]]]}},{"type":"Feature","properties":{"building_id":"B-0016","vertices":40},"geometry":{"type":"Polygon","coordinates":[[[77.1003611,22.799923],[77.1003611,22.7999212],[77.100365,22.7999212],[77.1003649,22.7999193],[77.1003669,22.7999193],[77.1003669,22.7999175],[77.1003688,22.7999175],[77.1003688,22.7999139],[77.1003707,22.7999139],[77.1003707,22.7999102],[77.1003726,22.7999102],[77.1003715,22.799838],[77.1003695,22.799838],[77.1003695,22.7998362],[77.1003539,22.7998364],[77.1003539,22.7998346],[77.100352,22.7998346],[77.1003519,22.7998328],[77.1003422,22.799833],[77.1003422,22.7998348],[77.1003403,22.7998348],[77.1003407,22.7998619],[77.1003387,22.7998619],[77.100339,22.7998782],[77.100337,22.7998782],[77.1003371,22.7998818],[77.1003352,22.7998818],[77.1003352,22.7998836],[77.1003332,22.7998836],[77.1003333,22.7998873],[77.1003313,22.7998873],[77.1003318,22.7999162],[77.1003337,22.7999161],[77.1003338,22.7999179],[77.1003357,22.7999179],[77.1003357,22.7999197],[77.1003377,22.7999197],[77.1003377,22.7999215],[77.1003397,22.7999215],[77.1003397,22.7999233],[77.1003611,22.799923]]]}},{"type":"Feature","properties":{"building_id":"B-0059","vertices":38},"geometry":{"type":"Polygon","coordinates":[[[77.1005741,22.7995861],[77.1005741,22.7995843],[77.100578,22.7995843],[77.1005779,22.7995806],[77.1005799,22.7995806],[77.1005796,22.7995608],[77.1005815,22.7995607],[77.1005813,22.7995463],[77.1005832,22.7995463],[77.100583,22.7995336],[77.100585,22.7995336],[77.1005847,22.7995155],[77.1005866,22.7995155],[77.1005865,22.7995083],[77.1005885,22.7995083],[77.1005879,22.7994722],[77.1005646,22.7994725],[77.1005649,22.7994941],[77.1005629,22.7994942],[77.100563,22.7994978],[77.1005611,22.7994978],[77.1005611,22.7994996],[77.1005591,22.7994996],[77.1005592,22.7995014],[77.1005572,22.7995015],[77.1005573,22.7995087],[77.1005554,22.7995087],[77.1005558,22.7995376],[77.1005539,22.7995376],[77.1005542,22.7995575],[77.1005522,22.7995575],[77.1005526,22.7995792],[77.1005545,22.7995791],[77.1005546,22.7995828],[77.1005624,22.7995827],[77.1005624,22.7995845],[77.1005702,22.7995844],[77.1005702,22.7995862],[77.1005741,22.7995861]]]}},{"type":"Feature","properties":{"building_id":"B-0019","vertices":60},"geometry":{"type":"Polygon","coordinates":[[[77.1002474,22.7998776],[77.1002474,22.7998757],[77.1002494,22.7998757],[77.1002493,22.7998703],[77.1002512,22.7998703],[77.100251,22.799854],[77.1002529,22.799854],[77.1002528,22.7998486],[77.1002548,22.7998486],[77.1002547,22.7998449],[77.1002567,22.7998449],[77.1002566,22.7998413],[77.1002586,22.7998413],[77.1002584,22.7998323],[77.1002604,22.7998322],[77.1002603,22.7998286],[77.1002623,22.7998286],[77.1002622,22.799825],[77.1002642,22.799825],[77.1002639,22.7998051],[77.1002619,22.7998051],[77.1002619,22.7998033],[77.1002463,22.7998035],[77.1002463,22.7998017],[77.1002443,22.7998017],[77.1002443,22.7997999],[77.1002424,22.7998],[77.1002423,22.7997982],[77.1002404,22.7997982],[77.1002403,22.7997946],[77.1002306,22.7997947],[77.1002306,22.7997965],[77.1002287,22.7997965],[77.1002287,22.7998001],[77.1002268,22.7998002],[77.1002268,22.7998038],[77.1002249,22.7998038],[77.1002249,22.7998074],[77.100221,22.7998075],[77.100221,22.7998057],[77.1002191,22.7998057],[77.1002192,22.7998111],[77.1002172,22.7998111],[77.1002174,22.7998256],[77.1002155,22.7998256],[77.1002156,22.7998328],[77.1002175,22.7998328],[77.100218,22.7998617],[77.1002199,22.7998617],[77.10022,22.7998635],[77.1002239,22.7998634],[77.1002239,22.7998652],[77.1002258,22.7998652],[77.1002259,22.7998706],[77.1002279,22.7998706],[77.1002279,22.7998742],[77.1002299,22.7998742],[77.1002299,22.799876],[77.1002318,22.799876],[77.1002319,22.7998778],[77.1002474,22.7998776]]]}},{"type":"Feature","properties":{"building_id":"B-0007","vertices":28},"geometry":{"type":"Polygon","coordinates":[[[77.1000213,22.7999907],[77.1000213,22.7999889],[77.1000271,22.7999888],[77.1000271,22.799987],[77.100029,22.799987],[77.100029,22.7999852],[77.1000309,22.7999851],[77.1000309,22.7999833],[77.1000329,22.7999833],[77.1000328,22.7999815],[77.1000348,22.7999815],[77.1000347,22.7999779],[77.1000367,22.7999778],[77.1000366,22.799976],[77.1000386,22.799976],[77.1000386,22.7999742],[77.1000405,22.7999742],[77.1000405,22.7999724],[77.1000424,22.7999724],[77.1000424,22.7999705],[77.1000443,22.7999705],[77.1000436,22.7999236],[77.1000417,22.7999236],[77.1000417,22.7999218],[77.0999988,22.7999224],[77.0999998,22.7999892],[77.1000135,22.799989],[77.1000135,22.7999908],[77.1000213,22.7999907]]]}},{"type":"Feature","properties":{"building_id":"B-0011","vertices":42},"geometry":{"type":"Polygon","coordinates":[[[77.1004411,22.7999328],[77.1004411,22.799931],[77.1004469,22.7999309],[77.1004469,22.7999291],[77.1004489,22.7999291],[77.1004488,22.7999273],[77.1004508,22.7999272],[77.1004507,22.7999236],[77.1004527,22.7999236],[77.1004526,22.7999182],[77.1004545,22.7999182],[77.1004542,22.7998947],[77.1004444,22.7998948],[77.1004445,22.7998966],[77.1004328,22.7998968],[77.1004328,22.7998986],[77.100427,22.7998987],[77.1004269,22.7998969],[77.1004211,22.7998969],[77.1004211,22.7998951],[77.1004191,22.7998952],[77.1004191,22.7998933],[77.1004132,22.7998934],[77.1004132,22.7998916],[77.1004093,22.7998917],[77.1004093,22.7998899],[77.1003781,22.7998903],[77.1003783,22.7998993],[77.1003763,22.7998993],[77.1003765,22.7999102],[77.1003745,22.7999102],[77.1003748,22.7999246],[77.1003806,22.7999246],[77.1003806,22.7999264],[77.1003923,22.7999262],[77.1003924,22.799928],[77.1004021,22.7999279],[77.1004021,22.7999297],[77.1004138,22.7999295],[77.1004138,22.7999313],[77.1004372,22.799931],[77.1004372,22.7999328],[77.1004411,22.7999328]]]}},{"type":"Feature","properties":{"building_id":"B-0035","vertices":42},"geometry":{"type":"Polygon","coordinates":[[[77.1005146,22.7997711],[77.1005146,22.7997693],[77.1005165,22.7997693],[77.1005165,22.7997675],[77.1005223,22.7997674],[77.1005223,22.7997656],[77.1005243,22.7997656],[77.1005242,22.7997619],[77.1005339,22.7997618],[77.1005339,22.79976],[77.1005378,22.79976],[77.1005378,22.7997581],[77.1005417,22.7997581],[77.1005416,22.7997563],[77.1005436,22.7997563],[77.1005432,22.7997292],[77.1005451,22.7997292],[77.1005451,22.7997274],[77.100547,22.7997273],[77.100547,22.7997237],[77.1005489,22.7997237],[77.1005487,22.7997056],[77.1005467,22.7997057],[77.1005467,22.7997039],[77.100498,22.7997045],[77.1004981,22.7997081],[77.1004961,22.7997081],[77.1004964,22.7997244],[77.1004983,22.7997244],[77.1004986,22.7997442],[77.1005006,22.7997442],[77.1005007,22.7997514],[77.1005026,22.7997514],[77.1005027,22.7997586],[77.1005047,22.7997586],[77.1005047,22.7997622],[77.1005067,22.7997622],[77.1005067,22.7997658],[77.1005087,22.7997658],[77.1005087,22.7997694],[77.1005107,22.7997693],[77.1005107,22.7997711],[77.1005146,22.7997711]]]}},{"type":"Feature","properties":{"building_id":"B-0067","vertices":28},"geometry":{"type":"Polygon","coordinates":[[[77.1008806,22.7995026],[77.1008805,22.7995008],[77.1008864,22.7995007],[77.1008864,22.7995025],[77.1008884,22.7995025],[77.1008883,22.7995007],[77.1009039,22.7995005],[77.1009039,22.7994987],[77.1009078,22.7994986],[77.1009077,22.7994968],[77.1009097,22.7994968],[77.1009097,22.799495],[77.1009116,22.799495],[77.1009116,22.7994932],[77.1009233,22.799493],[77.1009232,22.7994912],[77.1009252,22.7994912],[77.1009251,22.7994876],[77.1009271,22.7994876],[77.1009265,22.7994496],[77.1008934,22.7994501],[77.1008934,22.7994483],[77.1008719,22.7994486],[77.1008721,22.7994576],[77.1008701,22.7994576],[77.1008708,22.7995009],[77.1008727,22.7995009],[77.1008728,22.7995027],[77.1008806,22.7995026]]]}},{"type":"Feature","properties":{"building_id":"B-0020","vertices":32},"geometry":{"type":"Polygon","coordinates":[[[77.1001809,22.7998568],[77.1001809,22.799855],[77.1001945,22.7998548],[77.1001945,22.7998566],[77.1001984,22.7998565],[77.1001984,22.7998529],[77.1002003,22.7998529],[77.1002002,22.7998457],[77.1002022,22.7998456],[77.1002019,22.7998294],[77.1002039,22.7998294],[77.1002037,22.7998221],[77.1002057,22.7998221],[77.1002053,22.799795],[77.1001819,22.7997953],[77.1001819,22.7997935],[77.1001721,22.7997937],[77.1001721,22.7997919],[77.1001604,22.799792],[77.1001605,22.7997956],[77.1001585,22.7997957],[77.1001591,22.7998318],[77.1001571,22.7998318],[77.1001574,22.7998462],[77.1001593,22.7998462],[77.1001594,22.7998516],[77.1001613,22.7998516],[77.1001614,22.7998534],[77.1001633,22.7998534],[77.1001633,22.7998552],[77.100175,22.799855],[77.1001751,22.7998568],[77.1001809,22.7998568]]]}},{"type":"Feature","properties":{"building_id":"B-0008","vertices":32},"geometry":{"type":"Polygon","coordinates":[[[77.1001888,22.7999885],[77.1001887,22.7999867],[77.1001907,22.7999867],[77.1001896,22.7999144],[77.1001876,22.7999145],[77.1001876,22.7999127],[77.1001856,22.7999127],[77.1001856,22.7999109],[77.1001798,22.7999109],[77.1001798,22.7999091],[77.1001778,22.7999092],[77.1001778,22.799911],[77.1001759,22.799911],[77.1001759,22.7999092],[77.1001544,22.7999095],[77.1001547,22.7999293],[77.1001567,22.7999293],[77.1001568,22.7999347],[77.1001548,22.7999348],[77.1001551,22.799951],[77.1001531,22.799951],[77.1001534,22.7999709],[77.1001554,22.7999709],[77.1001555,22.7999781],[77.1001574,22.7999781],[77.1001575,22.7999835],[77.1001614,22.7999834],[77.1001614,22.7999852],[77.1001634,22.7999852],[77.1001634,22.799987],[77.1001654,22.799987],[77.1001654,22.7999888],[77.1001888,22.7999885]]]}},{"type":"Feature","properties":{"building_id":"B-0069","vertices":40},"geometry":{"type":"Polygon","coordinates":[[[77.1006074,22.7994719],[77.1006074,22.7994701],[77.1006132,22.79947],[77.1006132,22.7994682],[77.100621,22.7994681],[77.100621,22.7994663],[77.1006248,22.7994663],[77.1006248,22.7994645],[77.1006268,22.7994644],[77.1006267,22.7994626],[77.1006287,22.7994626],[77.1006283,22.7994373],[77.1006264,22.7994373],[77.1006263,22.7994355],[77.1006146,22.7994357],[77.1006146,22.7994339],[77.1006107,22.7994339],[77.1006107,22.7994303],[77.1006126,22.7994303],[77.1006126,22.7994267],[77.1006106,22.7994267],[77.1006106,22.7994249],[77.1006086,22.7994249],[77.1006086,22.7994231],[77.1006028,22.7994232],[77.1006027,22.7994214],[77.1006008,22.7994214],[77.1006008,22.7994196],[77.1005696,22.79942],[77.1005697,22.7994273],[77.1005678,22.7994273],[77.1005682,22.7994544],[77.1005662,22.7994544],[77.1005663,22.7994598],[77.1005683,22.7994598],[77.1005684,22.7994688],[77.1005742,22.7994687],[77.1005743,22.7994705],[77.100586,22.7994704],[77.100586,22.7994722],[77.1006074,22.7994719]]]}},{"type":"Feature","properties":{"building_id":"B-0004","vertices":30},"geometry":{"type":"Polygon","coordinates":[[[77.1003368,22.7999865],[77.1003367,22.7999847],[77.1003406,22.7999847],[77.1003406,22.7999829],[77.1003425,22.7999828],[77.1003424,22.7999756],[77.1003444,22.7999756],[77.1003442,22.7999666],[77.1003462,22.7999665],[77.1003462,22.7999647],[77.1003501,22.7999647],[77.10035,22.7999629],[77.1003578,22.7999628],[77.1003578,22.7999592],[77.1003597,22.7999591],[77.1003592,22.7999248],[77.1003086,22.7999255],[77.1003086,22.7999309],[77.1003067,22.7999309],[77.100307,22.7999526],[77.100309,22.7999526],[77.1003094,22.7999797],[77.1003133,22.7999796],[77.1003133,22.7999814],[77.1003172,22.7999814],[77.1003172,22.7999832],[77.1003211,22.7999831],[77.1003212,22.7999849],[77.100325,22.7999849],[77.1003251,22.7999867],[77.1003368,22.7999865]]]}},{"type":"Feature","properties":{"building_id":"B-0066","vertices":42},"geometry":{"type":"Polygon","coordinates":[[[77.1009606,22.7995142],[77.1009606,22.7995124],[77.1009645,22.7995123],[77.1009644,22.7995087],[77.1009664,22.7995087],[77.1009662,22.7994997],[77.1009682,22.7994997],[77.1009681,22.7994942],[77.10097,22.7994942],[77.10097,22.7994888],[77.1009719,22.7994888],[77.1009718,22.7994834],[77.1009738,22.7994833],[77.1009736,22.7994725],[77.1009755,22.7994725],[77.1009752,22.7994526],[77.1009733,22.7994526],[77.1009733,22.7994508],[77.1009655,22.7994509],[77.1009654,22.7994491],[77.1009596,22.7994492],[77.1009596,22.7994474],[77.1009557,22.7994474],[77.1009557,22.7994456],[77.1009381,22.7994459],[77.1009382,22.7994477],[77.1009362,22.7994477],[77.1009362,22.7994495],[77.1009343,22.7994495],[77.1009343,22.7994513],[77.1009324,22.7994514],[77.1009324,22.799455],[77.1009305,22.799455],[77.1009307,22.7994676],[77.1009287,22.7994677],[77.1009291,22.7994911],[77.100931,22.7994911],[77.1009313,22.7995092],[77.1009333,22.7995091],[77.1009333,22.7995128],[77.1009528,22.7995125],[77.1009528,22.7995143],[77.1009606,22.7995142]]]}},{"type":"Feature","properties":{"building_id":"B-0065","vertices":54},"geometry":{"type":"Polygon","coordinates":[[[77.1006473,22.799531],[77.1006472,22.7995274],[77.1006492,22.7995273],[77.1006491,22.7995255],[77.1006511,22.7995255],[77.100651,22.7995219],[77.100653,22.7995219],[77.1006529,22.7995201],[77.1006549,22.79952],[77.1006548,22.7995146],[77.1006568,22.7995146],[77.1006567,22.7995092],[77.1006586,22.7995092],[77.1006585,22.7994983],[77.1006604,22.7994983],[77.1006602,22.7994875],[77.1006622,22.7994874],[77.100662,22.7994784],[77.100664,22.7994784],[77.1006637,22.7994567],[77.1006325,22.7994571],[77.1006325,22.7994589],[77.1006306,22.799459],[77.1006306,22.7994626],[77.1006287,22.7994626],[77.1006288,22.7994698],[77.1006269,22.7994698],[77.100627,22.7994807],[77.1006251,22.7994807],[77.1006251,22.7994843],[77.1006232,22.7994843],[77.1006232,22.7994861],[77.1006213,22.7994862],[77.1006213,22.799488],[77.1006193,22.799488],[77.1006194,22.7994916],[77.1006174,22.7994916],[77.1006177,22.7995097],[77.1006197,22.7995097],[77.1006198,22.7995169],[77.1006178,22.7995169],[77.1006179,22.7995205],[77.1006218,22.7995205],[77.1006218,22.7995223],[77.1006238,22.7995223],[77.1006238,22.7995241],[77.1006257,22.799524],[77.1006258,22.7995258],[77.1006316,22.7995258],[77.1006316,22.7995276],[77.1006336,22.7995275],[77.1006336,22.7995293],[77.1006356,22.7995293],[77.1006356,22.7995311],[77.1006473,22.799531]]]}},{"type":"Feature","properties":{"building_id":"B-0013","vertices":44},"geometry":{"type":"Polygon","coordinates":[[[77.1002852,22.7999276],[77.1002852,22.7999258],[77.1002891,22.7999258],[77.1002891,22.799924],[77.1002929,22.7999239],[77.1002929,22.7999221],[77.1002968,22.799922],[77.1002968,22.7999202],[77.1003007,22.7999202],[77.1003007,22.799922],[77.1003027,22.799922],[77.1003026,22.7999202],[77.1003279,22.7999198],[77.1003279,22.799918],[77.1003299,22.799918],[77.1003293,22.7998837],[77.1003274,22.7998837],[77.1003274,22.7998819],[77.1003176,22.799882],[77.1003176,22.7998802],[77.100302,22.7998804],[77.1003021,22.7998822],[77.1002962,22.7998823],[77.1002962,22.7998841],[77.1002826,22.7998843],[77.1002826,22.7998825],[77.1002767,22.7998826],[77.1002767,22.7998808],[77.100265,22.7998809],[77.100265,22.7998827],[77.1002631,22.7998828],[77.1002635,22.7999098],[77.1002655,22.7999098],[77.1002656,22.799917],[77.1002675,22.799917],[77.1002676,22.7999206],[77.1002695,22.7999206],[77.1002696,22.7999224],[77.1002715,22.7999224],[77.1002715,22.7999242],[77.1002754,22.7999241],[77.1002755,22.7999259],[77.1002813,22.7999259],[77.1002813,22.7999277],[77.1002852,22.7999276]]]}},{"type":"Feature","properties":{"building_id":"B-0015","vertices":56},"geometry":{"type":"Polygon","coordinates":[[[77.1001817,22.7999091],[77.1001817,22.7999073],[77.1001836,22.7999073],[77.1001836,22.7999037],[77.1001855,22.7999037],[77.1001854,22.7998982],[77.1001874,22.7998982],[77.1001873,22.7998964],[77.1001893,22.7998964],[77.1001892,22.7998928],[77.1001912,22.7998927],[77.1001912,22.7998909],[77.1001931,22.7998909],[77.100193,22.7998855],[77.100195,22.7998855],[77.1001948,22.7998728],[77.1001967,22.7998728],[77.1001965,22.7998566],[77.1001595,22.799857],[77.1001595,22.7998588],[77.1001576,22.7998589],[77.1001576,22.7998607],[77.1001556,22.7998607],[77.1001557,22.7998625],[77.1001518,22.7998626],[77.1001518,22.7998644],[77.1001498,22.7998644],[77.1001499,22.7998662],[77.1001479,22.7998662],[77.100148,22.799868],[77.100146,22.7998681],[77.100146,22.7998699],[77.1001441,22.7998699],[77.1001441,22.7998717],[77.1001422,22.7998717],[77.1001422,22.7998753],[77.1001403,22.7998754],[77.1001403,22.799879],[77.1001384,22.799879],[77.1001385,22.7998844],[77.1001365,22.7998844],[77.1001366,22.799888],[77.1001346,22.7998881],[77.1001347,22.7998935],[77.1001328,22.7998935],[77.1001329,22.7999007],[77.1001348,22.7999007],[77.1001349,22.7999025],[77.1001368,22.7999025],[77.1001368,22.7999043],[77.1001427,22.7999042],[77.1001427,22.799906],[77.1001563,22.7999058],[77.1001564,22.7999076],[77.100168,22.7999075],[77.1001681,22.7999093],[77.1001817,22.7999091]]]}},{"type":"Feature","properties":{"building_id":"B-0071","vertices":38},"geometry":{"type":"Polygon","coordinates":[[[77.1006909,22.7994527],[77.1006908,22.7994491],[77.1006928,22.7994491],[77.1006926,22.7994419],[77.1006965,22.7994418],[77.1006965,22.7994364],[77.1006945,22.7994364],[77.1006943,22.7994256],[77.1006963,22.7994256],[77.1006962,22.799422],[77.1006982,22.7994219],[77.1006982,22.7994201],[77.1007098,22.79942],[77.1007099,22.7994218],[77.1007138,22.7994217],[77.1007138,22.7994235],[77.1007177,22.7994235],[77.1007176,22.7994199],[77.1007196,22.7994199],[77.1007195,22.7994162],[77.1007215,22.7994162],[77.1007214,22.7994144],[77.1007234,22.7994144],[77.1007233,22.7994072],[77.1007252,22.7994071],[77.1007251,22.7993999],[77.1007271,22.7993999],[77.100727,22.7993927],[77.1006646,22.7993935],[77.1006648,22.7994043],[77.1006629,22.7994044],[77.100663,22.799417],[77.100665,22.799417],[77.1006651,22.7994242],[77.1006671,22.7994242],[77.1006674,22.799444],[77.1006693,22.799444],[77.1006694,22.799453],[77.1006909,22.7994527]]]}},{"type":"Feature","properties":{"building_id":"B-0039","vertices":74},"geometry":{"type":"Polygon","coordinates":[[[77.1001188,22.799742],[77.1001187,22.7997402],[77.1001226,22.7997401],[77.1001226,22.7997383],[77.1001265,22.7997383],[77.1001265,22.7997365],[77.1001304,22.7997364],[77.1001303,22.7997346],[77.1001323,22.7997346],[77.1001322,22.7997328],[77.1001342,22.7997328],[77.1001341,22.7997292],[77.1001361,22.7997291],[77.1001361,22.7997273],[77.100138,22.7997273],[77.1001377,22.7997074],[77.1001358,22.7997075],[77.1001357,22.7997039],[77.1001338,22.7997039],[77.1001337,22.7997003],[77.1001318,22.7997003],[77.1001317,22.7996985],[77.1001298,22.7996985],[77.1001297,22.7996949],[77.1001278,22.7996949],[77.1001277,22.7996931],[77.1001258,22.7996931],[77.1001258,22.7996913],[77.1001141,22.7996915],[77.1001141,22.7996933],[77.1001122,22.7996933],[77.1001122,22.7996951],[77.1001102,22.7996952],[77.1001103,22.799697],[77.1001083,22.799697],[77.1001084,22.7996988],[77.1001064,22.7996988],[77.1001064,22.7997006],[77.1001045,22.7997007],[77.1001045,22.7997025],[77.1001026,22.7997025],[77.1001026,22.7997043],[77.1001006,22.7997043],[77.1001007,22.7997061],[77.1000968,22.7997062],[77.1000968,22.799708],[77.100091,22.7997081],[77.100091,22.7997099],[77.1000793,22.79971],[77.1000793,22.7997118],[77.1000754,22.7997119],[77.1000755,22.7997137],[77.1000735,22.7997137],[77.1000736,22.7997155],[77.1000716,22.7997155],[77.1000716,22.7997173],[77.1000697,22.7997174],[77.1000697,22.799721],[77.1000678,22.799721],[77.1000678,22.7997228],[77.1000659,22.7997228],[77.100066,22.7997319],[77.100068,22.7997318],[77.100068,22.7997336],[77.1000699,22.7997336],[77.10007,22.7997354],[77.1000758,22.7997353],[77.1000758,22.7997371],[77.1000836,22.799737],[77.1000836,22.7997389],[77.1000895,22.7997388],[77.1000895,22.7997406],[77.1000993,22.7997405],[77.1000993,22.7997423],[77.1001188,22.799742]]]}},{"type":"Feature","properties":{"building_id":"B-0002","vertices":40},"geometry":{"type":"Polygon","coordinates":[[[77.1003973,22.7999948],[77.1003972,22.7999912],[77.1003992,22.7999911],[77.1003991,22.7999839],[77.100401,22.7999839],[77.1004009,22.7999785],[77.1004029,22.7999784],[77.1004027,22.7999694],[77.1004047,22.7999694],[77.1004046,22.7999676],[77.1004066,22.7999676],[77.1004065,22.7999639],[77.1004085,22.7999639],[77.100408,22.7999332],[77.1004061,22.7999332],[77.100406,22.7999314],[77.1004002,22.7999315],[77.1004002,22.7999297],[77.100369,22.7999301],[77.100369,22.7999319],[77.1003671,22.799932],[77.1003671,22.7999356],[77.1003652,22.7999356],[77.1003654,22.79995],[77.1003674,22.79995],[77.1003674,22.7999536],[77.1003655,22.7999536],[77.1003656,22.7999627],[77.1003676,22.7999627],[77.1003677,22.7999699],[77.1003657,22.7999699],[77.1003659,22.7999807],[77.1003678,22.7999807],[77.1003679,22.7999861],[77.1003699,22.7999861],[77.1003699,22.7999897],[77.1003719,22.7999897],[77.1003719,22.7999933],[77.1003739,22.7999933],[77.1003739,22.7999951],[77.1003973,22.7999948]]]}},{"type":"Feature","properties":{"building_id":"B-0045","vertices":36},"geometry":{"type":"Polygon","coordinates":[[[77.1006515,22.7996826],[77.1006515,22.7996772],[77.1006534,22.7996772],[77.1006533,22.7996718],[77.1006553,22.7996717],[77.1006552,22.7996663],[77.1006571,22.7996663],[77.100657,22.7996573],[77.1006589,22.7996572],[77.1006588,22.79965],[77.1006608,22.79965],[77.1006606,22.799641],[77.1006626,22.7996409],[77.1006622,22.7996175],[77.1006291,22.7996179],[77.1006291,22.7996197],[77.1006272,22.7996197],[77.1006273,22.7996251],[77.1006253,22.7996252],[77.1006255,22.799636],[77.1006236,22.799636],[77.1006237,22.7996432],[77.1006217,22.7996433],[77.1006219,22.7996523],[77.1006199,22.7996523],[77.10062,22.7996595],[77.1006181,22.7996596],[77.1006182,22.7996668],[77.1006162,22.7996668],[77.1006163,22.7996722],[77.1006144,22.7996723],[77.1006145,22.7996795],[77.1006164,22.7996795],[77.1006165,22.7996813],[77.100634,22.799681],[77.100634,22.7996828],[77.1006515,22.7996826]]]}},{"type":"Feature","properties":{"building_id":"B-0043","vertices":28},"geometry":{"type":"Polygon","coordinates":[[[77.1004294,22.7996783],[77.1004294,22.7996765],[77.1004333,22.7996765],[77.1004333,22.7996747],[77.1004352,22.7996746],[77.1004351,22.7996692],[77.1004371,22.7996692],[77.1004369,22.7996583],[77.1004389,22.7996583],[77.1004384,22.7996294],[77.1004365,22.7996295],[77.1004364,22.7996277],[77.1003897,22.7996283],[77.1003897,22.7996301],[77.1003878,22.7996301],[77.1003884,22.799668],[77.1003903,22.799668],[77.1003903,22.7996698],[77.1003923,22.7996698],[77.1003923,22.7996716],[77.1003962,22.7996715],[77.1003962,22.7996733],[77.1004001,22.7996733],[77.1004002,22.7996751],[77.1004021,22.7996751],[77.1004021,22.7996769],[77.100408,22.7996768],[77.100408,22.7996786],[77.1004294,22.7996783]]]}},{"type":"Feature","properties":{"building_id":"B-0006","vertices":54},"geometry":{"type":"Polygon","coordinates":[[[77.1005745,22.7999924],[77.1005744,22.7999852],[77.1005763,22.7999852],[77.1005761,22.7999707],[77.100578,22.7999707],[77.1005778,22.7999563],[77.1005798,22.7999562],[77.1005794,22.7999328],[77.1005775,22.7999328],[77.1005774,22.799931],[77.1005755,22.799931],[77.1005755,22.7999292],[77.1005716,22.7999293],[77.1005715,22.7999275],[77.1005696,22.7999275],[77.1005696,22.7999257],[77.1005657,22.7999257],[77.1005656,22.7999239],[77.1005617,22.799924],[77.1005617,22.7999222],[77.1005598,22.7999222],[77.1005597,22.7999168],[77.1005577,22.7999168],[77.1005577,22.799915],[77.1005558,22.799915],[77.1005557,22.7999114],[77.1005518,22.7999115],[77.1005519,22.7999151],[77.1005499,22.7999151],[77.10055,22.7999169],[77.100548,22.7999169],[77.100548,22.7999187],[77.1005461,22.7999188],[77.1005461,22.7999224],[77.1005442,22.7999224],[77.1005446,22.7999495],[77.1005427,22.7999495],[77.1005428,22.7999567],[77.1005408,22.7999568],[77.1005409,22.7999622],[77.100539,22.7999622],[77.1005391,22.799973],[77.1005411,22.799973],[77.1005411,22.7999766],[77.1005431,22.7999766],[77.1005431,22.7999784],[77.100547,22.7999783],[77.100547,22.7999765],[77.1005509,22.7999765],[77.100551,22.7999837],[77.100549,22.7999837],[77.1005491,22.799991],[77.1005511,22.7999909],[77.1005511,22.7999927],[77.1005745,22.7999924]]]}},{"type":"Feature","properties":{"building_id":"B-0029","vertices":42},"geometry":{"type":"Polygon","coordinates":[[[77.1002695,22.7997924],[77.1002695,22.7997906],[77.1002714,22.7997906],[77.1002714,22.7997887],[77.1002733,22.7997887],[77.1002732,22.7997779],[77.1002712,22.7997779],[77.1002711,22.7997689],[77.100273,22.7997689],[77.100273,22.7997653],[77.1002749,22.7997652],[77.1002749,22.7997616],[77.1002768,22.7997616],[77.1002768,22.7997598],[77.1002787,22.7997598],[77.1002783,22.7997309],[77.1002744,22.7997309],[77.1002744,22.7997291],[77.1002705,22.7997292],[77.1002705,22.7997274],[77.1002646,22.7997274],[77.1002646,22.7997256],[77.1002412,22.7997259],[77.1002412,22.7997277],[77.1002393,22.7997278],[77.1002394,22.7997314],[77.1002374,22.7997314],[77.1002376,22.799744],[77.1002357,22.7997441],[77.1002357,22.7997459],[77.1002376,22.7997459],[77.1002379,22.7997639],[77.1002399,22.7997639],[77.1002401,22.7997801],[77.1002421,22.7997801],[77.1002421,22.7997837],[77.1002441,22.7997837],[77.1002441,22.7997891],[77.1002461,22.7997891],[77.1002461,22.7997909],[77.10025,22.7997908],[77.10025,22.7997926],[77.1002695,22.7997924]]]}},{"type":"Feature","properties":{"building_id":"B-0036","vertices":42},"geometry":{"type":"Polygon","coordinates":[[[77.100612,22.7997734],[77.100612,22.7997716],[77.1006139,22.7997716],[77.1006139,22.7997698],[77.1006159,22.7997698],[77.1006158,22.7997643],[77.1006177,22.7997643],[77.1006177,22.7997607],[77.1006196,22.7997607],[77.1006195,22.7997553],[77.1006215,22.7997552],[77.1006214,22.7997516],[77.1006253,22.7997516],[77.1006253,22.7997498],[77.1006272,22.7997497],[77.1006272,22.7997461],[77.1006291,22.7997461],[77.100629,22.7997371],[77.1006309,22.7997371],[77.1006305,22.7997046],[77.1006285,22.7997046],[77.1006285,22.7997028],[77.1005973,22.7997032],[77.1005974,22.7997104],[77.1005955,22.7997104],[77.1005956,22.7997213],[77.1005937,22.7997213],[77.1005938,22.7997303],[77.1005919,22.7997303],[77.100592,22.7997358],[77.10059,22.7997358],[77.1005904,22.7997611],[77.1005924,22.799761],[77.1005924,22.7997628],[77.1005943,22.7997628],[77.1005944,22.7997646],[77.1005963,22.7997646],[77.1005963,22.7997664],[77.1006002,22.7997664],[77.1006003,22.79977],[77.1006022,22.7997699],[77.1006023,22.7997736],[77.100612,22.7997734]]]}},{"type":"Feature","properties":{"building_id":"B-0073","vertices":32},"geometry":{"type":"Polygon","coordinates":[[[77.1011173,22.7994453],[77.1011173,22.7994435],[77.1011251,22.7994434],[77.1011251,22.7994416],[77.1011309,22.7994415],[77.1011309,22.7994397],[77.1011387,22.7994396],[77.1011379,22.7993873],[77.1010911,22.7993879],[77.1010913,22.7993987],[77.1010932,22.7993987],[77.1010934,22.7994113],[77.1010954,22.7994113],[77.1010954,22.7994149],[77.1010974,22.7994149],[77.1010975,22.7994203],[77.1010994,22.7994203],[77.1010995,22.7994239],[77.1011014,22.7994239],[77.1011015,22.7994275],[77.1011034,22.7994274],[77.1011035,22.7994311],[77.1011054,22.799431],[77.1011055,22.7994346],[77.1011074,22.7994346],[77.1011075,22.7994382],[77.1011094,22.7994382],[77.1011095,22.7994418],[77.1011114,22.7994418],[77.1011114,22.7994436],[77.1011153,22.7994435],[77.1011154,22.7994453],[77.1011173,22.7994453]]]}},{"type":"Feature","properties":{"building_id":"B-0034","vertices":38},"geometry":{"type":"Polygon","coordinates":[[[77.1004814,22.7997661],[77.1004814,22.7997643],[77.1004872,22.7997642],[77.1004872,22.7997624],[77.100493,22.7997624],[77.100493,22.7997605],[77.1004969,22.7997605],[77.1004966,22.7997388],[77.1004946,22.7997389],[77.1004944,22.7997244],[77.1004925,22.7997244],[77.1004923,22.7997154],[77.1004904,22.7997154],[77.1004903,22.7997118],[77.1004689,22.7997121],[77.1004689,22.7997139],[77.1004417,22.7997143],[77.1004417,22.7997161],[77.1004339,22.7997162],[77.1004339,22.799718],[77.100432,22.799718],[77.1004321,22.7997288],[77.1004341,22.7997288],[77.1004341,22.7997306],[77.1004361,22.7997306],[77.1004361,22.7997324],[77.1004595,22.7997321],[77.1004595,22.7997357],[77.1004615,22.7997357],[77.1004617,22.7997483],[77.1004636,22.7997483],[77.1004638,22.7997591],[77.1004657,22.7997591],[77.1004658,22.7997627],[77.1004677,22.7997627],[77.1004678,22.7997645],[77.1004775,22.7997644],[77.1004775,22.7997662],[77.1004814,22.7997661]]]}},{"type":"Feature","properties":{"building_id":"B-0005","vertices":34},"geometry":{"type":"Polygon","coordinates":[[[77.1004808,22.7999774],[77.1004807,22.7999756],[77.1004846,22.7999756],[77.1004846,22.7999738],[77.1004865,22.7999737],[77.1004865,22.7999701],[77.1004884,22.7999701],[77.1004883,22.7999629],[77.1004903,22.7999628],[77.1004902,22.7999556],[77.1004921,22.7999556],[77.1004919,22.7999393],[77.1004899,22.7999394],[77.1004899,22.7999376],[77.1004879,22.7999376],[77.1004879,22.7999358],[77.100484,22.7999358],[77.100484,22.799934],[77.1004723,22.7999342],[77.1004723,22.7999324],[77.1004411,22.7999328],[77.1004413,22.7999436],[77.1004393,22.7999436],[77.1004395,22.7999545],[77.1004376,22.7999545],[77.1004378,22.7999708],[77.1004398,22.7999707],[77.1004398,22.7999725],[77.1004437,22.7999725],[77.1004437,22.7999743],[77.1004534,22.7999742],[77.1004535,22.799976],[77.1004613,22.7999759],[77.1004613,22.7999777],[77.1004808,22.7999774]]]}},{"type":"Feature","properties":{"building_id":"B-0061","vertices":44},"geometry":{"type":"Polygon","coordinates":[[[77.1003844,22.799538],[77.1003844,22.7995362],[77.1003883,22.7995362],[77.1003882,22.7995308],[77.1003941,22.7995307],[77.100394,22.7995289],[77.1003979,22.7995288],[77.1003979,22.799527],[77.1004037,22.799527],[77.1004037,22.7995252],[77.1004115,22.799525],[77.1004115,22.7995232],[77.1004154,22.7995232],[77.1004154,22.799525],[77.1004173,22.799525],[77.1004173,22.7995232],[77.1004251,22.7995231],[77.100425,22.799514],[77.100423,22.7995141],[77.100423,22.7995123],[77.1004171,22.7995123],[77.1004171,22.7995105],[77.1004152,22.7995106],[77.1004151,22.7995033],[77.1004131,22.7995034],[77.1004131,22.7995016],[77.1004111,22.7995016],[77.1004111,22.7994998],[77.1003507,22.7995006],[77.1003511,22.799524],[77.100353,22.799524],[77.1003531,22.7995258],[77.100355,22.7995258],[77.1003551,22.7995294],[77.100357,22.7995294],[77.1003571,22.7995312],[77.1003609,22.7995311],[77.100361,22.7995329],[77.1003649,22.7995329],[77.1003649,22.7995347],[77.1003668,22.7995347],[77.1003669,22.7995365],[77.1003708,22.7995364],[77.1003708,22.7995382],[77.1003844,22.799538]]]}},{"type":"Feature","properties":{"building_id":"B-0038","vertices":40},"geometry":{"type":"Polygon","coordinates":[[[77.1005844,22.7997521],[77.1005844,22.7997503],[77.1005864,22.7997503],[77.1005862,22.7997413],[77.1005882,22.7997412],[77.100588,22.7997322],[77.10059,22.7997322],[77.1005895,22.7997015],[77.1005876,22.7997015],[77.1005875,22.7996997],[77.1005856,22.7996997],[77.1005855,22.7996979],[77.1005836,22.799698],[77.1005836,22.7996961],[77.1005524,22.7996966],[77.1005524,22.7996984],[77.1005505,22.7996984],[77.1005505,22.7997002],[77.1005466,22.7997002],[77.1005467,22.7997057],[77.1005487,22.7997056],[77.1005489,22.7997237],[77.100547,22.7997237],[77.1005471,22.7997309],[77.100549,22.7997309],[77.1005491,22.7997363],[77.1005511,22.7997363],[77.1005511,22.7997381],[77.100555,22.7997381],[77.100555,22.7997399],[77.100557,22.7997398],[77.100557,22.7997434],[77.1005531,22.7997435],[77.1005532,22.7997471],[77.1005668,22.7997469],[77.1005669,22.7997487],[77.1005707,22.7997487],[77.1005708,22.7997505],[77.1005786,22.7997504],[77.1005786,22.7997522],[77.1005844,22.7997521]]]}},{"type":"Feature","properties":{"building_id":"B-0022","vertices":34},"geometry":{"type":"Polygon","coordinates":[[[77.1008368,22.7998246],[77.1008364,22.7997994],[77.1008345,22.7997994],[77.1008344,22.7997922],[77.1008363,22.7997921],[77.1008362,22.7997831],[77.1008342,22.7997831],[77.1008342,22.7997813],[77.1008264,22.7997814],[77.1008264,22.7997796],[77.100805,22.7997799],[77.100805,22.7997817],[77.1007914,22.7997819],[77.1007914,22.7997837],[77.1007894,22.7997837],[77.1007895,22.7997855],[77.1007875,22.7997856],[77.1007877,22.7997982],[77.1007858,22.7997982],[77.1007858,22.7998018],[77.1007878,22.7998018],[77.1007879,22.7998108],[77.1007898,22.7998108],[77.1007899,22.7998162],[77.1007919,22.7998162],[77.1007919,22.799818],[77.1007958,22.799818],[77.1007958,22.7998198],[77.1007978,22.7998197],[77.1007978,22.7998215],[77.1008017,22.7998215],[77.1008017,22.7998233],[77.1008173,22.7998231],[77.1008173,22.7998249],[77.1008368,22.7998246]]]}},{"type":"Feature","properties":{"building_id":"B-0026","vertices":44},"geometry":{"type":"Polygon","coordinates":[[[77.1005617,22.7997921],[77.1005616,22.7997903],[77.1005831,22.7997901],[77.100583,22.7997883],[77.1005908,22.7997882],[77.1005908,22.7997863],[77.1005947,22.7997863],[77.1005945,22.7997718],[77.1005925,22.7997719],[77.1005924,22.7997665],[77.1005905,22.7997665],[77.1005904,22.7997611],[77.1005885,22.7997611],[77.1005884,22.7997593],[77.1005865,22.7997593],[77.1005865,22.7997575],[77.1005845,22.7997575],[77.1005845,22.7997557],[77.1005825,22.7997558],[77.1005825,22.7997539],[77.1005806,22.799754],[77.1005805,22.7997522],[77.1005513,22.7997526],[77.1005514,22.799758],[77.1005495,22.799758],[77.1005495,22.7997634],[77.1005476,22.7997634],[77.1005476,22.7997652],[77.100534,22.7997654],[77.100534,22.7997672],[77.1005321,22.7997673],[77.1005321,22.7997691],[77.100534,22.799769],[77.1005341,22.7997708],[77.1005321,22.7997709],[77.1005324,22.7997853],[77.1005343,22.7997853],[77.1005343,22.7997871],[77.1005363,22.7997871],[77.1005363,22.7997889],[77.1005402,22.7997888],[77.1005402,22.7997906],[77.100548,22.7997905],[77.100548,22.7997923],[77.1005617,22.7997921]]]}},{"type":"Feature","properties":{"building_id":"B-0009","vertices":38},"geometry":{"type":"Polygon","coordinates":[[[77.1002548,22.799975],[77.1002547,22.7999732],[77.1002664,22.799973],[77.1002664,22.7999712],[77.1002684,22.7999712],[77.100268,22.7999459],[77.100266,22.7999459],[77.1002657,22.7999243],[77.1002637,22.7999243],[77.1002637,22.7999207],[77.1002617,22.7999207],[77.1002617,22.7999189],[77.1002578,22.799919],[77.1002578,22.7999153],[77.1002344,22.7999156],[77.1002345,22.7999247],[77.1002326,22.7999247],[77.1002327,22.7999319],[77.1002307,22.7999319],[77.1002311,22.7999554],[77.1002292,22.7999554],[77.1002292,22.7999591],[77.1002273,22.7999591],[77.1002273,22.7999627],[77.1002293,22.7999627],[77.1002293,22.7999645],[77.1002312,22.7999644],[77.1002313,22.7999663],[77.1002332,22.7999662],[77.1002332,22.799968],[77.1002371,22.799968],[77.1002372,22.7999698],[77.1002411,22.7999697],[77.1002411,22.7999715],[77.100243,22.7999715],[77.1002431,22.7999733],[77.100247,22.7999733],[77.100247,22.7999751],[77.1002548,22.799975]]]}},{"type":"Feature","properties":{"building_id":"B-0010","vertices":28},"geometry":{"type":"Polygon","coordinates":[[[77.1002977,22.7999798],[77.1002977,22.799978],[77.1003055,22.7999779],[77.1003046,22.7999238],[77.100291,22.7999239],[77.100291,22.7999257],[77.1002871,22.7999258],[77.1002872,22.7999276],[77.1002794,22.7999277],[77.1002793,22.7999259],[77.1002716,22.799926],[77.1002715,22.7999242],[77.1002696,22.7999242],[77.1002696,22.7999278],[77.1002677,22.7999278],[77.100268,22.7999477],[77.1002699,22.7999477],[77.1002703,22.7999694],[77.1002722,22.7999693],[77.1002722,22.7999711],[77.1002742,22.7999711],[77.1002742,22.7999729],[77.1002781,22.7999729],[77.1002782,22.7999765],[77.1002801,22.7999764],[77.1002801,22.7999783],[77.100284,22.7999782],[77.1002841,22.79998],[77.1002977,22.7999798]]]}},{"type":"Feature","properties":{"building_id":"B-0058","vertices":24},"geometry":{"type":"Polygon","coordinates":[[[77.1009651,22.7995539],[77.1009651,22.7995521],[77.1009748,22.7995519],[77.1009748,22.7995501],[77.1009787,22.7995501],[77.1009787,22.7995483],[77.1009806,22.7995482],[77.1009802,22.7995212],[77.1009763,22.7995212],[77.1009763,22.7995194],[77.1009646,22.7995196],[77.1009646,22.7995178],[77.1009295,22.7995182],[77.1009297,22.7995309],[77.1009277,22.7995309],[77.1009279,22.7995399],[77.1009259,22.7995399],[77.1009261,22.799549],[77.100928,22.7995489],[77.1009281,22.7995507],[77.1009339,22.7995507],[77.1009339,22.7995525],[77.1009495,22.7995523],[77.1009495,22.7995541],[77.1009651,22.7995539]]]}},{"type":"Feature","properties":{"building_id":"B-0030","vertices":52},"geometry":{"type":"Polygon","coordinates":[[[77.10084,22.7997813],[77.10084,22.7997794],[77.100842,22.7997794],[77.1008418,22.7997704],[77.1008438,22.7997704],[77.1008437,22.799765],[77.1008456,22.7997649],[77.1008456,22.7997631],[77.1008476,22.7997631],[77.1008475,22.7997577],[77.1008494,22.7997577],[77.1008492,22.7997414],[77.1008472,22.7997414],[77.1008472,22.7997396],[77.1008413,22.7997397],[77.1008413,22.7997379],[77.1008394,22.7997379],[77.1008393,22.7997361],[77.1008374,22.7997361],[77.1008371,22.7997163],[77.1008351,22.7997163],[77.1008351,22.7997127],[77.1008331,22.7997127],[77.1008331,22.7997073],[77.1008214,22.7997075],[77.1008215,22.7997147],[77.1008234,22.7997147],[77.1008237,22.7997309],[77.1008217,22.7997309],[77.1008218,22.7997345],[77.1008237,22.7997345],[77.1008238,22.7997399],[77.1008219,22.79974],[77.100822,22.7997472],[77.10082,22.7997472],[77.1008201,22.7997526],[77.1008182,22.7997526],[77.1008182,22.7997545],[77.1008163,22.7997545],[77.1008164,22.7997617],[77.1008144,22.7997617],[77.1008145,22.7997653],[77.1008125,22.7997654],[77.1008126,22.7997708],[77.1008107,22.7997708],[77.1008107,22.7997762],[77.1008166,22.7997761],[77.1008166,22.799778],[77.1008205,22.7997779],[77.1008205,22.7997797],[77.1008264,22.7997796],[77.1008264,22.7997814],[77.10084,22.7997813]]]}},{"type":"Feature","properties":{"building_id":"B-0057","vertices":16},"geometry":{"type":"Polygon","coordinates":[[[77.100895,22.7995566],[77.100895,22.7995548],[77.1008969,22.7995548],[77.1008969,22.799553],[77.1008989,22.7995529],[77.1008987,22.7995403],[77.1009006,22.7995403],[77.1009001,22.7995042],[77.1008709,22.7995045],[77.100871,22.7995154],[77.1008691,22.7995154],[77.1008693,22.7995317],[77.1008674,22.7995317],[77.1008676,22.7995443],[77.1008656,22.7995443],[77.1008658,22.799557],[77.100895,22.7995566]]]}},{"type":"Feature","properties":{"building_id":"B-0024","vertices":38},"geometry":{"type":"Polygon","coordinates":[[[77.1008579,22.7998027],[77.1008579,22.7998009],[77.1008618,22.7998008],[77.1008617,22.799799],[77.1008656,22.799799],[77.1008656,22.7997972],[77.1008676,22.7997971],[77.1008675,22.7997935],[77.1008694,22.7997935],[77.1008693,22.7997845],[77.1008713,22.7997845],[77.1008708,22.7997538],[77.1008688,22.7997538],[77.1008688,22.7997484],[77.1008668,22.7997484],[77.1008668,22.7997466],[77.1008648,22.7997466],[77.1008648,22.7997448],[77.1008492,22.799745],[77.1008494,22.7997577],[77.1008475,22.7997577],[77.1008476,22.7997631],[77.1008456,22.7997631],[77.1008456,22.7997649],[77.1008437,22.799765],[77.1008438,22.7997704],[77.1008418,22.7997704],[77.100842,22.7997794],[77.10084,22.7997794],[77.10084,22.7997813],[77.1008381,22.7997813],[77.1008382,22.7997903],[77.1008363,22.7997903],[77.1008364,22.7997994],[77.1008384,22.7997993],[77.1008384,22.7998011],[77.1008501,22.799801],[77.1008501,22.7998028],[77.1008579,22.7998027]]]}},{"type":"Feature","properties":{"building_id":"B-0012","vertices":20},"geometry":{"type":"Polygon","coordinates":[[[77.1002152,22.7999322],[77.1002151,22.7999303],[77.1002307,22.7999301],[77.1002299,22.7998796],[77.1002046,22.7998799],[77.1002047,22.7998817],[77.1002027,22.7998818],[77.1002027,22.7998836],[77.1002008,22.7998836],[77.1002008,22.7998872],[77.1001989,22.7998872],[77.1001993,22.7999161],[77.1002013,22.7999161],[77.1002014,22.7999233],[77.1002033,22.7999233],[77.1002034,22.7999287],[77.1002054,22.7999287],[77.1002054,22.7999305],[77.1002073,22.7999305],[77.1002074,22.7999323],[77.1002152,22.7999322]]]}},{"type":"Feature","properties":{"building_id":"B-0050","vertices":52},"geometry":{"type":"Polygon","coordinates":[[[77.1001272,22.7996588],[77.1001272,22.799657],[77.1001291,22.799657],[77.1001291,22.7996534],[77.100131,22.7996534],[77.100131,22.7996515],[77.100133,22.7996515],[77.1001329,22.7996479],[77.1001348,22.7996479],[77.1001347,22.7996407],[77.1001367,22.7996406],[77.1001365,22.7996316],[77.1001385,22.7996316],[77.1001384,22.7996244],[77.1001403,22.7996243],[77.1001403,22.7996225],[77.1001422,22.7996225],[77.1001422,22.7996189],[77.1001402,22.7996189],[77.1001402,22.7996171],[77.1001383,22.7996171],[77.1001382,22.7996153],[77.1001363,22.7996154],[77.1001362,22.7996117],[77.1001343,22.7996118],[77.1001341,22.7996009],[77.1001322,22.799601],[77.1001321,22.7995992],[77.1001302,22.7995992],[77.1001302,22.7995974],[77.1001263,22.7995974],[77.1001263,22.7995956],[77.1001185,22.7995957],[77.1001185,22.7995975],[77.1001165,22.7995976],[77.1001166,22.7996012],[77.1001147,22.7996012],[77.1001147,22.7996066],[77.1001128,22.7996066],[77.1001128,22.7996102],[77.1001109,22.7996103],[77.100111,22.7996175],[77.1001091,22.7996175],[77.1001094,22.799641],[77.1001114,22.799641],[77.1001115,22.79965],[77.1001135,22.79965],[77.1001135,22.7996536],[77.1001155,22.7996536],[77.1001155,22.7996572],[77.1001175,22.7996571],[77.1001175,22.7996589],[77.1001272,22.7996588]]]}},{"type":"Feature","properties":{"building_id":"B-0031","vertices":14},"geometry":{"type":"Polygon","coordinates":[[[77.1003626,22.7997641],[77.1003621,22.7997352],[77.1003115,22.7997358],[77.1003116,22.7997449],[77.1003097,22.7997449],[77.1003098,22.7997521],[77.1003117,22.7997521],[77.1003118,22.7997575],[77.1003138,22.7997575],[77.1003138,22.7997611],[77.1003177,22.799761],[77.1003178,22.7997629],[77.1003216,22.7997628],[77.1003217,22.7997646],[77.1003626,22.7997641]]]}},{"type":"Feature","properties":{"building_id":"B-0048","vertices":28},"geometry":{"type":"Polygon","coordinates":[[[77.1004933,22.799654],[77.1004933,22.7996522],[77.1005011,22.7996521],[77.1005011,22.7996503],[77.100505,22.7996502],[77.1005049,22.7996466],[77.1005069,22.7996466],[77.1005065,22.7996231],[77.1005045,22.7996231],[77.1005045,22.7996213],[77.1004987,22.7996214],[77.1004986,22.7996196],[77.1004655,22.79962],[77.1004656,22.7996237],[77.1004636,22.7996237],[77.1004638,22.7996309],[77.1004618,22.7996309],[77.100462,22.79964],[77.1004639,22.7996399],[77.100464,22.7996472],[77.100466,22.7996471],[77.100466,22.7996489],[77.1004679,22.7996489],[77.100468,22.7996507],[77.1004719,22.7996507],[77.1004719,22.7996525],[77.1004816,22.7996523],[77.1004816,22.7996541],[77.1004933,22.799654]]]}},{"type":"Feature","properties":{"building_id":"B-0075","vertices":28},"geometry":{"type":"Polygon","coordinates":[[[77.1009787,22.7994237],[77.1009787,22.7994219],[77.1009826,22.7994218],[77.1009825,22.7994164],[77.1009844,22.7994164],[77.1009843,22.7994073],[77.1009862,22.7994073],[77.100986,22.7993893],[77.1009412,22.7993899],[77.1009414,22.7994043],[77.1009394,22.7994043],[77.1009395,22.7994079],[77.1009414,22.7994079],[77.1009415,22.7994097],[77.1009434,22.7994097],[77.1009435,22.7994133],[77.1009454,22.7994133],[77.1009454,22.7994151],[77.1009493,22.799415],[77.1009494,22.7994168],[77.1009513,22.7994168],[77.1009513,22.7994186],[77.1009533,22.7994186],[77.1009533,22.7994204],[77.1009572,22.7994203],[77.1009572,22.7994221],[77.1009631,22.7994221],[77.1009631,22.7994239],[77.1009787,22.7994237]]]}},{"type":"Feature","properties":{"building_id":"B-0049","vertices":22},"geometry":{"type":"Polygon","coordinates":[[[77.1009956,22.7996365],[77.1009956,22.7996347],[77.1009975,22.7996347],[77.1009975,22.7996329],[77.1009994,22.7996329],[77.1009991,22.7996094],[77.1009952,22.7996095],[77.1009951,22.7996077],[77.1009737,22.7996079],[77.1009737,22.7996061],[77.1009581,22.7996063],[77.1009581,22.7996081],[77.1009562,22.7996082],[77.1009563,22.7996136],[77.1009543,22.7996136],[77.1009545,22.7996244],[77.1009526,22.7996245],[77.1009527,22.7996335],[77.1009546,22.7996335],[77.1009547,22.7996353],[77.1009605,22.7996352],[77.1009605,22.799637],[77.1009956,22.7996365]]]}},{"type":"Feature","properties":{"building_id":"B-0055","vertices":48},"geometry":{"type":"Polygon","coordinates":[[[77.1007746,22.7995799],[77.1007746,22.7995781],[77.1007804,22.799578],[77.1007804,22.7995762],[77.1007824,22.7995761],[77.1007823,22.7995707],[77.1007842,22.7995707],[77.1007841,22.7995635],[77.1007861,22.7995635],[77.1007859,22.7995562],[77.1007879,22.7995562],[77.1007878,22.7995526],[77.1007898,22.7995526],[77.1007897,22.7995453],[77.1007916,22.7995453],[77.1007912,22.7995146],[77.1007892,22.7995147],[77.1007891,22.799511],[77.1007872,22.7995111],[77.1007871,22.7995075],[77.1007852,22.7995075],[77.1007851,22.7995021],[77.1007812,22.7995021],[77.1007812,22.7995039],[77.1007793,22.7995039],[77.1007794,22.7995076],[77.1007774,22.7995076],[77.1007775,22.7995148],[77.1007756,22.7995148],[77.1007757,22.7995239],[77.1007738,22.7995239],[77.1007739,22.7995329],[77.100772,22.7995329],[77.1007721,22.7995438],[77.1007702,22.7995438],[77.1007703,22.799551],[77.1007683,22.799551],[77.1007685,22.7995601],[77.1007665,22.7995601],[77.1007666,22.7995655],[77.1007647,22.7995655],[77.1007647,22.799571],[77.1007628,22.799571],[77.1007628,22.7995728],[77.1007648,22.7995728],[77.1007649,22.7995782],[77.1007707,22.7995781],[77.1007707,22.7995799],[77.1007746,22.7995799]]]}},{"type":"Feature","properties":{"building_id":"B-0033","vertices":34},"geometry":{"type":"Polygon","coordinates":[[[77.1004441,22.7997485],[77.1004441,22.7997467],[77.100448,22.7997467],[77.100448,22.7997449],[77.1004519,22.7997448],[77.1004518,22.799743],[77.1004538,22.799743],[77.1004538,22.7997412],[77.1004557,22.7997412],[77.1004557,22.7997376],[77.1004576,22.7997375],[77.1004575,22.7997339],[77.1004595,22.7997339],[77.1004595,22.7997321],[77.1004361,22.7997324],[77.1004361,22.7997306],[77.1004341,22.7997306],[77.1004341,22.7997288],[77.1004321,22.7997288],[77.100432,22.7997198],[77.1004281,22.7997199],[77.1004281,22.7997217],[77.1004242,22.7997217],[77.1004243,22.7997235],[77.1004184,22.7997236],[77.1004185,22.7997254],[77.1004165,22.7997254],[77.1004165,22.7997272],[77.1004146,22.7997273],[77.1004149,22.7997453],[77.1004168,22.7997453],[77.1004168,22.7997471],[77.1004188,22.7997471],[77.1004188,22.7997489],[77.1004441,22.7997485]]]}},{"type":"Feature","properties":{"building_id":"B-0021","vertices":46},"geometry":{"type":"Polygon","coordinates":[[[77.1005877,22.7998406],[77.1005875,22.7998243],[77.1005855,22.7998243],[77.1005855,22.7998225],[77.1005836,22.7998226],[77.1005835,22.7998171],[77.1005815,22.7998172],[77.1005814,22.7998063],[77.1005833,22.7998063],[77.1005832,22.7998009],[77.1005813,22.7998009],[77.1005812,22.7997973],[77.1005832,22.7997973],[77.1005831,22.7997937],[77.1005812,22.7997937],[77.1005811,22.7997919],[77.1005558,22.7997922],[77.1005559,22.799794],[77.1005578,22.799794],[77.1005579,22.7998012],[77.100556,22.7998013],[77.1005561,22.7998067],[77.100558,22.7998066],[77.1005581,22.7998157],[77.1005601,22.7998156],[77.1005601,22.7998193],[77.1005582,22.7998193],[77.1005582,22.7998211],[77.1005602,22.7998211],[77.1005603,22.7998265],[77.1005641,22.7998264],[77.1005642,22.7998282],[77.1005661,22.7998282],[77.1005661,22.79983],[77.1005603,22.7998301],[77.1005603,22.7998319],[77.1005623,22.7998319],[77.1005623,22.7998337],[77.1005643,22.7998336],[77.1005643,22.7998355],[77.1005662,22.7998354],[77.1005663,22.7998372],[77.1005682,22.7998372],[77.1005682,22.799839],[77.1005819,22.7998388],[77.1005819,22.7998406],[77.1005877,22.7998406]]]}},{"type":"Feature","properties":{"building_id":"B-0046","vertices":40},"geometry":{"type":"Polygon","coordinates":[[[77.1010077,22.7996635],[77.1010077,22.7996617],[77.1010155,22.7996616],[77.1010154,22.7996598],[77.1010174,22.7996597],[77.1010173,22.7996543],[77.1010192,22.7996543],[77.1010192,22.7996507],[77.1010211,22.7996507],[77.101021,22.7996452],[77.1010249,22.7996452],[77.1010249,22.7996434],[77.1010288,22.7996433],[77.1010288,22.7996415],[77.1010327,22.7996415],[77.1010326,22.7996397],[77.1010346,22.7996396],[77.1010344,22.7996252],[77.1010305,22.7996252],[77.1010305,22.7996234],[77.1010266,22.7996235],[77.1010265,22.7996217],[77.1010032,22.799622],[77.1010032,22.7996256],[77.1010013,22.7996256],[77.1010014,22.7996329],[77.1009994,22.7996329],[77.1009995,22.7996365],[77.1009975,22.7996365],[77.1009976,22.7996383],[77.1009956,22.7996383],[77.1009956,22.7996402],[77.1009937,22.7996402],[77.1009938,22.7996474],[77.1009919,22.7996474],[77.1009921,22.7996601],[77.100994,22.79966],[77.100994,22.7996618],[77.1009979,22.7996618],[77.100998,22.7996636],[77.1010077,22.7996635]]]}}]}