{"type":"FeatureCollection","features":[{"type":"Feature","properties":{"building_id":"B-0001","area_m2":34.1,"vertices":8,"sam_quality":0.97,"veg_frac":0.149,"sat":0.971,"val":0.568,"hue":56.0,"rect":0.795,"solidity":1.055,"ground_likeness":0.0,"parcel_id":"TMP-VI-0002"},"geometry":{"type":"Polygon","coordinates":[[[77.1010017,22.7999684],[77.100976,22.7999559],[77.1009336,22.7999538],[77.1009066,22.7999722],[77.100906,22.7999842],[77.1009679,22.7999872],[77.101038,22.7999863],[77.1010122,22.799969],[77.1010017,22.7999684]]]}},{"type":"Feature","properties":{"building_id":"B-0002","area_m2":27.9,"vertices":6,"sam_quality":0.949,"veg_frac":0.0,"sat":0.4,"val":0.59,"hue":22.0,"rect":0.948,"solidity":1.043,"ground_likeness":0.0,"parcel_id":"TMP-VI-0001"},"geometry":{"type":"Polygon","coordinates":[[[77.1003655,22.7999308],[77.1003656,22.7999802],[77.1003738,22.7999949],[77.1003856,22.7999949],[77.1004048,22.7999947],[77.1004047,22.7999308],[77.1003655,22.7999308]]]}},{"type":"Feature","properties":{"building_id":"B-0003","area_m2":38.7,"vertices":7,"sam_quality":0.991,"veg_frac":0.0,"sat":0.673,"val":0.421,"hue":16.0,"rect":0.791,"solidity":0.995,"ground_likeness":0.0,"parcel_id":"TMP-VI-0009"},"geometry":{"type":"Polygon","coordinates":[[[77.1006085,22.7999165],[77.1006064,22.7999417],[77.100581,22.7999398],[77.1005769,22.7999894],[77.1006123,22.7999919],[77.100631,22.7999917],[77.1006371,22.7999185],[77.1006085,22.7999165]]]}},{"type":"Feature","properties":{"building_id":"B-0004","area_m2":29.8,"vertices":7,"sam_quality":0.985,"veg_frac":0.0,"sat":0.327,"val":0.928,"hue":34.0,"rect":0.89,"solidity":1.015,"ground_likeness":0.0,"parcel_id":"TMP-VI-0004"},"geometry":{"type":"Polygon","coordinates":[[[77.1003426,22.7999646],[77.1003582,22.7999648],[77.1003587,22.7999254],[77.1003093,22.7999249],[77.1003086,22.7999793],[77.1003226,22.7999856],[77.1003423,22.7999858],[77.1003426,22.7999646]]]}},{"type":"Feature","properties":{"building_id":"B-0005","area_m2":25.1,"vertices":4,"sam_quality":0.975,"veg_frac":0.016,"sat":0.344,"val":0.865,"hue":30.0,"rect":0.946,"solidity":1.048,"ground_likeness":0.0,"parcel_id":"TMP-VI-0005"},"geometry":{"type":"Polygon","coordinates":[[[77.100442,22.7999307],[77.1004368,22.7999734],[77.1004879,22.7999787],[77.1004931,22.799936],[77.100442,22.7999307]]]}},{"type":"Feature","properties":{"building_id":"B-0006","area_m2":26.9,"vertices":7,"sam_quality":0.902,"veg_frac":0.0,"sat":0.43,"val":0.372,"hue":30.0,"rect":0.797,"solidity":0.982,"ground_likeness":0.0,"parcel_id":"TMP-VI-0008"},"geometry":{"type":"Polygon","coordinates":[[[77.1005598,22.7999222],[77.1005544,22.7999078],[77.1005474,22.7999177],[77.100542,22.7999913],[77.1005628,22.7999926],[77.1005759,22.7999924],[77.1005803,22.7999332],[77.1005598,22.7999222]]]}},{"type":"Feature","properties":{"building_id":"B-0007","area_m2":31.7,"vertices":6,"sam_quality":0.981,"veg_frac":0.0,"sat":0.346,"val":0.799,"hue":28.0,"rect":0.988,"solidity":1.063,"ground_likeness":0.0,"parcel_id":"TMP-VI-0010"},"geometry":{"type":"Polygon","coordinates":[[[77.1000271,22.7999888],[77.1000435,22.7999714],[77.1000425,22.7999217],[77.0999988,22.7999224],[77.0999993,22.7999558],[77.1,22.7999892],[77.1000271,22.7999888]]]}},{"type":"Feature","properties":{"building_id":"B-0008","area_m2":31.0,"vertices":4,"sam_quality":0.93,"veg_frac":0.0,"sat":0.371,"val":0.621,"hue":26.0,"rect":1.001,"solidity":1.05,"ground_likeness":0.0,"parcel_id":"TMP-VI-0006"},"geometry":{"type":"Polygon","coordinates":[[[77.1001896,22.7999091],[77.1001549,22.7999094],[77.1001559,22.799988],[77.1001906,22.7999876],[77.1001896,22.7999091]]]}},{"type":"Feature","properties":{"building_id":"B-0009","area_m2":21.5,"vertices":6,"sam_quality":0.899,"veg_frac":0.0,"sat":0.523,"val":0.352,"hue":28.0,"rect":0.875,"solidity":1.029,"ground_likeness":0.35,"parcel_id":"TMP-VI-0007"},"geometry":{"type":"Polygon","coordinates":[[[77.1002674,22.7999262],[77.100258,22.7999157],[77.1002331,22.7999153],[77.1002323,22.7999658],[77.1002436,22.7999729],[77.1002666,22.7999733],[77.1002674,22.7999262]]]}},{"type":"Feature","properties":{"building_id":"B-0010","area_m2":21.1,"vertices":6,"sam_quality":0.928,"veg_frac":0.0,"sat":0.506,"val":0.542,"hue":30.0,"rect":0.978,"solidity":1.042,"ground_likeness":0.0,"parcel_id":"TMP-VI-0003"},"geometry":{"type":"Polygon","coordinates":[[[77.1003041,22.7999253],[77.1002753,22.7999263],[77.1002681,22.7999237],[77.1002697,22.7999689],[77.1002832,22.7999793],[77.1003061,22.7999786],[77.1003041,22.7999253]]]}},{"type":"Feature","properties":{"building_id":"B-0011","area_m2":31.5,"vertices":6,"sam_quality":0.978,"veg_frac":0.0,"sat":0.326,"val":0.914,"hue":32.0,"rect":0.92,"solidity":0.993,"ground_likeness":0.0,"parcel_id":"TMP-VI-0013"},"geometry":{"type":"Polygon","coordinates":[[[77.10042,22.7998952],[77.1004124,22.7998914],[77.100378,22.799889],[77.1003749,22.7999265],[77.1004515,22.799932],[77.1004544,22.7998977],[77.10042,22.7998952]]]}},{"type":"Feature","properties":{"building_id":"B-0012","area_m2":17.3,"vertices":5,"sam_quality":0.968,"veg_frac":0.0,"sat":0.612,"val":0.438,"hue":14.0,"rect":1.029,"solidity":1.084,"ground_likeness":0.0,"parcel_id":"TMP-VI-0011"},"geometry":{"type":"Polygon","coordinates":[[[77.1002287,22.7998791],[77.1002042,22.7998805],[77.1001993,22.7998867],[77.1002021,22.7999321],[77.1002319,22.7999305],[77.1002287,22.7998791]]]}},{"type":"Feature","properties":{"building_id":"B-0013","area_m2":29.8,"vertices":5,"sam_quality":0.945,"veg_frac":0.0,"sat":0.491,"val":0.408,"hue":22.0,"rect":0.904,"solidity":0.997,"ground_likeness":0.0,"parcel_id":"TMP-VI-0012"},"geometry":{"type":"Polygon","coordinates":[[[77.1003299,22.7999181],[77.1003272,22.7998803],[77.1002632,22.7998844],[77.1002669,22.7999346],[77.100297,22.7999202],[77.1003299,22.7999181]]]}},{"type":"Feature","properties":{"building_id":"B-0014","area_m2":81.8,"vertices":12,"sam_quality":0.962,"veg_frac":0.0,"sat":0.585,"val":0.437,"hue":16.0,"rect":0.949,"solidity":1.003,"ground_likeness":0.0,"parcel_id":"TMP-VI-0014"},"geometry":{"type":"Polygon","coordinates":[[[77.1001397,22.7999657],[77.1001388,22.7999079],[77.1001329,22.7999043],[77.1001308,22.7998935],[77.1001364,22.7998736],[77.1001373,22.7998086],[77.1001021,22.7998018],[77.1000983,22.7998073],[77.1000951,22.7998507],[77.1000951,22.7999771],[77.1001127,22.7999805],[77.1001321,22.7999784],[77.1001397,22.7999657]]]}},{"type":"Feature","properties":{"building_id":"B-0015","area_m2":28.9,"vertices":7,"sam_quality":0.984,"veg_frac":0.0,"sat":0.306,"val":0.832,"hue":28.0,"rect":0.828,"solidity":1.037,"ground_likeness":0.0,"parcel_id":"TMP-VI-0015"},"geometry":{"type":"Polygon","coordinates":[[[77.1001912,22.7998927],[77.1001974,22.79986],[77.1001627,22.7998543],[77.1001399,22.7998736],[77.1001343,22.799903],[77.1001822,22.7999108],[77.1001844,22.7998992],[77.1001912,22.7998927]]]}},{"type":"Feature","properties":{"building_id":"B-0016","area_m2":33.5,"vertices":5,"sam_quality":0.965,"veg_frac":0.0,"sat":0.662,"val":0.398,"hue":16.0,"rect":0.892,"solidity":1.007,"ground_likeness":0.0,"parcel_id":"TMP-VI-0016"},"geometry":{"type":"Polygon","coordinates":[[[77.1003717,22.7999112],[77.1003704,22.7998362],[77.1003358,22.7998367],[77.1003372,22.7999233],[77.1003611,22.799923],[77.1003717,22.7999112]]]}},{"type":"Feature","properties":{"building_id":"B-0017","area_m2":134.9,"vertices":4,"sam_quality":0.944,"veg_frac":0.0,"sat":0.526,"val":0.63,"hue":26.0,"rect":0.843,"solidity":0.932,"ground_likeness":0.0,"parcel_id":"TMP-VI-0017"},"geometry":{"type":"Polygon","coordinates":[[[77.1006978,22.7998051],[77.1006937,22.7998851],[77.1008417,22.7998917],[77.1008458,22.7998117],[77.1006978,22.7998051]]]}},{"type":"Feature","properties":{"building_id":"B-0018","area_m2":45.0,"vertices":7,"sam_quality":0.897,"veg_frac":0.001,"sat":0.408,"val":0.618,"hue":28.0,"rect":0.634,"solidity":0.857,"ground_likeness":0.006,"parcel_id":"TMP-VI-0018"},"geometry":{"type":"Polygon","coordinates":[[[77.1005521,22.7998372],[77.1005572,22.7997936],[77.100526,22.7997904],[77.1005172,22.7998661],[77.1005213,22.7998722],[77.1005846,22.7998786],[77.100589,22.7998409],[77.1005521,22.7998372]]]}},{"type":"Feature","properties":{"building_id":"B-0019","area_m2":30.1,"vertices":5,"sam_quality":0.936,"veg_frac":0.0,"sat":0.666,"val":0.375,"hue":14.0,"rect":0.771,"solidity":0.976,"ground_likeness":0.0,"parcel_id":"TMP-VI-0019"},"geometry":{"type":"Polygon","coordinates":[[[77.1002603,22.7998047],[77.1002214,22.7998017],[77.1002172,22.7998473],[77.100231,22.799876],[77.1002537,22.7998778],[77.1002603,22.7998047]]]}},{"type":"Feature","properties":{"building_id":"B-0020","area_m2":31.9,"vertices":5,"sam_quality":0.948,"veg_frac":0.0,"sat":0.557,"val":0.4,"hue":18.0,"rect":0.947,"solidity":1.016,"ground_likeness":0.0,"parcel_id":"TMP-VI-0020"},"geometry":{"type":"Polygon","coordinates":[[[77.1001595,22.7997924],[77.1001566,22.7998451],[77.1001632,22.799855],[77.1002016,22.7998568],[77.100205,22.7997946],[77.1001595,22.7997924]]]}},{"type":"Feature","properties":{"building_id":"B-0021","area_m2":13.8,"vertices":7,"sam_quality":0.929,"veg_frac":0.0,"sat":0.822,"val":0.456,"hue":24.0,"rect":0.91,"solidity":1.006,"ground_likeness":0.0,"parcel_id":"TMP-VI-0021"},"geometry":{"type":"Polygon","coordinates":[[[77.1005823,22.7998181],[77.1005823,22.7997929],[77.100557,22.799793],[77.1005571,22.7998289],[77.1005691,22.7998398],[77.1005876,22.7998398],[77.1005876,22.7998245],[77.1005823,22.7998181]]]}},{"type":"Feature","properties":{"building_id":"B-0022","area_m2":23.3,"vertices":5,"sam_quality":0.929,"veg_frac":0.098,"sat":0.289,"val":0.576,"hue":34.0,"rect":0.952,"solidity":1.046,"ground_likeness":0.0,"parcel_id":"TMP-VI-0023"},"geometry":{"type":"Polygon","coordinates":[[[77.1007876,22.7997806],[77.1007872,22.7998146],[77.1008025,22.7998238],[77.1008362,22.7998242],[77.1008368,22.7997812],[77.1007876,22.7997806]]]}},{"type":"Feature","properties":{"building_id":"B-0023","area_m2":51.8,"vertices":17,"sam_quality":0.912,"veg_frac":0.0,"sat":0.339,"val":0.775,"hue":26.0,"rect":0.789,"solidity":0.923,"ground_likeness":0.0,"parcel_id":"TMP-VI-0022"},"geometry":{"type":"Polygon","coordinates":[[[77.100346,22.7998257],[77.1003478,22.7998166],[77.1003536,22.7998148],[77.1003554,22.7998057],[77.1003631,22.7998002],[77.1003626,22.7997659],[77.1003236,22.7997664],[77.1003158,22.7997611],[77.1002769,22.7997652],[77.1002753,22.7997869],[77.1002796,22.7998175],[77.1002933,22.799821],[77.1003049,22.7998154],[77.1003205,22.7998152],[77.1003281,22.7998024],[77.1003305,22.7998313],[77.1003402,22.7998312],[77.100346,22.7998257]]]}},{"type":"Feature","properties":{"building_id":"B-0024","area_m2":16.9,"vertices":8,"sam_quality":0.929,"veg_frac":0.404,"sat":0.527,"val":0.698,"hue":42.0,"rect":0.876,"solidity":1.056,"ground_likeness":0.0,"parcel_id":"TMP-VI-0027"},"geometry":{"type":"Polygon","coordinates":[[[77.100871,22.7997541],[77.1008651,22.7997452],[77.1008496,22.7997446],[77.100849,22.7997584],[77.1008393,22.7997746],[77.1008381,22.799801],[77.1008607,22.7998019],[77.1008692,22.7997938],[77.100871,22.7997541]]]}},{"type":"Feature","properties":{"building_id":"B-0025","area_m2":43.3,"vertices":4,"sam_quality":0.975,"veg_frac":0.0,"sat":0.361,"val":0.849,"hue":30.0,"rect":0.913,"solidity":1.008,"ground_likeness":0.0,"parcel_id":"TMP-VI-0025"},"geometry":{"type":"Polygon","coordinates":[[[77.100413,22.7997294],[77.100365,22.7997333],[77.1003725,22.7998121],[77.1004204,22.7998082],[77.100413,22.7997294]]]}},{"type":"Feature","properties":{"building_id":"B-0026","area_m2":21.8,"vertices":8,"sam_quality":0.948,"veg_frac":0.0,"sat":0.35,"val":0.682,"hue":30.0,"rect":0.865,"solidity":1.013,"ground_likeness":0.0,"parcel_id":"TMP-VI-0026"},"geometry":{"type":"Polygon","coordinates":[[[77.100592,22.7997625],[77.1005801,22.7997517],[77.1005492,22.7997531],[77.1005498,22.7997658],[77.1005317,22.7997666],[77.1005327,22.7997855],[77.100544,22.7997905],[77.1005933,22.7997883],[77.100592,22.7997625]]]}},{"type":"Feature","properties":{"building_id":"B-0027","area_m2":60.4,"vertices":7,"sam_quality":0.912,"veg_frac":0.0,"sat":0.411,"val":0.676,"hue":26.0,"rect":0.982,"solidity":1.036,"ground_likeness":0.0,"parcel_id":"TMP-VI-0024"},"geometry":{"type":"Polygon","coordinates":[[[77.1000154,22.7998243],[77.1000374,22.7998128],[77.1000559,22.799812],[77.1000514,22.799724],[77.0999958,22.7997264],[77.0999966,22.7997752],[77.0999991,22.7998251],[77.1000154,22.7998243]]]}},{"type":"Feature","properties":{"building_id":"B-0028","area_m2":79.9,"vertices":22,"sam_quality":0.877,"veg_frac":0.0,"sat":0.353,"val":0.539,"hue":28.0,"rect":0.807,"solidity":0.959,"ground_likeness":0.0,"parcel_id":"TMP-VI-0028"},"geometry":{"type":"Polygon","coordinates":[[[77.1001391,22.7998013],[77.100145,22.7998012],[77.1001584,22.7997866],[77.1001858,22.7997953],[77.1002052,22.7997932],[77.100211,22.7997877],[77.1002165,22.7997678],[77.100216,22.7997317],[77.1002062,22.7997264],[77.1001887,22.7997284],[77.1001847,22.7997249],[77.100175,22.799725],[77.1001692,22.7997287],[77.1001613,22.7997252],[77.100142,22.7997309],[77.1001402,22.7997399],[77.1001226,22.7997401],[77.100113,22.7997457],[77.1001035,22.7997639],[77.100104,22.7997964],[77.1001236,22.7998051],[77.1001373,22.799805],[77.1001391,22.7998013]]]}},{"type":"Feature","properties":{"building_id":"B-0029","area_m2":27.9,"vertices":8,"sam_quality":0.896,"veg_frac":0.0,"sat":0.471,"val":0.388,"hue":30.0,"rect":0.888,"solidity":1.014,"ground_likeness":0.0,"parcel_id":"TMP-VI-0029"},"geometry":{"type":"Polygon","coordinates":[[[77.1002722,22.7997676],[77.1002786,22.7997599],[77.1002785,22.7997309],[77.1002649,22.7997257],[77.1002373,22.7997259],[77.1002376,22.7997745],[77.1002457,22.7997926],[77.1002723,22.7997925],[77.1002722,22.7997676]]]}},{"type":"Feature","properties":{"building_id":"B-0030","area_m2":18.3,"vertices":8,"sam_quality":0.875,"veg_frac":0.017,"sat":0.754,"val":0.371,"hue":34.0,"rect":0.676,"solidity":0.87,"ground_likeness":0.0,"parcel_id":"TMP-VI-0038"},"geometry":{"type":"Polygon","coordinates":[[[77.1008504,22.7997394],[77.1008359,22.7997381],[77.1008381,22.7997185],[77.1008334,22.799708],[77.1008235,22.799707],[77.1008156,22.7997786],[77.1008358,22.7997805],[77.1008482,22.7997597],[77.1008504,22.7997394]]]}},{"type":"Feature","properties":{"building_id":"B-0031","area_m2":16.6,"vertices":6,"sam_quality":0.959,"veg_frac":0.0,"sat":0.688,"val":0.453,"hue":18.0,"rect":1.051,"solidity":1.093,"ground_likeness":0.0,"parcel_id":"TMP-VI-0032"},"geometry":{"type":"Polygon","coordinates":[[[77.1003623,22.7997354],[77.1003106,22.7997356],[77.1003107,22.7997541],[77.1003138,22.7997611],[77.1003213,22.7997644],[77.1003624,22.7997643],[77.1003623,22.7997354]]]}},{"type":"Feature","properties":{"building_id":"B-0032","area_m2":48.4,"vertices":5,"sam_quality":0.924,"veg_frac":0.0,"sat":0.816,"val":0.482,"hue":26.0,"rect":0.879,"solidity":0.986,"ground_likeness":0.0,"parcel_id":"TMP-VI-0035"},"geometry":{"type":"Polygon","coordinates":[[[77.1007323,22.7997772],[77.100736,22.7997012],[77.1006886,22.7996992],[77.1006841,22.7997909],[77.100719,22.7997924],[77.1007323,22.7997772]]]}},{"type":"Feature","properties":{"building_id":"B-0033","area_m2":9.4,"vertices":7,"sam_quality":0.928,"veg_frac":0.0,"sat":0.578,"val":0.599,"hue":24.0,"rect":0.918,"solidity":1.076,"ground_likeness":0.0,"parcel_id":"TMP-VI-0033"},"geometry":{"type":"Polygon","coordinates":[[[77.1004557,22.7997412],[77.1004597,22.7997315],[77.1004327,22.7997332],[77.1004319,22.7997213],[77.1004137,22.7997224],[77.1004157,22.7997497],[77.1004452,22.7997479],[77.1004557,22.7997412]]]}},{"type":"Feature","properties":{"building_id":"B-0034","area_m2":24.9,"vertices":6,"sam_quality":0.962,"veg_frac":0.002,"sat":0.312,"val":0.591,"hue":30.0,"rect":0.673,"solidity":0.903,"ground_likeness":0.0,"parcel_id":"TMP-VI-0030"},"geometry":{"type":"Polygon","coordinates":[[[77.1004921,22.7997111],[77.1004324,22.7997168],[77.1004343,22.7997335],[77.10046,22.7997311],[77.1004638,22.7997656],[77.1004978,22.7997623],[77.1004921,22.7997111]]]}},{"type":"Feature","properties":{"building_id":"B-0035","area_m2":30.9,"vertices":5,"sam_quality":0.867,"veg_frac":0.0,"sat":0.458,"val":0.514,"hue":26.0,"rect":0.84,"solidity":1.018,"ground_likeness":0.0,"parcel_id":"TMP-VI-0034"},"geometry":{"type":"Polygon","coordinates":[[[77.1005479,22.7997538],[77.100542,22.7997022],[77.1004974,22.7997066],[77.1005046,22.7997704],[77.1005219,22.7997687],[77.1005479,22.7997538]]]}},{"type":"Feature","properties":{"building_id":"B-0036","area_m2":25.2,"vertices":4,"sam_quality":0.933,"veg_frac":0.0,"sat":0.633,"val":0.233,"hue":36.0,"rect":0.85,"solidity":1.034,"ground_likeness":0.35,"parcel_id":"TMP-VI-0031"},"geometry":{"type":"Polygon","coordinates":[[[77.1005948,22.7997021],[77.1005913,22.7997615],[77.1006232,22.7997787],[77.1006276,22.7997037],[77.1005948,22.7997021]]]}},{"type":"Feature","properties":{"building_id":"B-0037","area_m2":43.0,"vertices":14,"sam_quality":0.958,"veg_frac":0.003,"sat":0.417,"val":0.479,"hue":26.0,"rect":0.728,"solidity":0.926,"ground_likeness":0.0,"parcel_id":"TMP-VI-0036"},"geometry":{"type":"Polygon","coordinates":[[[77.1007989,22.7997655],[77.1008099,22.7997221],[77.1008096,22.7996986],[77.1008056,22.799695],[77.1007706,22.7996973],[77.100761,22.7997046],[77.1007633,22.7997335],[77.1007596,22.7997426],[77.1007382,22.7997447],[77.1007384,22.7997573],[77.1007463,22.7997626],[77.1007463,22.799768],[77.100762,22.7997714],[77.1007931,22.799771],[77.1007989,22.7997655]]]}},{"type":"Feature","properties":{"building_id":"B-0038","area_m2":25.7,"vertices":5,"sam_quality":0.871,"veg_frac":0.28,"sat":0.701,"val":0.335,"hue":46.0,"rect":0.886,"solidity":1.016,"ground_likeness":0.35,"parcel_id":"TMP-VI-0037"},"geometry":{"type":"Polygon","coordinates":[[[77.1005478,22.7996955],[77.1005454,22.7997464],[77.1005677,22.7997473],[77.1005877,22.7997563],[77.1005905,22.7996973],[77.1005478,22.7996955]]]}},{"type":"Feature","properties":{"building_id":"B-0039","area_m2":28.7,"vertices":12,"sam_quality":0.964,"veg_frac":0.331,"sat":0.871,"val":0.536,"hue":56.0,"rect":0.766,"solidity":0.996,"ground_likeness":0.0,"parcel_id":"TMP-VI-0039"},"geometry":{"type":"Polygon","coordinates":[[[77.1001304,22.7997364],[77.100138,22.7997273],[77.1001377,22.7997074],[77.1001258,22.7996913],[77.1001141,22.7996915],[77.1001007,22.7997061],[77.1000793,22.79971],[77.1000659,22.7997228],[77.100066,22.7997319],[77.10007,22.7997354],[77.1000993,22.7997423],[77.1001188,22.799742],[77.1001304,22.7997364]]]}},{"type":"Feature","properties":{"building_id":"B-0040","area_m2":35.8,"vertices":4,"sam_quality":0.964,"veg_frac":0.022,"sat":0.363,"val":0.448,"hue":28.0,"rect":0.875,"solidity":1.014,"ground_likeness":0.0,"parcel_id":"TMP-VI-0040"},"geometry":{"type":"Polygon","coordinates":[[[77.1009192,22.7996417],[77.1009122,22.7997396],[77.1009442,22.7997416],[77.1009512,22.7996437],[77.1009192,22.7996417]]]}},{"type":"Feature","properties":{"building_id":"B-0041","area_m2":61.0,"vertices":7,"sam_quality":0.901,"veg_frac":0.265,"sat":0.571,"val":0.61,"hue":32.0,"rect":0.751,"solidity":0.911,"ground_likeness":0.0,"parcel_id":"TMP-VI-0043"},"geometry":{"type":"Polygon","coordinates":[[[77.1004006,22.7996699],[77.100359,22.7996697],[77.1003593,22.7996318],[77.1003116,22.7996315],[77.1003111,22.7997101],[77.100385,22.7997105],[77.1004004,22.7997011],[77.1004006,22.7996699]]]}},{"type":"Feature","properties":{"building_id":"B-0042","area_m2":36.1,"vertices":4,"sam_quality":0.925,"veg_frac":0.0,"sat":0.487,"val":0.531,"hue":28.0,"rect":0.913,"solidity":1.019,"ground_likeness":0.0,"parcel_id":"TMP-VI-0041"},"geometry":{"type":"Polygon","coordinates":[[[77.1006836,22.7996437],[77.1006815,22.7996887],[77.1007518,22.7996915],[77.1007539,22.7996465],[77.1006836,22.7996437]]]}},{"type":"Feature","properties":{"building_id":"B-0043","area_m2":26.6,"vertices":5,"sam_quality":0.991,"veg_frac":0.007,"sat":0.879,"val":0.619,"hue":208.0,"rect":1.004,"solidity":1.064,"ground_likeness":0.0,"parcel_id":"TMP-VI-0046"},"geometry":{"type":"Polygon","coordinates":[[[77.1004376,22.7996291],[77.1003882,22.7996287],[77.1003879,22.7996678],[77.1004076,22.7996784],[77.1004372,22.7996786],[77.1004376,22.7996291]]]}},{"type":"Feature","properties":{"building_id":"B-0044","area_m2":61.7,"vertices":8,"sam_quality":0.961,"veg_frac":0.017,"sat":0.431,"val":0.665,"hue":28.0,"rect":0.842,"solidity":0.954,"ground_likeness":0.0,"parcel_id":"TMP-VI-0044"},"geometry":{"type":"Polygon","coordinates":[[[77.1006182,22.799665],[77.1006178,22.7996433],[77.1005818,22.7996438],[77.1005814,22.7996185],[77.1005133,22.7996194],[77.1005141,22.7996763],[77.1005171,22.7996808],[77.1006106,22.7996795],[77.1006182,22.799665]]]}},{"type":"Feature","properties":{"building_id":"B-0045","area_m2":27.3,"vertices":4,"sam_quality":0.989,"veg_frac":0.0,"sat":0.367,"val":0.631,"hue":28.0,"rect":0.918,"solidity":1.03,"ground_likeness":0.0,"parcel_id":"TMP-VI-0047"},"geometry":{"type":"Polygon","coordinates":[[[77.1006251,22.7996164],[77.100617,22.7996793],[77.1006547,22.7996835],[77.1006628,22.7996206],[77.1006251,22.7996164]]]}},{"type":"Feature","properties":{"building_id":"B-0046","area_m2":14.0,"vertices":9,"sam_quality":0.93,"veg_frac":0.403,"sat":0.577,"val":0.411,"hue":69.0,"rect":0.774,"solidity":1.007,"ground_likeness":0.0,"parcel_id":"TMP-VI-0042"},"geometry":{"type":"Polygon","coordinates":[[[77.1010194,22.7996459],[77.1010343,22.7996398],[77.1010347,22.7996253],[77.1010276,22.7996222],[77.1010024,22.7996215],[77.1010021,22.7996321],[77.1009925,22.7996413],[77.1009919,22.7996613],[77.1010189,22.7996619],[77.1010194,22.7996459]]]}},{"type":"Feature","properties":{"building_id":"B-0047","area_m2":126.7,"vertices":6,"sam_quality":0.953,"veg_frac":0.415,"sat":0.7,"val":0.372,"hue":58.0,"rect":0.89,"solidity":0.988,"ground_likeness":0.0,"parcel_id":"TMP-VI-0045"},"geometry":{"type":"Polygon","coordinates":[[[77.1000414,22.7997224],[77.1000771,22.7996922],[77.100071,22.7995742],[77.0999935,22.7995777],[77.0999946,22.7996506],[77.0999985,22.7997243],[77.1000414,22.7997224]]]}},{"type":"Feature","properties":{"building_id":"B-0048","area_m2":14.6,"vertices":4,"sam_quality":0.944,"veg_frac":0.0,"sat":0.58,"val":0.442,"hue":36.0,"rect":0.98,"solidity":1.07,"ground_likeness":0.0,"parcel_id":"TMP-VI-0048"},"geometry":{"type":"Polygon","coordinates":[[[77.1004636,22.7996202],[77.1004628,22.799651],[77.1005043,22.799652],[77.1005051,22.7996212],[77.1004636,22.7996202]]]}},{"type":"Feature","properties":{"building_id":"B-0049","area_m2":14.4,"vertices":4,"sam_quality":0.961,"veg_frac":0.0,"sat":0.581,"val":0.28,"hue":13.0,"rect":1.005,"solidity":1.074,"ground_likeness":0.35,"parcel_id":"TMP-VI-0050"},"geometry":{"type":"Polygon","coordinates":[[[77.1009566,22.7996062],[77.1009541,22.799635],[77.1009977,22.7996383],[77.1010003,22.7996095],[77.1009566,22.7996062]]]}},{"type":"Feature","properties":{"building_id":"B-0050","area_m2":16.2,"vertices":9,"sam_quality":0.877,"veg_frac":0.0,"sat":0.617,"val":0.809,"hue":26.0,"rect":0.766,"solidity":1.022,"ground_likeness":0.0,"parcel_id":"TMP-VI-0051"},"geometry":{"type":"Polygon","coordinates":[[[77.1001352,22.7996487],[77.1001367,22.799615],[77.100134,22.7996114],[77.1001344,22.7996012],[77.1001281,22.7995969],[77.100112,22.7995962],[77.1001099,22.799642],[77.1001174,22.7996587],[77.100127,22.7996591],[77.1001352,22.7996487]]]}},{"type":"Feature","properties":{"building_id":"B-0051","area_m2":52.8,"vertices":4,"sam_quality":0.97,"veg_frac":0.0,"sat":0.743,"val":0.479,"hue":20.0,"rect":0.967,"solidity":1.029,"ground_likeness":0.0,"parcel_id":"TMP-VI-0049"},"geometry":{"type":"Polygon","coordinates":[[[77.1008481,22.7995783],[77.1007762,22.7995792],[77.1007772,22.7996438],[77.100849,22.7996429],[77.1008481,22.7995783]]]}},{"type":"Feature","properties":{"building_id":"B-0052","area_m2":49.1,"vertices":6,"sam_quality":0.937,"veg_frac":0.202,"sat":0.679,"val":0.609,"hue":48.0,"rect":0.86,"solidity":0.995,"ground_likeness":0.0,"parcel_id":"TMP-VI-0052"},"geometry":{"type":"Polygon","coordinates":[[[77.100726,22.7995731],[77.1007242,22.7995895],[77.1007093,22.799599],[77.1007048,22.7996408],[77.1007711,22.799647],[77.1007786,22.799578],[77.100726,22.7995731]]]}},{"type":"Feature","properties":{"building_id":"B-0053","area_m2":95.0,"vertices":5,"sam_quality":0.957,"veg_frac":0.0,"sat":0.35,"val":0.654,"hue":26.0,"rect":0.941,"solidity":1.011,"ground_likeness":0.0,"parcel_id":"TMP-VI-0053"},"geometry":{"type":"Polygon","coordinates":[[[77.1008712,22.7995566],[77.1008497,22.7995875],[77.1008484,22.7996398],[77.1009521,22.799642],[77.1009542,22.7995584],[77.1008712,22.7995566]]]}},{"type":"Feature","properties":{"building_id":"B-0054","area_m2":52.8,"vertices":23,"sam_quality":0.943,"veg_frac":0.0,"sat":0.697,"val":0.342,"hue":18.0,"rect":0.812,"solidity":0.939,"ground_likeness":0.35,"parcel_id":"TMP-VI-0054"},"geometry":{"type":"Polygon","coordinates":[[[77.1006216,22.7996379],[77.1006215,22.799627],[77.1006252,22.7996179],[77.100633,22.7996142],[77.1006402,22.7995762],[77.1006477,22.7995599],[77.1006454,22.7995346],[77.1006376,22.7995347],[77.1006336,22.7995312],[77.1006044,22.7995315],[77.1006065,22.7995405],[77.1006104,22.7995405],[77.1006105,22.7995477],[77.1006066,22.7995441],[77.1006027,22.799546],[77.1006047,22.7995514],[77.1006106,22.7995513],[77.1006088,22.799564],[77.1006031,22.7995731],[77.1005914,22.7995714],[77.100584,22.7995986],[77.1005886,22.7996419],[77.1006158,22.7996415],[77.1006216,22.7996379]]]}},{"type":"Feature","properties":{"building_id":"B-0055","area_m2":14.6,"vertices":5,"sam_quality":0.924,"veg_frac":0.0,"sat":0.68,"val":0.165,"hue":28.0,"rect":0.825,"solidity":1.023,"ground_likeness":0.35,"parcel_id":"TMP-VI-0056"},"geometry":{"type":"Polygon","coordinates":[[[77.1007925,22.7995174],[77.1007851,22.7995021],[77.1007752,22.7995092],[77.1007667,22.7995812],[77.1007857,22.7995751],[77.1007925,22.7995174]]]}},{"type":"Feature","properties":{"building_id":"B-0056","area_m2":248.1,"vertices":39,"sam_quality":0.867,"veg_frac":0.0,"sat":0.606,"val":0.439,"hue":18.0,"rect":0.759,"solidity":0.895,"ground_likeness":0.0,"parcel_id":"TMP-VI-0055"},"geometry":{"type":"Polygon","coordinates":[[[77.1010719,22.799659],[77.1010737,22.7996518],[77.1010776,22.7996517],[77.1010756,22.7996445],[77.1010794,22.7996427],[77.1010774,22.7996373],[77.1010813,22.7996354],[77.1010812,22.7996282],[77.101085,22.7996263],[77.1010868,22.7996119],[77.1010945,22.7996081],[77.1010982,22.7995991],[77.1010975,22.7995503],[77.1011031,22.7995376],[77.1011048,22.7995195],[77.1011106,22.7995158],[77.1011181,22.7994941],[77.1011177,22.7994688],[77.1011077,22.7994563],[77.1009909,22.7994578],[77.1009871,22.7994633],[77.1009819,22.7995031],[77.1009827,22.7995591],[77.1009654,22.7995737],[77.1009638,22.7995954],[77.1009718,22.7996062],[77.1009971,22.7996076],[77.1010089,22.7996183],[77.1010519,22.7996268],[77.1010522,22.799643],[77.1010463,22.7996413],[77.1010347,22.7996487],[77.1010269,22.7996488],[77.101027,22.7996542],[77.1010348,22.7996541],[77.1010291,22.7996614],[77.1010349,22.7996613],[77.1010369,22.7996649],[77.1010525,22.7996647],[77.1010719,22.799659]]]}},{"type":"Feature","properties":{"building_id":"B-0057","area_m2":18.6,"vertices":4,"sam_quality":0.969,"veg_frac":0.0,"sat":0.292,"val":0.973,"hue":34.0,"rect":0.981,"solidity":1.067,"ground_likeness":0.0,"parcel_id":"TMP-VI-0058"},"geometry":{"type":"Polygon","coordinates":[[[77.1009003,22.7995048],[77.1008693,22.7995039],[77.1008674,22.7995564],[77.1008984,22.7995574],[77.1009003,22.7995048]]]}},{"type":"Feature","properties":{"building_id":"B-0058","area_m2":19.7,"vertices":5,"sam_quality":0.972,"veg_frac":0.0,"sat":0.601,"val":0.41,"hue":14.0,"rect":0.979,"solidity":1.055,"ground_likeness":0.0,"parcel_id":"TMP-VI-0059"},"geometry":{"type":"Polygon","coordinates":[[[77.1009812,22.7995196],[77.1009286,22.7995173],[77.1009269,22.7995506],[77.1009691,22.7995524],[77.1009797,22.7995486],[77.1009812,22.7995196]]]}},{"type":"Feature","properties":{"building_id":"B-0059","area_m2":35.5,"vertices":4,"sam_quality":0.931,"veg_frac":0.0,"sat":0.413,"val":0.735,"hue":26.0,"rect":0.881,"solidity":0.999,"ground_likeness":0.0,"parcel_id":"TMP-VI-0060"},"geometry":{"type":"Polygon","coordinates":[[[77.1005593,22.7994716],[77.1005538,22.7995841],[77.1005816,22.7995853],[77.1005871,22.7994728],[77.1005593,22.7994716]]]}},{"type":"Feature","properties":{"building_id":"B-0060","area_m2":71.9,"vertices":7,"sam_quality":0.926,"veg_frac":0.239,"sat":0.544,"val":0.254,"hue":42.0,"rect":0.882,"solidity":0.994,"ground_likeness":0.35,"parcel_id":"TMP-VI-0064"},"geometry":{"type":"Polygon","coordinates":[[[77.1000425,22.7995395],[77.1000746,22.7995398],[77.1000754,22.7994745],[77.0999931,22.7994736],[77.0999926,22.7995152],[77.0999933,22.7995615],[77.1000276,22.7995619],[77.1000425,22.7995395]]]}},{"type":"Feature","properties":{"building_id":"B-0061","area_m2":23.7,"vertices":12,"sam_quality":0.895,"veg_frac":0.087,"sat":0.673,"val":0.204,"hue":38.0,"rect":0.807,"solidity":0.998,"ground_likeness":0.35,"parcel_id":"TMP-VI-0057"},"geometry":{"type":"Polygon","coordinates":[[[77.1003883,22.7995362],[77.1003882,22.7995308],[77.1004037,22.7995252],[77.1004251,22.7995231],[77.100425,22.799514],[77.1004152,22.7995106],[77.1004151,22.7995033],[77.1004111,22.7994998],[77.1003507,22.7995006],[77.1003511,22.799524],[77.1003708,22.7995382],[77.1003844,22.799538],[77.1003883,22.7995362]]]}},{"type":"Feature","properties":{"building_id":"B-0062","area_m2":36.4,"vertices":4,"sam_quality":0.978,"veg_frac":0.0,"sat":0.417,"val":0.86,"hue":28.0,"rect":0.792,"solidity":0.973,"ground_likeness":0.0,"parcel_id":"TMP-VI-0061"},"geometry":{"type":"Polygon","coordinates":[[[77.1006612,22.7994582],[77.1006543,22.7995527],[77.100688,22.7995548],[77.1006949,22.7994603],[77.1006612,22.7994582]]]}},{"type":"Feature","properties":{"building_id":"B-0063","area_m2":80.6,"vertices":4,"sam_quality":0.97,"veg_frac":0.0,"sat":0.355,"val":0.696,"hue":28.0,"rect":0.868,"solidity":0.993,"ground_likeness":0.0,"parcel_id":"TMP-VI-0062"},"geometry":{"type":"Polygon","coordinates":[[[77.1007296,22.7994382],[77.1007153,22.7995641],[77.100771,22.7995695],[77.1007853,22.7994437],[77.1007296,22.7994382]]]}},{"type":"Feature","properties":{"building_id":"B-0064","area_m2":110.6,"vertices":21,"sam_quality":0.873,"veg_frac":0.0,"sat":0.496,"val":0.556,"hue":22.0,"rect":0.865,"solidity":0.95,"ground_likeness":0.0,"parcel_id":"TMP-VI-0063"},"geometry":{"type":"Polygon","coordinates":[[[77.1008329,22.7995719],[77.1008388,22.7995718],[77.1008387,22.7995682],[77.1008309,22.7995683],[77.1008289,22.7995629],[77.1008386,22.7995628],[77.1008366,22.7995574],[77.1008424,22.7995537],[77.1008619,22.7995534],[77.1008673,22.7995281],[77.100866,22.7994396],[77.1008328,22.7994346],[77.1007938,22.7994351],[77.1007902,22.7994496],[77.1007908,22.7994894],[77.1007966,22.7994911],[77.1007967,22.7994965],[77.1007918,22.7995544],[77.1007843,22.7995743],[77.1007863,22.7995779],[77.100831,22.7995755],[77.1008329,22.7995719]]]}},{"type":"Feature","properties":{"building_id":"B-0065","area_m2":30.3,"vertices":7,"sam_quality":0.955,"veg_frac":0.0,"sat":0.387,"val":0.457,"hue":24.0,"rect":0.841,"solidity":1.018,"ground_likeness":0.0,"parcel_id":"TMP-VI-0065"},"geometry":{"type":"Polygon","coordinates":[[[77.1006653,22.7994591],[77.1006305,22.7994547],[77.1006266,22.7994811],[77.1006203,22.7994884],[77.100615,22.7995244],[77.1006488,22.7995288],[77.1006566,22.7995175],[77.1006653,22.7994591]]]}},{"type":"Feature","properties":{"building_id":"B-0066","area_m2":31.8,"vertices":5,"sam_quality":0.941,"veg_frac":0.0,"sat":0.367,"val":0.661,"hue":26.0,"rect":0.894,"solidity":1.03,"ground_likeness":0.0,"parcel_id":"TMP-VI-0067"},"geometry":{"type":"Polygon","coordinates":[[[77.1009382,22.7994458],[77.1009333,22.7994516],[77.1009266,22.7995115],[77.1009686,22.7995156],[77.100976,22.7994494],[77.1009382,22.7994458]]]}},{"type":"Feature","properties":{"building_id":"B-0067","area_m2":30.0,"vertices":6,"sam_quality":0.941,"veg_frac":0.0,"sat":0.541,"val":0.587,"hue":26.0,"rect":0.962,"solidity":1.036,"ground_likeness":0.0,"parcel_id":"TMP-VI-0066"},"geometry":{"type":"Polygon","coordinates":[[[77.1009125,22.7994923],[77.1009262,22.7994921],[77.1009255,22.7994488],[77.100872,22.7994494],[77.1008727,22.7995018],[77.1009029,22.7995014],[77.1009125,22.7994923]]]}},{"type":"Feature","properties":{"building_id":"B-0068","area_m2":279.9,"vertices":16,"sam_quality":0.967,"veg_frac":0.005,"sat":0.386,"val":0.63,"hue":28.0,"rect":0.917,"solidity":0.986,"ground_likeness":0.0,"parcel_id":"TMP-VI-0068"},"geometry":{"type":"Polygon","coordinates":[[[77.1005614,22.7993949],[77.1003667,22.7993974],[77.1003571,22.7994084],[77.1003512,22.7994048],[77.1003533,22.799412],[77.1003494,22.7994157],[77.1003144,22.7994198],[77.1002952,22.7994327],[77.1002935,22.799449],[77.1002974,22.7994543],[77.1002979,22.7994868],[77.1003077,22.7994885],[77.1003137,22.7994956],[77.1005123,22.799493],[77.1005572,22.7994978],[77.1005629,22.7994942],[77.1005614,22.7993949]]]}},{"type":"Feature","properties":{"building_id":"B-0069","area_m2":32.0,"vertices":6,"sam_quality":0.895,"veg_frac":0.0,"sat":0.49,"val":0.425,"hue":20.0,"rect":0.889,"solidity":1.016,"ground_likeness":0.0,"parcel_id":"TMP-VI-0069"},"geometry":{"type":"Polygon","coordinates":[[[77.1006281,22.799436],[77.1006023,22.7994205],[77.100569,22.7994192],[77.1005666,22.7994687],[77.1006275,22.7994712],[77.1006292,22.799436],[77.1006281,22.799436]]]}},{"type":"Feature","properties":{"building_id":"B-0070","area_m2":68.9,"vertices":5,"sam_quality":0.988,"veg_frac":0.0,"sat":0.379,"val":0.694,"hue":28.0,"rect":0.997,"solidity":1.03,"ground_likeness":0.0,"parcel_id":"TMP-VI-0070"},"geometry":{"type":"Polygon","coordinates":[[[77.1000813,22.799404],[77.0999918,22.7994031],[77.0999914,22.7994376],[77.0999919,22.7994709],[77.1000805,22.7994718],[77.1000813,22.799404]]]}},{"type":"Feature","properties":{"building_id":"B-0071","area_m2":29.6,"vertices":6,"sam_quality":0.864,"veg_frac":0.0,"sat":0.488,"val":0.67,"hue":28.0,"rect":0.701,"solidity":0.925,"ground_likeness":0.0,"parcel_id":"TMP-VI-0071"},"geometry":{"type":"Polygon","coordinates":[[[77.1006966,22.7994209],[77.1007249,22.7994213],[77.1007254,22.7993935],[77.1006668,22.7993926],[77.1006658,22.7994527],[77.100696,22.7994531],[77.1006966,22.7994209]]]}},{"type":"Feature","properties":{"building_id":"B-0072","area_m2":45.4,"vertices":4,"sam_quality":0.971,"veg_frac":0.0,"sat":0.77,"val":0.421,"hue":22.0,"rect":0.942,"solidity":1.02,"ground_likeness":0.0,"parcel_id":"TMP-VI-0072"},"geometry":{"type":"Polygon","coordinates":[[[77.1010097,22.7993901],[77.1010119,22.7994372],[77.1010964,22.7994337],[77.1010942,22.7993866],[77.1010097,22.7993901]]]}},{"type":"Feature","properties":{"building_id":"B-0073","area_m2":25.7,"vertices":6,"sam_quality":0.98,"veg_frac":0.112,"sat":0.941,"val":0.506,"hue":54.0,"rect":0.878,"solidity":1.059,"ground_likeness":0.0,"parcel_id":"TMP-VI-0073"},"geometry":{"type":"Polygon","coordinates":[[[77.1011016,22.7994453],[77.1011406,22.7994409],[77.1011405,22.7994303],[77.1011346,22.7993855],[77.1011326,22.7993855],[77.1010943,22.7993898],[77.1011016,22.7994453]]]}},{"type":"Feature","properties":{"building_id":"B-0074","area_m2":36.2,"vertices":4,"sam_quality":0.91,"veg_frac":0.0,"sat":0.538,"val":0.453,"hue":28.0,"rect":0.911,"solidity":1.022,"ground_likeness":0.0,"parcel_id":"TMP-VI-0074"},"geometry":{"type":"Polygon","coordinates":[[[77.1001337,22.799402],[77.1001351,22.7994317],[77.100242,22.7994274],[77.1002405,22.7993976],[77.1001337,22.799402]]]}},{"type":"Feature","properties":{"building_id":"B-0075","area_m2":15.3,"vertices":6,"sam_quality":0.935,"veg_frac":0.254,"sat":0.775,"val":0.452,"hue":50.0,"rect":0.932,"solidity":1.069,"ground_likeness":0.0,"parcel_id":"TMP-VI-0075"},"geometry":{"type":"Polygon","coordinates":[[[77.1009852,22.7993907],[77.100941,22.7993884],[77.1009398,22.7994082],[77.1009454,22.7994151],[77.1009597,22.7994222],[77.1009832,22.7994234],[77.1009852,22.7993907]]]}}]}