{"type":"FeatureCollection","features":[{"type":"Feature","properties":{"issue_id":"E-001","type":"tiny_parcel","severity":"info","message":"TMP-VI-0032 is only 17.2 m2","fix":"Verify on the ground - possible fragment","parcel_ids":"TMP-VI-0032","area_m2":17.18},"geometry":{"type":"Point","coordinates":[77.1003374,22.7997518]}},{"type":"Feature","properties":{"issue_id":"E-002","type":"tiny_parcel","severity":"info","message":"TMP-VI-0033 is only 15.6 m2","fix":"Verify on the ground - possible fragment","parcel_ids":"TMP-VI-0033","area_m2":15.56},"geometry":{"type":"Point","coordinates":[77.1004369,22.7997459]}},{"type":"Feature","properties":{"issue_id":"E-003","type":"tiny_parcel","severity":"info","message":"TMP-VI-0048 is only 17.0 m2","fix":"Verify on the ground - possible fragment","parcel_ids":"TMP-VI-0048","area_m2":17.02},"geometry":{"type":"Point","coordinates":[77.1004868,22.7996387]}},{"type":"Feature","properties":{"issue_id":"E-004","type":"tiny_parcel","severity":"info","message":"TMP-VI-0051 is only 16.4 m2","fix":"Verify on the ground - possible fragment","parcel_ids":"TMP-VI-0051","area_m2":16.44},"geometry":{"type":"Point","coordinates":[77.1001243,22.7996254]}},{"type":"Feature","properties":{"issue_id":"E-005","type":"tiny_parcel","severity":"info","message":"TMP-VI-0056 is only 17.2 m2","fix":"Verify on the ground - possible fragment","parcel_ids":"TMP-VI-0056","area_m2":17.24},"geometry":{"type":"Point","coordinates":[77.1007814,22.7995437]}},{"type":"Feature","properties":{"issue_id":"E-006","type":"building_overlap","severity":"warning","message":"Buildings B-0017 and B-0022 overlap by 6.9 m2","fix":"Check for shared wall vs digitising error; snap edges","parcel_ids":"","area_m2":6.86},"geometry":{"type":"Polygon","coordinates":[[[77.1007872,22.7998146],[77.1008025,22.7998238],[77.1008362,22.7998242],[77.1008364,22.7998113],[77.1007872,22.7998091],[77.1007872,22.7998146]]]}},{"type":"Feature","properties":{"issue_id":"E-007","type":"building_overlap","severity":"warning","message":"Buildings B-0059 and B-0068 overlap by 1.1 m2","fix":"Check for shared wall vs digitising error; snap edges","parcel_ids":"","area_m2":1.1},"geometry":{"type":"Polygon","coordinates":[[[77.1005581,22.7994973],[77.1005629,22.7994942],[77.1005626,22.7994717],[77.1005593,22.7994716],[77.1005581,22.7994973]]]}},{"type":"Feature","properties":{"issue_id":"E-008","type":"building_straddles","severity":"error","message":"B-0017 straddles 2 parcels (TMP-VI-0017, TMP-VI-0023)","fix":"Move the shared boundary or split the building","parcel_ids":"TMP-VI-0017,TMP-VI-0023","area_m2":7.9},"geometry":{"type":"Point","coordinates":[77.1007697,22.7998484]}},{"type":"Feature","properties":{"issue_id":"E-009","type":"no_road_access","severity":"info","message":"TMP-VI-0001 has no direct road access","fix":"Verify access easement on the ground","parcel_ids":"TMP-VI-0001","area_m2":46.44},"geometry":{"type":"Point","coordinates":[77.1003935,22.7999614]}},{"type":"Feature","properties":{"issue_id":"E-010","type":"no_road_access","severity":"info","message":"TMP-VI-0004 has no direct road access","fix":"Verify access easement on the ground","parcel_ids":"TMP-VI-0004","area_m2":44.7},"geometry":{"type":"Point","coordinates":[77.1003351,22.7999441]}},{"type":"Feature","properties":{"issue_id":"E-011","type":"no_road_access","severity":"info","message":"TMP-VI-0005 has no direct road access","fix":"Verify access easement on the ground","parcel_ids":"TMP-VI-0005","area_m2":77.84},"geometry":{"type":"Point","coordinates":[77.1004706,22.7999505]}},{"type":"Feature","properties":{"issue_id":"E-012","type":"no_road_access","severity":"info","message":"TMP-VI-0008 has no direct road access","fix":"Verify access easement on the ground","parcel_ids":"TMP-VI-0008","area_m2":73.94},"geometry":{"type":"Point","coordinates":[77.1005495,22.7999485]}},{"type":"Feature","properties":{"issue_id":"E-013","type":"no_road_access","severity":"info","message":"TMP-VI-0013 has no direct road access","fix":"Verify access easement on the ground","parcel_ids":"TMP-VI-0013","area_m2":88.88},"geometry":{"type":"Point","coordinates":[77.1004342,22.7998977]}},{"type":"Feature","properties":{"issue_id":"E-014","type":"no_road_access","severity":"info","message":"TMP-VI-0023 has no direct road access","fix":"Verify access easement on the ground","parcel_ids":"TMP-VI-0023","area_m2":29.46},"geometry":{"type":"Point","coordinates":[77.1008095,22.7997952]}},{"type":"Feature","properties":{"issue_id":"E-015","type":"no_road_access","severity":"info","message":"TMP-VI-0026 has no direct road access","fix":"Verify access easement on the ground","parcel_ids":"TMP-VI-0026","area_m2":35.26},"geometry":{"type":"Point","coordinates":[77.1005611,22.7997813]}},{"type":"Feature","properties":{"issue_id":"E-016","type":"no_road_access","severity":"info","message":"TMP-VI-0040 has no direct road access","fix":"Verify access easement on the ground","parcel_ids":"TMP-VI-0040","area_m2":160.64},"geometry":{"type":"Point","coordinates":[77.1009435,22.7997221]}},{"type":"Feature","properties":{"issue_id":"E-017","type":"no_road_access","severity":"info","message":"TMP-VI-0042 has no direct road access","fix":"Verify access easement on the ground","parcel_ids":"TMP-VI-0042","area_m2":45.22},"geometry":{"type":"Point","coordinates":[77.1009979,22.7996627]}},{"type":"Feature","properties":{"issue_id":"E-018","type":"no_road_access","severity":"info","message":"TMP-VI-0050 has no direct road access","fix":"Verify access easement on the ground","parcel_ids":"TMP-VI-0050","area_m2":20.82},"geometry":{"type":"Point","coordinates":[77.1009784,22.7996268]}},{"type":"Feature","properties":{"issue_id":"E-019","type":"no_road_access","severity":"info","message":"TMP-VI-0053 has no direct road access","fix":"Verify access easement on the ground","parcel_ids":"TMP-VI-0053","area_m2":127.14},"geometry":{"type":"Point","coordinates":[77.1009031,22.7996089]}},{"type":"Feature","properties":{"issue_id":"E-020","type":"no_road_access","severity":"info","message":"TMP-VI-0056 has no direct road access","fix":"Verify access easement on the ground","parcel_ids":"TMP-VI-0056","area_m2":17.24},"geometry":{"type":"Point","coordinates":[77.1007814,22.7995437]}},{"type":"Feature","properties":{"issue_id":"E-021","type":"no_road_access","severity":"info","message":"TMP-VI-0058 has no direct road access","fix":"Verify access easement on the ground","parcel_ids":"TMP-VI-0058","area_m2":27.36},"geometry":{"type":"Point","coordinates":[77.100891,22.7995314]}},{"type":"Feature","properties":{"issue_id":"E-022","type":"no_road_access","severity":"info","message":"TMP-VI-0059 has no direct road access","fix":"Verify access easement on the ground","parcel_ids":"TMP-VI-0059","area_m2":31.6},"geometry":{"type":"Point","coordinates":[77.1009482,22.7995324]}}]}