{"type":"FeatureCollection","features":[{"type":"Feature","properties":{"kind":"open ground"},"geometry":{"type":"Polygon","coordinates":[[[77.1010799,22.7999262],[77.1010972,22.7999115],[77.101097,22.7998989],[77.1011046,22.7998843],[77.1011218,22.799866],[77.1011272,22.7998371],[77.101123,22.7998191],[77.1011249,22.79981],[77.1011461,22.7997971],[77.1011439,22.7997791],[77.101136,22.7997774],[77.1011283,22.7997811],[77.1011243,22.7997757],[77.1011087,22.7997723],[77.1011008,22.7997634],[77.101091,22.7997635],[77.1010795,22.7997727],[77.1010759,22.7997908],[77.1010682,22.7997981],[77.1010645,22.7998108],[77.1010548,22.7998145],[77.101053,22.7998218],[77.1010376,22.7998328],[77.1010357,22.7998419],[77.101028,22.7998474],[77.1010282,22.7998582],[77.1010166,22.7998656],[77.1010149,22.7998783],[77.101011,22.7998801],[77.1010095,22.7999072],[77.1010194,22.7999216],[77.1010196,22.7999342],[77.1010275,22.7999377],[77.1010332,22.7999322],[77.1010527,22.799932],[77.1010644,22.7999336],[77.1010762,22.7999389],[77.1010799,22.7999262]]]}},{"type":"Feature","properties":{"kind":"open ground"},"geometry":{"type":"Polygon","coordinates":[[[77.1006637,22.7994567],[77.1006694,22.7994512],[77.1006627,22.7993935],[77.1005634,22.7993948],[77.1005638,22.7994201],[77.1006008,22.7994196],[77.1006086,22.7994231],[77.1006146,22.7994339],[77.1006283,22.7994373],[77.1006285,22.7994518],[77.1006344,22.7994571],[77.1006637,22.7994567]]]}}]}