{"type":"FeatureCollection","features":[{"type":"Feature","properties":{"parcel_id":"TMP-VI-0001","building_id":"B-0002","area_m2":46.4,"perimeter_m":28.2,"building_coverage":0.6,"vegetation_share":0.0,"landuse":"Built-up","status":"Draft / Unverified"},"geometry":{"type":"Polygon","coordinates":[[[77.1004265,22.7999944],[77.1004225,22.7999872],[77.1004221,22.7999637],[77.1004241,22.7999637],[77.1004238,22.7999439],[77.100406,22.7999296],[77.1003787,22.7999282],[77.1003709,22.7999247],[77.100367,22.7999247],[77.100367,22.7999265],[77.1003651,22.7999266],[77.1003631,22.7999284],[77.1003636,22.7999591],[77.1003618,22.7999681],[77.1003541,22.7999755],[77.1003544,22.7999953],[77.1004265,22.7999944]]]}},{"type":"Feature","properties":{"parcel_id":"TMP-VI-0002","building_id":"B-0001","area_m2":116.2,"perimeter_m":73.4,"building_coverage":0.29,"vegetation_share":0.63,"landuse":"Vegetated plot","status":"Draft / Unverified"},"geometry":{"type":"Polygon","coordinates":[[[77.100887,22.7999233],[77.1008735,22.7999307],[77.1008678,22.799938],[77.1008542,22.7999454],[77.1008543,22.799949],[77.1008486,22.7999599],[77.1008471,22.7999888],[77.1010886,22.7999857],[77.1010864,22.7999676],[77.1010724,22.7999461],[77.1010686,22.7999552],[77.1010493,22.7999663],[77.1010554,22.7999825],[77.1010301,22.7999828],[77.1010242,22.7999757],[77.1010104,22.7999686],[77.1009811,22.79996],[77.1009771,22.7999564],[77.100942,22.7999515],[77.1009418,22.7999406],[77.1009496,22.7999369],[77.1009455,22.7999279],[77.1009474,22.7999207],[77.1009704,22.7999005],[77.1009587,22.7998989],[77.1009334,22.7998992],[77.1009082,22.799905],[77.1008985,22.7999123],[77.100887,22.7999233]]]}},{"type":"Feature","properties":{"parcel_id":"TMP-VI-0003","building_id":"B-0010","area_m2":28.9,"perimeter_m":26.8,"building_coverage":0.73,"vegetation_share":0.14,"landuse":"Built-up","status":"Draft / Unverified"},"geometry":{"type":"Polygon","coordinates":[[[77.1002801,22.7999764],[77.1002803,22.7999909],[77.1002667,22.7999929],[77.1002648,22.7999965],[77.1003038,22.799996],[77.1003075,22.7999815],[77.1003066,22.7999219],[77.1002949,22.7999221],[77.1002872,22.7999276],[77.1002715,22.7999224],[77.1002676,22.7999224],[77.100268,22.7999477],[77.1002699,22.7999477],[77.1002703,22.7999712],[77.1002801,22.7999764]]]}},{"type":"Feature","properties":{"parcel_id":"TMP-VI-0004","building_id":"B-0004","area_m2":44.7,"perimeter_m":27.5,"building_coverage":0.67,"vegetation_share":0.04,"landuse":"Built-up","status":"Draft / Unverified"},"geometry":{"type":"Polygon","coordinates":[[[77.1003544,22.7999953],[77.1003541,22.7999755],[77.1003618,22.7999681],[77.1003636,22.7999591],[77.1003631,22.7999284],[77.1003651,22.7999266],[77.1003631,22.7999266],[77.1003592,22.799923],[77.1003358,22.7999215],[77.1003085,22.7999219],[77.1003066,22.7999237],[77.1003075,22.7999815],[77.1003038,22.799996],[77.1003544,22.7999953]]]}},{"type":"Feature","properties":{"parcel_id":"TMP-VI-0005","building_id":"B-0005","area_m2":77.8,"perimeter_m":35.5,"building_coverage":0.32,"vegetation_share":0.3,"landuse":"Built-up","status":"Draft / Unverified"},"geometry":{"type":"Polygon","coordinates":[[[77.1005122,22.7999933],[77.100514,22.7999878],[77.1005137,22.7999643],[77.1005174,22.7999553],[77.100517,22.7999264],[77.1005089,22.7999048],[77.1005069,22.7999048],[77.1004932,22.7998978],[77.1004932,22.7998996],[77.1004836,22.7999088],[77.1004682,22.799918],[77.1004643,22.7999235],[77.1004508,22.7999309],[77.100443,22.799931],[77.1004238,22.7999457],[77.1004241,22.7999637],[77.1004221,22.7999637],[77.1004225,22.7999872],[77.1004265,22.7999944],[77.1005122,22.7999933]]]}},{"type":"Feature","properties":{"parcel_id":"TMP-VI-0006","building_id":"B-0008","area_m2":37.7,"perimeter_m":39.2,"building_coverage":0.82,"vegetation_share":0.0,"landuse":"Built-up","status":"Draft / Unverified"},"geometry":{"type":"Polygon","coordinates":[[[77.1001525,22.7999077],[77.1001545,22.7999113],[77.1001551,22.799951],[77.1001534,22.7999709],[77.1001575,22.7999835],[77.1001654,22.799987],[77.1001655,22.7999942],[77.1001421,22.7999945],[77.1001402,22.7999982],[77.100222,22.7999971],[77.10022,22.7999935],[77.1001888,22.7999939],[77.1001907,22.7999867],[77.1001897,22.7999235],[77.1001955,22.7999198],[77.1001954,22.7999144],[77.1001914,22.799909],[77.1001914,22.7999072],[77.100168,22.7999075],[77.1001525,22.7999077]]]}},{"type":"Feature","properties":{"parcel_id":"TMP-VI-0007","building_id":"B-0009","area_m2":23.9,"perimeter_m":20.2,"building_coverage":0.9,"vegetation_share":0.0,"landuse":"Built-up","status":"Draft / Unverified"},"geometry":{"type":"Polygon","coordinates":[[[77.1002699,22.7999477],[77.100268,22.7999477],[77.1002676,22.7999224],[77.1002657,22.7999225],[77.1002617,22.7999153],[77.1002363,22.7999156],[77.1002324,22.7999139],[77.1002327,22.7999301],[77.1002307,22.7999319],[77.1002311,22.7999554],[77.1002273,22.7999627],[77.100247,22.7999751],[77.1002703,22.7999712],[77.1002699,22.7999477]]]}},{"type":"Feature","properties":{"parcel_id":"TMP-VI-0008","building_id":"B-0006","area_m2":73.9,"perimeter_m":35.5,"building_coverage":0.36,"vegetation_share":0.33,"landuse":"Built-up","status":"Draft / Unverified"},"geometry":{"type":"Polygon","coordinates":[[[77.1005764,22.7999924],[77.1005762,22.7999762],[77.1005817,22.7999562],[77.1005815,22.7999418],[77.100591,22.799929],[77.1005908,22.7999128],[77.1005868,22.7999038],[77.1005829,22.7999038],[77.1005828,22.799902],[77.1005554,22.7998934],[77.1005302,22.7998973],[77.1005147,22.7999047],[77.1005089,22.7999048],[77.100517,22.7999264],[77.1005174,22.7999553],[77.1005137,22.7999643],[77.100514,22.7999878],[77.1005122,22.7999933],[77.1005764,22.7999924]]]}},{"type":"Feature","properties":{"parcel_id":"TMP-VI-0009","building_id":"B-0003","area_m2":123.7,"perimeter_m":44.2,"building_coverage":0.31,"vegetation_share":0.41,"landuse":"Built-up","status":"Draft / Unverified"},"geometry":{"type":"Polygon","coordinates":[[[77.1006855,22.799991],[77.1006872,22.7999765],[77.1006947,22.7999583],[77.1006963,22.7999312],[77.1006882,22.7999169],[77.1006625,22.7998919],[77.1006528,22.7998903],[77.1006506,22.7998777],[77.1006369,22.7998724],[77.1006215,22.7998798],[77.1006119,22.799889],[77.1005925,22.7998983],[77.1005887,22.7999038],[77.1005868,22.7999038],[77.1005908,22.7999128],[77.100591,22.799929],[77.1005815,22.7999418],[77.1005817,22.7999562],[77.1005762,22.7999762],[77.1005764,22.7999924],[77.1006855,22.799991]]]}},{"type":"Feature","properties":{"parcel_id":"TMP-VI-0010","building_id":"B-0007","area_m2":53.0,"perimeter_m":48.7,"building_coverage":0.6,"vegetation_share":0.23,"landuse":"Built-up","status":"Draft / Unverified"},"geometry":{"type":"Polygon","coordinates":[[[77.1,22.8],[77.1000662,22.7999991],[77.1000505,22.7999903],[77.1000406,22.7999814],[77.1000443,22.7999705],[77.1000436,22.7999236],[77.1000417,22.7999218],[77.1000047,22.7999223],[77.1000023,22.7998988],[77.1000315,22.7998948],[77.1000371,22.7998821],[77.1000488,22.7998802],[77.1000409,22.7998712],[77.1000292,22.7998732],[77.0999981,22.7998736],[77.1,22.8]]]}},{"type":"Feature","properties":{"parcel_id":"TMP-VI-0011","building_id":"B-0012","area_m2":22.6,"perimeter_m":19.6,"building_coverage":0.77,"vegetation_share":0.0,"landuse":"Built-up","status":"Draft / Unverified"},"geometry":{"type":"Polygon","coordinates":[[[77.1002074,22.7999323],[77.1002307,22.7999319],[77.1002327,22.7999301],[77.1002324,22.7999103],[77.1002304,22.7999103],[77.10023,22.7998832],[77.1002319,22.7998832],[77.1002319,22.7998778],[77.1002084,22.799869],[77.1002084,22.7998708],[77.1001988,22.7998782],[77.1001989,22.7998854],[77.1001914,22.7999036],[77.1001914,22.799909],[77.1001954,22.7999144],[77.1002074,22.7999323]]]}},{"type":"Feature","properties":{"parcel_id":"TMP-VI-0012","building_id":"B-0013","area_m2":31.7,"perimeter_m":23.6,"building_coverage":0.94,"vegetation_share":0.1,"landuse":"Built-up","status":"Draft / Unverified"},"geometry":{"type":"Polygon","coordinates":[[[77.1003066,22.7999237],[77.1003085,22.7999219],[77.1003319,22.7999216],[77.1003313,22.7998837],[77.1003176,22.7998802],[77.100302,22.7998804],[77.1002962,22.7998841],[77.1002826,22.7998843],[77.1002767,22.7998808],[77.1002631,22.7998828],[77.1002636,22.7999153],[77.1002617,22.7999153],[77.1002657,22.7999225],[77.1002715,22.7999224],[77.1002872,22.7999276],[77.1002949,22.7999221],[77.1003066,22.7999219],[77.1003066,22.7999237]]]}},{"type":"Feature","properties":{"parcel_id":"TMP-VI-0013","building_id":"B-0011","area_m2":88.9,"perimeter_m":37.2,"building_coverage":0.35,"vegetation_share":0.32,"landuse":"Built-up","status":"Draft / Unverified"},"geometry":{"type":"Polygon","coordinates":[[[77.100443,22.799931],[77.1004508,22.7999309],[77.1004643,22.7999235],[77.1004682,22.799918],[77.1004836,22.7999088],[77.1004932,22.7998996],[77.1004931,22.7998942],[77.1004851,22.799878],[77.1004672,22.7998566],[77.1004534,22.7998459],[77.1004534,22.7998441],[77.1004379,22.7998498],[77.1004145,22.7998501],[77.100405,22.799861],[77.1003761,22.7998867],[77.1003745,22.7999102],[77.1003689,22.7999247],[77.1003709,22.7999247],[77.1003787,22.7999282],[77.100406,22.7999296],[77.1004238,22.7999439],[77.1004238,22.7999457],[77.100443,22.799931]]]}},{"type":"Feature","properties":{"parcel_id":"TMP-VI-0014","building_id":"B-0014","area_m2":91.2,"perimeter_m":49.0,"building_coverage":0.9,"vegetation_share":0.05,"landuse":"Built-up","status":"Draft / Unverified"},"geometry":{"type":"Polygon","coordinates":[[[77.1001349,22.7999043],[77.1001328,22.7998935],[77.1001364,22.7998772],[77.1001403,22.7998735],[77.1001458,22.7998536],[77.1001477,22.7998536],[77.1001473,22.7998265],[77.1001493,22.7998265],[77.100149,22.7998102],[77.1001353,22.799805],[77.1001041,22.7998],[77.1000983,22.7998073],[77.1000966,22.7998236],[77.100097,22.7998506],[77.1000951,22.7998507],[77.1000957,22.7998904],[77.1000938,22.7998904],[77.1000951,22.7999771],[77.1001127,22.7999805],[77.1001283,22.7999803],[77.1001397,22.7999657],[77.1001389,22.7999115],[77.1001408,22.7999115],[77.1001407,22.799906],[77.1001349,22.7999043]]]}},{"type":"Feature","properties":{"parcel_id":"TMP-VI-0015","building_id":"B-0015","area_m2":37.0,"perimeter_m":24.2,"building_coverage":0.78,"vegetation_share":0.0,"landuse":"Built-up","status":"Draft / Unverified"},"geometry":{"type":"Polygon","coordinates":[[[77.1001914,22.7999072],[77.1001914,22.7999036],[77.1001989,22.7998854],[77.1001988,22.7998782],[77.1002084,22.7998708],[77.1002082,22.7998618],[77.1001945,22.7998548],[77.1001594,22.7998552],[77.1001594,22.7998534],[77.1001458,22.7998536],[77.1001403,22.7998735],[77.1001364,22.7998772],[77.1001328,22.7998935],[77.1001349,22.7999043],[77.1001407,22.799906],[77.1001486,22.7999077],[77.100168,22.7999075],[77.1001914,22.7999072]]]}},{"type":"Feature","properties":{"parcel_id":"TMP-VI-0016","building_id":"B-0016","area_m2":57.9,"perimeter_m":33.5,"building_coverage":0.58,"vegetation_share":0.18,"landuse":"Built-up","status":"Draft / Unverified"},"geometry":{"type":"Polygon","coordinates":[[[77.100367,22.7999265],[77.100367,22.7999247],[77.1003689,22.7999247],[77.1003745,22.7999102],[77.1003761,22.7998867],[77.100405,22.799861],[77.1004145,22.7998501],[77.1004165,22.79985],[77.1004027,22.7998376],[77.1003713,22.7998235],[77.1003596,22.7998237],[77.1003441,22.7998293],[77.1003422,22.799833],[77.1003403,22.7998366],[77.1003407,22.7998619],[77.100339,22.7998782],[77.1003313,22.7998837],[77.1003319,22.7999216],[77.1003358,22.7999215],[77.1003592,22.799923],[77.1003631,22.7999266],[77.100367,22.7999265]]]}},{"type":"Feature","properties":{"parcel_id":"TMP-VI-0017","building_id":"B-0017","area_m2":308.0,"perimeter_m":110.9,"building_coverage":0.44,"vegetation_share":0.42,"landuse":"Built-up","status":"Draft / Unverified"},"geometry":{"type":"Polygon","coordinates":[[[77.1008678,22.799938],[77.1008735,22.7999307],[77.100887,22.7999233],[77.1008985,22.7999123],[77.1009023,22.7999032],[77.1009019,22.7998762],[77.1009057,22.7998707],[77.1008901,22.7998709],[77.1008764,22.7998638],[77.1008627,22.799864],[77.1008414,22.7998679],[77.1008412,22.7998571],[77.100849,22.7998552],[77.1008566,22.7998424],[77.1008819,22.7998439],[77.1008817,22.7998277],[77.1008776,22.7998169],[77.1008679,22.799817],[77.1008542,22.7998136],[77.1008503,22.7998136],[77.1008407,22.7998246],[77.1008017,22.7998233],[77.1007899,22.7998162],[77.1007878,22.7998018],[77.1007739,22.7997875],[77.1007739,22.7997857],[77.1007524,22.7997842],[77.1007465,22.7997807],[77.1007407,22.7997808],[77.1007253,22.7997918],[77.1007078,22.7997938],[77.1006981,22.7997976],[77.1006965,22.7998193],[77.1006867,22.7998194],[77.1006827,22.7998104],[77.100671,22.7998106],[77.1006631,22.7998035],[77.1006476,22.7998091],[77.1006419,22.7998146],[77.100642,22.7998218],[77.10064,22.7998218],[77.1006421,22.7998272],[77.1006518,22.7998271],[77.1006599,22.799845],[77.1006697,22.7998503],[77.1006872,22.7998501],[77.1006894,22.7998627],[77.1006954,22.7998735],[77.1007091,22.7998787],[77.1007227,22.7998785],[77.1007482,22.7998872],[77.1007483,22.7998962],[77.1007347,22.7998982],[77.1007269,22.7998947],[77.1006996,22.7998951],[77.1006937,22.7998915],[77.1006916,22.7998825],[77.1006837,22.7998772],[77.100674,22.7998773],[77.1006625,22.7998865],[77.1006625,22.7998919],[77.1006882,22.7999169],[77.1006963,22.7999312],[77.1007099,22.7999311],[77.1007275,22.799938],[77.1007451,22.7999396],[77.1007469,22.7999342],[77.1007663,22.7999285],[77.1007762,22.7999338],[77.1007802,22.7999428],[77.1007861,22.7999445],[77.1008114,22.7999442],[77.1008251,22.7999476],[77.1008289,22.7999421],[77.1008386,22.799942],[77.1008406,22.7999474],[77.1008542,22.7999454],[77.1008678,22.799938]]]}},{"type":"Feature","properties":{"parcel_id":"TMP-VI-0018","building_id":"B-0018","area_m2":147.6,"perimeter_m":55.2,"building_coverage":0.3,"vegetation_share":0.39,"landuse":"Built-up","status":"Draft / Unverified"},"geometry":{"type":"Polygon","coordinates":[[[77.1005147,22.7999047],[77.1005302,22.7998973],[77.1005554,22.7998934],[77.1005828,22.799902],[77.1005829,22.7999038],[77.1005887,22.7999038],[77.1005925,22.7998983],[77.1006119,22.799889],[77.1006215,22.7998798],[77.1006369,22.7998724],[77.1006348,22.7998598],[77.1006191,22.7998528],[77.1006189,22.7998438],[77.1006267,22.79984],[77.1005819,22.7998406],[77.1005682,22.799839],[77.1005603,22.7998301],[77.1005601,22.7998156],[77.1005561,22.7998121],[77.1005558,22.7997922],[77.100548,22.7997923],[77.1005324,22.7997871],[77.1005187,22.7997855],[77.1005148,22.7997855],[77.1005033,22.7997965],[77.1004897,22.7998003],[77.1004898,22.7998021],[77.1004704,22.7998096],[77.1004665,22.7998097],[77.1004533,22.7998405],[77.1004534,22.7998459],[77.1004672,22.7998566],[77.1004851,22.799878],[77.1004931,22.7998942],[77.1004932,22.7998978],[77.1005069,22.7999048],[77.1005147,22.7999047]]]}},{"type":"Feature","properties":{"parcel_id":"TMP-VI-0019","building_id":"B-0019","area_m2":49.7,"perimeter_m":32.5,"building_coverage":0.61,"vegetation_share":0.06,"landuse":"Built-up","status":"Draft / Unverified"},"geometry":{"type":"Polygon","coordinates":[[[77.1002474,22.7998776],[77.1002512,22.7998703],[77.100251,22.799854],[77.1002548,22.7998468],[77.1002645,22.7998466],[77.1002725,22.799861],[77.1002879,22.7998517],[77.100278,22.7998374],[77.1002719,22.7998212],[77.1002697,22.799805],[77.1002696,22.7997996],[77.1002482,22.7997981],[77.1002442,22.7997927],[77.1002383,22.7997928],[77.1002306,22.7997947],[77.1002268,22.7998038],[77.1002191,22.7998057],[77.1002116,22.7998238],[77.1002096,22.7998239],[77.1002101,22.7998528],[77.1002081,22.7998528],[77.1002084,22.799869],[77.1002319,22.7998778],[77.1002474,22.7998776]]]}},{"type":"Feature","properties":{"parcel_id":"TMP-VI-0020","building_id":"B-0020","area_m2":42.4,"perimeter_m":27.3,"building_coverage":0.75,"vegetation_share":0.0,"landuse":"Built-up","status":"Draft / Unverified"},"geometry":{"type":"Polygon","coordinates":[[[77.1001594,22.7998552],[77.1001945,22.7998548],[77.1002082,22.7998618],[77.1002081,22.7998528],[77.1002101,22.7998528],[77.1002096,22.7998239],[77.1002116,22.7998238],[77.1002114,22.7998148],[77.1002055,22.7998113],[77.1002052,22.7997932],[77.1001994,22.7997933],[77.1001858,22.7997953],[77.1001721,22.7997901],[77.1001585,22.7997902],[77.100149,22.7998084],[77.1001493,22.7998265],[77.1001473,22.7998265],[77.1001477,22.7998536],[77.1001594,22.7998534],[77.1001594,22.7998552]]]}},{"type":"Feature","properties":{"parcel_id":"TMP-VI-0021","building_id":"B-0021","area_m2":35.5,"perimeter_m":24.9,"building_coverage":0.39,"vegetation_share":0.47,"landuse":"Built-up","status":"Draft / Unverified"},"geometry":{"type":"Polygon","coordinates":[[[77.1006306,22.79984],[77.1006402,22.7998308],[77.10064,22.7998218],[77.100642,22.7998218],[77.1006419,22.7998164],[77.1006321,22.7998111],[77.1006223,22.7998112],[77.1006008,22.7998025],[77.1005811,22.7997901],[77.1005636,22.7997921],[77.1005558,22.7997922],[77.1005561,22.7998121],[77.1005601,22.7998156],[77.1005603,22.7998301],[77.1005682,22.799839],[77.1005819,22.7998406],[77.1006306,22.79984]]]}},{"type":"Feature","properties":{"parcel_id":"TMP-VI-0022","building_id":"B-0023","area_m2":79.3,"perimeter_m":35.8,"building_coverage":0.65,"vegetation_share":0.11,"landuse":"Built-up","status":"Draft / Unverified"},"geometry":{"type":"Polygon","coordinates":[[[77.1003228,22.7998386],[77.1003285,22.7998313],[77.1003422,22.799833],[77.1003441,22.7998293],[77.1003596,22.7998237],[77.1003654,22.7998236],[77.1003652,22.7998074],[77.100369,22.7998001],[77.1003669,22.7997911],[77.1003665,22.7997658],[77.1003645,22.7997659],[77.1003645,22.799764],[77.1003217,22.7997646],[77.1003138,22.7997593],[77.100306,22.7997594],[77.1002846,22.7997615],[77.1002788,22.7997616],[77.100273,22.7997689],[77.1002753,22.7997905],[77.1002696,22.7997978],[77.1002697,22.799805],[77.1002719,22.7998212],[77.100278,22.7998374],[77.1002879,22.7998517],[77.1003228,22.7998386]]]}},{"type":"Feature","properties":{"parcel_id":"TMP-VI-0023","building_id":"B-0022","area_m2":29.5,"perimeter_m":22.4,"building_coverage":0.79,"vegetation_share":0.19,"landuse":"Built-up","status":"Draft / Unverified"},"geometry":{"type":"Polygon","coordinates":[[[77.1007878,22.7998018],[77.1007899,22.7998162],[77.1008017,22.7998233],[77.1008407,22.7998246],[77.1008503,22.7998136],[77.1008483,22.7998137],[77.1008364,22.7997994],[77.1008382,22.7997903],[77.1008381,22.7997831],[77.1008029,22.7997745],[77.1008029,22.7997727],[77.1007874,22.7997765],[77.1007739,22.7997839],[77.1007739,22.7997875],[77.1007878,22.7998018]]]}},{"type":"Feature","properties":{"parcel_id":"TMP-VI-0024","building_id":"B-0027","area_m2":90.8,"perimeter_m":46.1,"building_coverage":0.67,"vegetation_share":0.17,"landuse":"Built-up","status":"Draft / Unverified"},"geometry":{"type":"Polygon","coordinates":[[[77.1000328,22.7997251],[77.0999958,22.7997238],[77.0999981,22.7998736],[77.1000292,22.7998732],[77.1000409,22.7998712],[77.1000466,22.7998639],[77.1000541,22.7998458],[77.1000481,22.799835],[77.1000343,22.7998262],[77.1000323,22.799819],[77.100038,22.7998135],[77.1000536,22.7998115],[77.1000555,22.7998078],[77.1000545,22.7997447],[77.1000523,22.7997284],[77.1000483,22.7997213],[77.1000444,22.7997213],[77.1000328,22.7997251]]]}},{"type":"Feature","properties":{"parcel_id":"TMP-VI-0025","building_id":"B-0025","area_m2":96.1,"perimeter_m":40.6,"building_coverage":0.45,"vegetation_share":0.3,"landuse":"Built-up","status":"Draft / Unverified"},"geometry":{"type":"Polygon","coordinates":[[[77.1004379,22.7998498],[77.1004534,22.7998441],[77.1004533,22.7998405],[77.1004665,22.7998097],[77.1004646,22.7998097],[77.1004566,22.7998008],[77.1004426,22.7997757],[77.1004425,22.7997702],[77.1004287,22.7997578],[77.1004169,22.7997507],[77.1004127,22.7997291],[77.1004108,22.7997309],[77.1003699,22.7997315],[77.100364,22.7997334],[77.1003641,22.799737],[77.1003642,22.7997442],[77.1003645,22.7997659],[77.1003665,22.7997658],[77.1003669,22.7997911],[77.100369,22.7998001],[77.1003652,22.7998074],[77.1003654,22.7998236],[77.1003713,22.7998235],[77.1004027,22.7998376],[77.1004165,22.79985],[77.1004379,22.7998498]]]}},{"type":"Feature","properties":{"parcel_id":"TMP-VI-0026","building_id":"B-0026","area_m2":35.3,"perimeter_m":30.3,"building_coverage":0.62,"vegetation_share":0.17,"landuse":"Built-up","status":"Draft / Unverified"},"geometry":{"type":"Polygon","coordinates":[[[77.1006301,22.7998111],[77.1006163,22.7997968],[77.1006083,22.7997843],[77.1005985,22.7997772],[77.1005983,22.79977],[77.1005864,22.7997557],[77.1005864,22.7997539],[77.1005649,22.7997488],[77.1005474,22.799749],[77.1005456,22.7997617],[77.1005282,22.7997655],[77.1005168,22.7997855],[77.1005187,22.7997855],[77.1005324,22.7997871],[77.100548,22.7997923],[77.1005636,22.7997921],[77.1005811,22.7997901],[77.1006008,22.7998025],[77.1006223,22.7998112],[77.1006301,22.7998111]]]}},{"type":"Feature","properties":{"parcel_id":"TMP-VI-0027","building_id":"B-0024","area_m2":67.6,"perimeter_m":35.6,"building_coverage":0.25,"vegetation_share":0.67,"landuse":"Vegetated plot","status":"Draft / Unverified"},"geometry":{"type":"Polygon","coordinates":[[[77.1008795,22.7998169],[77.1008912,22.7998149],[77.1008952,22.7998221],[77.1009127,22.7998218],[77.1009147,22.7998254],[77.1009224,22.7998163],[77.1009279,22.7997963],[77.10092,22.7997856],[77.1009061,22.7997732],[77.1008921,22.7997463],[77.100892,22.799739],[77.1008799,22.7997139],[77.100876,22.7997122],[77.100876,22.7997104],[77.1008606,22.7997232],[77.1008569,22.7997377],[77.1008492,22.799745],[77.1008494,22.7997577],[77.1008381,22.7997813],[77.1008382,22.7997903],[77.1008364,22.7997994],[77.1008483,22.7998137],[77.1008542,22.7998136],[77.1008679,22.799817],[77.1008795,22.7998169]]]}},{"type":"Feature","properties":{"parcel_id":"TMP-VI-0028","building_id":"B-0028","area_m2":83.1,"perimeter_m":37.2,"building_coverage":0.96,"vegetation_share":0.04,"landuse":"Built-up","status":"Draft / Unverified"},"geometry":{"type":"Polygon","coordinates":[[[77.100149,22.7998084],[77.1001585,22.7997902],[77.1001721,22.7997901],[77.1001858,22.7997953],[77.1001994,22.7997933],[77.1002072,22.7997932],[77.100211,22.7997877],[77.1002165,22.7997678],[77.100216,22.7997317],[77.1002062,22.7997264],[77.1001555,22.7997271],[77.10014,22.7997309],[77.1001323,22.7997382],[77.1001245,22.7997383],[77.1001091,22.7997457],[77.1001035,22.7997639],[77.1001041,22.7998],[77.1001353,22.799805],[77.100149,22.7998102],[77.100149,22.7998084]]]}},{"type":"Feature","properties":{"parcel_id":"TMP-VI-0029","building_id":"B-0029","area_m2":29.8,"perimeter_m":22.4,"building_coverage":0.93,"vegetation_share":0.02,"landuse":"Built-up","status":"Draft / Unverified"},"geometry":{"type":"Polygon","coordinates":[[[77.1002753,22.7997905],[77.100273,22.7997689],[77.1002788,22.7997616],[77.1002783,22.7997309],[77.1002646,22.7997256],[77.1002412,22.7997259],[77.1002374,22.7997314],[77.1002379,22.7997639],[77.1002442,22.7997927],[77.1002482,22.7997981],[77.1002696,22.7997996],[77.1002696,22.7997978],[77.1002753,22.7997905]]]}},{"type":"Feature","properties":{"parcel_id":"TMP-VI-0030","building_id":"B-0034","area_m2":50.5,"perimeter_m":33.6,"building_coverage":0.49,"vegetation_share":0.36,"landuse":"Built-up","status":"Draft / Unverified"},"geometry":{"type":"Polygon","coordinates":[[[77.1004898,22.7998021],[77.1004897,22.7997967],[77.1004952,22.799775],[77.1005009,22.7997659],[77.1004985,22.7997388],[77.1004942,22.7997118],[77.1004689,22.7997121],[77.1004689,22.7997139],[77.1004417,22.7997143],[77.100432,22.799718],[77.1004321,22.7997288],[77.1004361,22.7997324],[77.1004595,22.7997321],[77.1004596,22.7997411],[77.100454,22.7997556],[77.1004425,22.799772],[77.1004426,22.7997757],[77.1004566,22.7998008],[77.1004646,22.7998097],[77.1004704,22.7998096],[77.1004898,22.7998021]]]}},{"type":"Feature","properties":{"parcel_id":"TMP-VI-0031","building_id":"B-0036","area_m2":41.2,"perimeter_m":33.5,"building_coverage":0.61,"vegetation_share":0.28,"landuse":"Built-up","status":"Draft / Unverified"},"geometry":{"type":"Polygon","coordinates":[[[77.1006419,22.7998164],[77.1006419,22.7998146],[77.1006476,22.7998091],[77.1006414,22.7997821],[77.1006256,22.7997714],[77.1006178,22.7997697],[77.1006214,22.7997516],[77.1006272,22.7997497],[77.1006309,22.7997371],[77.1006305,22.7997046],[77.1006285,22.7997028],[77.1005973,22.7997032],[77.1005934,22.799705],[77.1005937,22.7997195],[77.1005864,22.7997521],[77.1005864,22.7997557],[77.1005983,22.79977],[77.1005985,22.7997772],[77.1006083,22.7997843],[77.1006163,22.7997968],[77.1006301,22.7998111],[77.1006321,22.7998111],[77.1006419,22.7998164]]]}},{"type":"Feature","properties":{"parcel_id":"TMP-VI-0032","building_id":"B-0031","area_m2":17.2,"perimeter_m":17.0,"building_coverage":0.96,"vegetation_share":0.0,"landuse":"Built-up","status":"Draft / Unverified"},"geometry":{"type":"Polygon","coordinates":[[[77.1003217,22.7997646],[77.1003645,22.799764],[77.1003642,22.7997442],[77.1003641,22.799737],[77.1003641,22.7997352],[77.1003115,22.7997358],[77.1003099,22.7997593],[77.1003138,22.7997593],[77.1003217,22.7997646]]]}},{"type":"Feature","properties":{"parcel_id":"TMP-VI-0033","building_id":"B-0033","area_m2":15.6,"perimeter_m":17.2,"building_coverage":0.61,"vegetation_share":0.01,"landuse":"Built-up","status":"Draft / Unverified"},"geometry":{"type":"Polygon","coordinates":[[[77.100454,22.7997556],[77.1004596,22.7997411],[77.1004595,22.7997321],[77.1004361,22.7997324],[77.1004321,22.7997288],[77.100432,22.7997198],[77.1004184,22.7997236],[77.1004127,22.7997291],[77.1004169,22.7997507],[77.1004287,22.7997578],[77.1004425,22.7997702],[77.1004425,22.799772],[77.100454,22.7997556]]]}},{"type":"Feature","properties":{"parcel_id":"TMP-VI-0034","building_id":"B-0035","area_m2":42.9,"perimeter_m":30.1,"building_coverage":0.72,"vegetation_share":0.18,"landuse":"Built-up","status":"Draft / Unverified"},"geometry":{"type":"Polygon","coordinates":[[[77.1005168,22.7997855],[77.1005282,22.7997655],[77.1005456,22.7997617],[77.1005474,22.799749],[77.1005493,22.799749],[77.1005467,22.7997057],[77.1005428,22.7997039],[77.100498,22.7997045],[77.1004942,22.7997118],[77.1004985,22.7997388],[77.1005009,22.7997659],[77.1004952,22.799775],[77.1004897,22.7997967],[77.1004897,22.7998003],[77.1005033,22.7997965],[77.1005148,22.7997855],[77.1005168,22.7997855]]]}},{"type":"Feature","properties":{"parcel_id":"TMP-VI-0035","building_id":"B-0032","area_m2":57.6,"perimeter_m":32.5,"building_coverage":0.84,"vegetation_share":0.02,"landuse":"Built-up","status":"Draft / Unverified"},"geometry":{"type":"Polygon","coordinates":[[[77.1007253,22.7997918],[77.1007407,22.7997808],[77.1007426,22.7997807],[77.1007366,22.7997646],[77.1007362,22.7997429],[77.1007516,22.7997282],[77.1007514,22.7997192],[77.1007397,22.7997176],[77.1007376,22.799705],[77.1007277,22.7996961],[77.1007082,22.7996945],[77.1006887,22.7996948],[77.100683,22.7997003],[77.1006896,22.7997489],[77.1006839,22.7997616],[77.1006841,22.7997725],[77.100694,22.7997832],[77.100698,22.799794],[77.1007078,22.7997938],[77.1007253,22.7997918]]]}},{"type":"Feature","properties":{"parcel_id":"TMP-VI-0036","building_id":"B-0037","area_m2":65.1,"perimeter_m":36.3,"building_coverage":0.66,"vegetation_share":0.19,"landuse":"Built-up","status":"Draft / Unverified"},"geometry":{"type":"Polygon","coordinates":[[[77.1007739,22.7997839],[77.1007874,22.7997765],[77.1008029,22.7997727],[77.1008028,22.7997691],[77.1008141,22.7997419],[77.1008082,22.7997401],[77.100808,22.7997221],[77.1008118,22.7997148],[77.1008096,22.7996986],[77.1007958,22.7996933],[77.1007956,22.7996807],[77.1007916,22.7996699],[77.1007799,22.7996701],[77.1007684,22.7996847],[77.1007743,22.7996882],[77.1007745,22.7996972],[77.100761,22.7997046],[77.1007592,22.7997173],[77.1007514,22.7997192],[77.1007516,22.7997282],[77.1007362,22.7997429],[77.1007366,22.7997646],[77.1007426,22.7997807],[77.1007465,22.7997807],[77.1007524,22.7997842],[77.1007739,22.7997857],[77.1007739,22.7997839]]]}},{"type":"Feature","properties":{"parcel_id":"TMP-VI-0037","building_id":"B-0038","area_m2":26.2,"perimeter_m":20.0,"building_coverage":0.98,"vegetation_share":0.25,"landuse":"Built-up","status":"Draft / Unverified"},"geometry":{"type":"Polygon","coordinates":[[[77.1005864,22.7997539],[77.1005864,22.7997521],[77.1005937,22.7997195],[77.1005934,22.7997032],[77.1005836,22.7996961],[77.1005524,22.7996966],[77.1005467,22.7997057],[77.1005493,22.799749],[77.1005649,22.7997488],[77.1005864,22.7997539]]]}},{"type":"Feature","properties":{"parcel_id":"TMP-VI-0038","building_id":"B-0030","area_m2":47.7,"perimeter_m":32.8,"building_coverage":0.38,"vegetation_share":0.47,"landuse":"Built-up","status":"Draft / Unverified"},"geometry":{"type":"Polygon","coordinates":[[[77.1008381,22.7997831],[77.1008381,22.7997813],[77.1008494,22.7997577],[77.1008492,22.799745],[77.1008569,22.7997377],[77.1008606,22.7997232],[77.100876,22.7997104],[77.1008758,22.7997013],[77.1008677,22.7996816],[77.1008658,22.7996816],[77.1008501,22.7996764],[77.1008501,22.7996746],[77.1008326,22.7996748],[77.1008288,22.7996821],[77.1008291,22.7997056],[77.1008214,22.7997075],[77.1008237,22.7997309],[77.1008199,22.79974],[77.1008141,22.7997419],[77.1008028,22.7997691],[77.1008029,22.7997745],[77.1008381,22.7997831]]]}},{"type":"Feature","properties":{"parcel_id":"TMP-VI-0039","building_id":"B-0039","area_m2":30.3,"perimeter_m":22.9,"building_coverage":0.94,"vegetation_share":0.33,"landuse":"Built-up","status":"Draft / Unverified"},"geometry":{"type":"Polygon","coordinates":[[[77.1001245,22.7997383],[77.1001323,22.7997382],[77.10014,22.7997309],[77.100138,22.7997255],[77.1001395,22.7996984],[77.1001258,22.7996913],[77.1001141,22.7996915],[77.1001045,22.7997025],[77.100091,22.7997099],[77.1000812,22.7997082],[77.1000734,22.7997083],[77.1000736,22.7997155],[77.1000659,22.7997228],[77.100066,22.7997319],[77.1000758,22.7997371],[77.1000993,22.7997405],[77.1001091,22.7997457],[77.1001245,22.7997383]]]}},{"type":"Feature","properties":{"parcel_id":"TMP-VI-0040","building_id":"B-0040","area_m2":160.6,"perimeter_m":49.1,"building_coverage":0.22,"vegetation_share":0.51,"landuse":"Vegetated plot","status":"Draft / Unverified"},"geometry":{"type":"Polygon","coordinates":[[[77.1009493,22.7997943],[77.1009745,22.7997831],[77.1009879,22.7997703],[77.1009992,22.7997467],[77.1010028,22.7997285],[77.1010026,22.7997141],[77.1009928,22.799707],[77.1009828,22.7996927],[77.1009727,22.7996712],[77.1009725,22.7996549],[77.1009706,22.7996549],[77.1009548,22.7996407],[77.1009547,22.7996389],[77.1009528,22.7996407],[77.1009216,22.7996411],[77.1009178,22.7996466],[77.1008966,22.7996559],[77.1008851,22.7996687],[77.1008697,22.7996815],[77.1008677,22.7996816],[77.1008758,22.7997013],[77.100876,22.7997122],[77.1008799,22.7997139],[77.100892,22.799739],[77.1008921,22.7997463],[77.1009061,22.7997732],[77.10092,22.7997856],[77.1009279,22.7997963],[77.1009493,22.7997943]]]}},{"type":"Feature","properties":{"parcel_id":"TMP-VI-0041","building_id":"B-0042","area_m2":40.4,"perimeter_m":25.1,"building_coverage":0.89,"vegetation_share":0.01,"landuse":"Built-up","status":"Draft / Unverified"},"geometry":{"type":"Polygon","coordinates":[[[77.1007296,22.7996906],[77.1007451,22.7996868],[77.1007528,22.7996813],[77.1007526,22.799665],[77.1007602,22.7996523],[77.1007601,22.7996469],[77.1007366,22.7996418],[77.1007016,22.7996422],[77.1006899,22.7996442],[77.1006822,22.7996497],[77.1006827,22.7996822],[77.1006809,22.7996894],[77.1006868,22.7996948],[77.1007082,22.7996945],[77.1007277,22.7996961],[77.1007296,22.7996906]]]}},{"type":"Feature","properties":{"parcel_id":"TMP-VI-0042","building_id":"B-0046","area_m2":45.2,"perimeter_m":30.3,"building_coverage":0.31,"vegetation_share":0.55,"landuse":"Built-up","status":"Draft / Unverified"},"geometry":{"type":"Polygon","coordinates":[[[77.1010027,22.7997177],[77.1010202,22.7997157],[77.1010199,22.7996958],[77.1010236,22.7996849],[77.1010231,22.7996506],[77.1010347,22.7996451],[77.1010442,22.7996323],[77.1010343,22.7996234],[77.1010246,22.7996199],[77.1010031,22.7996184],[77.1010031,22.7996202],[77.1010014,22.7996329],[77.100984,22.7996439],[77.1009744,22.7996549],[77.1009725,22.7996549],[77.1009727,22.7996712],[77.1009828,22.7996927],[77.1009928,22.799707],[77.1010026,22.7997141],[77.1010027,22.7997177]]]}},{"type":"Feature","properties":{"parcel_id":"TMP-VI-0043","building_id":"B-0041","area_m2":93.8,"perimeter_m":52.6,"building_coverage":0.65,"vegetation_share":0.51,"landuse":"Built-up","status":"Draft / Unverified"},"geometry":{"type":"Polygon","coordinates":[[[77.100361,22.7996648],[77.1003589,22.799654],[77.1003666,22.799643],[77.1003664,22.799634],[77.1003586,22.7996305],[77.1003099,22.7996311],[77.1003082,22.7996456],[77.1002984,22.7996457],[77.1002983,22.7996367],[77.1002865,22.7996278],[77.1002786,22.7996261],[77.1002746,22.799619],[77.1002532,22.7996192],[77.1002515,22.7996319],[77.1002521,22.7996716],[77.1002578,22.7996643],[77.1002773,22.7996641],[77.1002794,22.7996767],[77.1002951,22.7996801],[77.1002989,22.7996746],[77.1003106,22.7996781],[77.1003129,22.7997033],[77.1003208,22.7997104],[77.1003559,22.79971],[77.1003657,22.7997153],[77.100389,22.7997095],[77.1003986,22.7997022],[77.1004003,22.7996841],[77.1004041,22.7996786],[77.1004001,22.7996733],[77.1003864,22.799668],[77.100361,22.7996648]]]}},{"type":"Feature","properties":{"parcel_id":"TMP-VI-0044","building_id":"B-0044","area_m2":72.0,"perimeter_m":40.7,"building_coverage":0.86,"vegetation_share":0.08,"landuse":"Built-up","status":"Draft / Unverified"},"geometry":{"type":"Polygon","coordinates":[[[77.1005052,22.7996683],[77.1004936,22.7996684],[77.1004858,22.799674],[77.1004821,22.799683],[77.1004957,22.7996847],[77.1005036,22.79969],[77.1005113,22.7996808],[77.1006106,22.7996795],[77.1006106,22.7996777],[77.1006145,22.7996777],[77.10062,22.7996595],[77.1006197,22.7996415],[77.1005847,22.799642],[77.1005824,22.7996203],[77.1005668,22.7996169],[77.1005454,22.799619],[77.1005142,22.7996194],[77.1005104,22.7996231],[77.1005107,22.7996465],[77.100505,22.799652],[77.1005052,22.7996683]]]}},{"type":"Feature","properties":{"parcel_id":"TMP-VI-0045","building_id":"B-0047","area_m2":130.0,"perimeter_m":49.9,"building_coverage":0.97,"vegetation_share":0.41,"landuse":"Built-up","status":"Draft / Unverified"},"geometry":{"type":"Polygon","coordinates":[[[77.1000328,22.7997251],[77.1000444,22.7997213],[77.1000617,22.7997066],[77.1000734,22.7997083],[77.100083,22.7996955],[77.1000826,22.799672],[77.1000727,22.7996595],[77.1000706,22.7996523],[77.1000696,22.7995819],[77.1000617,22.7995748],[77.100013,22.7995754],[77.0999994,22.7995774],[77.0999973,22.7995666],[77.0999934,22.7995667],[77.0999958,22.7997238],[77.1000328,22.7997251]]]}},{"type":"Feature","properties":{"parcel_id":"TMP-VI-0046","building_id":"B-0043","area_m2":27.3,"perimeter_m":20.3,"building_coverage":0.98,"vegetation_share":0.13,"landuse":"Built-up","status":"Draft / Unverified"},"geometry":{"type":"Polygon","coordinates":[[[77.1004001,22.7996733],[77.1004041,22.7996786],[77.1004236,22.7996784],[77.1004352,22.7996746],[77.1004389,22.7996583],[77.1004384,22.7996294],[77.1004364,22.7996277],[77.1003897,22.7996283],[77.1003878,22.7996301],[77.1003883,22.7996626],[77.1003863,22.7996626],[77.1003864,22.799668],[77.1004001,22.7996733]]]}},{"type":"Feature","properties":{"parcel_id":"TMP-VI-0047","building_id":"B-0045","area_m2":29.0,"perimeter_m":22.6,"building_coverage":0.94,"vegetation_share":0.09,"landuse":"Built-up","status":"Draft / Unverified"},"geometry":{"type":"Polygon","coordinates":[[[77.1006197,22.7996415],[77.10062,22.7996595],[77.1006145,22.7996777],[77.1006165,22.7996813],[77.1006515,22.7996826],[77.1006571,22.7996663],[77.100657,22.7996573],[77.1006626,22.7996409],[77.1006622,22.7996175],[77.1006486,22.7996176],[77.1006426,22.7996105],[77.1006272,22.7996179],[77.1006217,22.7996415],[77.1006197,22.7996415]]]}},{"type":"Feature","properties":{"parcel_id":"TMP-VI-0048","building_id":"B-0048","area_m2":17.0,"perimeter_m":15.5,"building_coverage":0.86,"vegetation_share":0.21,"landuse":"Built-up","status":"Draft / Unverified"},"geometry":{"type":"Polygon","coordinates":[[[77.1005107,22.7996465],[77.1005104,22.7996249],[77.1004986,22.7996196],[77.1004655,22.79962],[77.1004618,22.7996309],[77.100464,22.7996472],[77.1004719,22.7996525],[77.1004933,22.799654],[77.100505,22.799652],[77.1005107,22.7996465]]]}},{"type":"Feature","properties":{"parcel_id":"TMP-VI-0049","building_id":"B-0051","area_m2":69.1,"perimeter_m":38.4,"building_coverage":0.76,"vegetation_share":0.17,"landuse":"Built-up","status":"Draft / Unverified"},"geometry":{"type":"Polygon","coordinates":[[[77.1008497,22.7996511],[77.1008478,22.7996511],[77.1008474,22.7996259],[77.1008493,22.7996258],[77.1008486,22.7995753],[77.1008485,22.7995717],[77.1008447,22.7995753],[77.1008272,22.7995774],[77.1007863,22.7995779],[77.1007863,22.7995761],[77.1007824,22.7995761],[77.1007805,22.7995798],[77.1007785,22.7995798],[77.1007788,22.7995979],[77.100775,22.7996051],[77.1007736,22.7996431],[77.1007756,22.7996449],[77.1008087,22.7996444],[77.1008128,22.7996552],[77.1008051,22.7996607],[77.1008052,22.7996697],[77.100815,22.7996696],[77.1008306,22.7996748],[77.1008501,22.7996746],[77.1008497,22.7996511]]]}},{"type":"Feature","properties":{"parcel_id":"TMP-VI-0050","building_id":"B-0049","area_m2":20.8,"perimeter_m":17.9,"building_coverage":0.69,"vegetation_share":0.14,"landuse":"Built-up","status":"Draft / Unverified"},"geometry":{"type":"Polygon","coordinates":[[[77.1009744,22.7996549],[77.100984,22.7996439],[77.1010014,22.7996329],[77.1010031,22.7996202],[77.1010031,22.7996166],[77.1009971,22.7996076],[77.1009718,22.7996062],[77.10096,22.7996009],[77.10096,22.7996027],[77.1009543,22.7996136],[77.1009546,22.7996335],[77.1009548,22.7996407],[77.1009706,22.7996549],[77.1009744,22.7996549]]]}},{"type":"Feature","properties":{"parcel_id":"TMP-VI-0051","building_id":"B-0050","area_m2":16.4,"perimeter_m":17.2,"building_coverage":0.98,"vegetation_share":0.0,"landuse":"Built-up","status":"Draft / Unverified"},"geometry":{"type":"Polygon","coordinates":[[[77.1001272,22.7996588],[77.1001348,22.7996479],[77.1001365,22.7996316],[77.1001422,22.7996189],[77.1001343,22.7996118],[77.1001341,22.7996009],[77.1001185,22.7995957],[77.1001091,22.7996175],[77.1001094,22.799641],[77.1001175,22.7996589],[77.1001272,22.7996588]]]}},{"type":"Feature","properties":{"parcel_id":"TMP-VI-0052","building_id":"B-0052","area_m2":50.6,"perimeter_m":28.6,"building_coverage":0.97,"vegetation_share":0.19,"landuse":"Built-up","status":"Draft / Unverified"},"geometry":{"type":"Polygon","coordinates":[[[77.1007736,22.7996431],[77.100775,22.7996051],[77.1007788,22.7995979],[77.1007785,22.7995798],[77.1007707,22.7995799],[77.1007589,22.7995728],[77.100755,22.7995729],[77.100753,22.7995693],[77.1007297,22.7995696],[77.100726,22.7995841],[77.1007184,22.799595],[77.1007126,22.7995969],[77.1007051,22.7996205],[77.1007055,22.7996422],[77.1007366,22.7996418],[77.1007601,22.7996469],[77.1007736,22.7996431]]]}},{"type":"Feature","properties":{"parcel_id":"TMP-VI-0053","building_id":"B-0053","area_m2":127.1,"perimeter_m":47.5,"building_coverage":0.75,"vegetation_share":0.04,"landuse":"Built-up","status":"Draft / Unverified"},"geometry":{"type":"Polygon","coordinates":[[[77.1008697,22.7996815],[77.1008851,22.7996687],[77.1008966,22.7996559],[77.1009178,22.7996466],[77.1009216,22.7996411],[77.1009528,22.7996407],[77.1009547,22.7996389],[77.1009546,22.7996335],[77.1009543,22.7996136],[77.10096,22.7996027],[77.1009599,22.7995937],[77.1009595,22.7995702],[77.1009633,22.7995629],[77.1009614,22.799563],[77.1009495,22.7995541],[77.1009222,22.7995526],[77.1009124,22.7995437],[77.1009124,22.7995455],[77.100897,22.7995566],[77.10086,22.7995571],[77.1008484,22.7995662],[77.1008486,22.7995753],[77.1008493,22.7996258],[77.1008474,22.7996259],[77.1008478,22.7996511],[77.1008497,22.7996511],[77.1008501,22.7996764],[77.1008658,22.7996816],[77.1008697,22.7996815]]]}},{"type":"Feature","properties":{"parcel_id":"TMP-VI-0054","building_id":"B-0054","area_m2":70.5,"perimeter_m":38.7,"building_coverage":0.75,"vegetation_share":0.1,"landuse":"Built-up","status":"Draft / Unverified"},"geometry":{"type":"Polygon","coordinates":[[[77.1006217,22.7996415],[77.1006272,22.7996179],[77.1006426,22.7996105],[77.1006483,22.7995996],[77.1006581,22.7995995],[77.1006735,22.7995884],[77.1006614,22.7995651],[77.1006495,22.7995526],[77.1006474,22.79954],[77.1006473,22.7995328],[77.1006376,22.7995329],[77.1006219,22.7995277],[77.1006181,22.7995314],[77.1006044,22.7995315],[77.1006065,22.7995423],[77.1006028,22.7995496],[77.1006087,22.799555],[77.1006088,22.799564],[77.1006012,22.7995731],[77.1005914,22.7995714],[77.1005857,22.7995787],[77.1005838,22.7995842],[77.1005858,22.7995842],[77.1005824,22.7996203],[77.1005847,22.799642],[77.1006217,22.7996415]]]}},{"type":"Feature","properties":{"parcel_id":"TMP-VI-0055","building_id":"B-0056","area_m2":414.9,"perimeter_m":92.3,"building_coverage":0.6,"vegetation_share":0.23,"landuse":"Built-up","status":"Draft / Unverified"},"geometry":{"type":"Polygon","coordinates":[[[77.100974,22.7995014],[77.1009742,22.7995122],[77.1009762,22.7995122],[77.1009821,22.7995193],[77.1009825,22.7995482],[77.1009788,22.7995555],[77.1009652,22.7995629],[77.1009633,22.7995629],[77.1009595,22.7995702],[77.1009599,22.7995937],[77.10096,22.7996009],[77.1009718,22.7996062],[77.1009971,22.7996076],[77.1010031,22.7996166],[77.1010031,22.7996184],[77.1010246,22.7996199],[77.1010343,22.7996234],[77.1010442,22.7996323],[77.1010347,22.7996451],[77.1010231,22.7996506],[77.1010236,22.7996849],[77.1010199,22.7996958],[77.1010202,22.7997157],[77.1010378,22.7997191],[77.1010669,22.7997169],[77.1010825,22.799713],[77.1011076,22.7997019],[77.1011249,22.7996836],[77.1011343,22.7996636],[77.1011342,22.7996546],[77.1011436,22.7996364],[77.1011409,22.7994613],[77.1011233,22.7994561],[77.1011235,22.7994651],[77.1011137,22.7994652],[77.1011077,22.7994563],[77.1009909,22.7994578],[77.1009814,22.7994724],[77.100974,22.7995014]]]}},{"type":"Feature","properties":{"parcel_id":"TMP-VI-0056","building_id":"B-0055","area_m2":17.2,"perimeter_m":21.5,"building_coverage":0.85,"vegetation_share":0.0,"landuse":"Built-up","status":"Draft / Unverified"},"geometry":{"type":"Polygon","coordinates":[[[77.1007805,22.7995798],[77.1007824,22.7995761],[77.1007843,22.7995761],[77.1007879,22.7995562],[77.1007917,22.7995525],[77.1007934,22.7995345],[77.100793,22.799511],[77.100789,22.799502],[77.100789,22.7994984],[77.1007831,22.7994985],[77.1007774,22.7995076],[77.1007757,22.7995239],[77.100772,22.7995329],[77.1007666,22.7995655],[77.1007609,22.7995728],[77.1007589,22.7995728],[77.1007707,22.7995799],[77.1007805,22.7995798]]]}},{"type":"Feature","properties":{"parcel_id":"TMP-VI-0057","building_id":"B-0061","area_m2":104.3,"perimeter_m":40.7,"building_coverage":0.23,"vegetation_share":0.67,"landuse":"Vegetated plot","status":"Draft / Unverified"},"geometry":{"type":"Polygon","coordinates":[[[77.100376,22.7994984],[77.1003546,22.7994969],[77.1003488,22.7994988],[77.1003277,22.7995207],[77.1003084,22.7995354],[77.1003008,22.7995464],[77.1003088,22.7995625],[77.1003227,22.799575],[77.1003442,22.7995819],[77.1003967,22.7995776],[77.1004085,22.7995811],[77.1004298,22.7995754],[77.1004414,22.799568],[77.1004431,22.7995517],[77.1004352,22.7995482],[77.1004351,22.7995392],[77.1004408,22.7995301],[77.1004251,22.7995213],[77.100425,22.799514],[77.1004131,22.7995034],[77.100415,22.7994979],[77.100376,22.7994984]]]}},{"type":"Feature","properties":{"parcel_id":"TMP-VI-0058","building_id":"B-0057","area_m2":27.4,"perimeter_m":20.9,"building_coverage":0.68,"vegetation_share":0.0,"landuse":"Built-up","status":"Draft / Unverified"},"geometry":{"type":"Polygon","coordinates":[[[77.100897,22.7995566],[77.1009124,22.7995455],[77.1009123,22.7995401],[77.100916,22.7995256],[77.1009157,22.7995094],[77.1009118,22.7995094],[77.100902,22.7995023],[77.1008689,22.7995028],[77.1008693,22.799528],[77.1008655,22.7995353],[77.1008657,22.7995498],[77.1008619,22.799557],[77.100897,22.7995566]]]}},{"type":"Feature","properties":{"parcel_id":"TMP-VI-0059","building_id":"B-0058","area_m2":31.6,"perimeter_m":22.9,"building_coverage":0.62,"vegetation_share":0.05,"landuse":"Built-up","status":"Draft / Unverified"},"geometry":{"type":"Polygon","coordinates":[[[77.1009652,22.7995629],[77.1009788,22.7995555],[77.1009825,22.7995482],[77.1009821,22.7995193],[77.1009762,22.7995122],[77.1009703,22.7995123],[77.1009626,22.799516],[77.1009294,22.7995146],[77.1009158,22.7995112],[77.100916,22.7995256],[77.1009123,22.7995401],[77.1009124,22.7995437],[77.1009222,22.7995526],[77.1009495,22.7995541],[77.1009614,22.799563],[77.1009652,22.7995629]]]}},{"type":"Feature","properties":{"parcel_id":"TMP-VI-0060","building_id":"B-0059","area_m2":36.1,"perimeter_m":31.7,"building_coverage":0.98,"vegetation_share":0.29,"landuse":"Built-up","status":"Draft / Unverified"},"geometry":{"type":"Polygon","coordinates":[[[77.1005857,22.7995787],[77.1005797,22.7995716],[77.1005813,22.7995463],[77.100585,22.7995336],[77.1005847,22.7995155],[77.1005885,22.7995083],[77.100588,22.7994776],[77.10059,22.7994776],[77.1005899,22.7994721],[77.100586,22.7994704],[77.1005645,22.7994707],[77.1005649,22.7994941],[77.1005591,22.7994996],[77.1005552,22.7994997],[77.1005558,22.7995376],[77.1005522,22.7995575],[77.1005526,22.7995792],[77.1005624,22.7995845],[77.1005838,22.7995842],[77.1005857,22.7995787]]]}},{"type":"Feature","properties":{"parcel_id":"TMP-VI-0061","building_id":"B-0062","area_m2":46.5,"perimeter_m":34.2,"building_coverage":0.78,"vegetation_share":0.16,"landuse":"Built-up","status":"Draft / Unverified"},"geometry":{"type":"Polygon","coordinates":[[[77.1006831,22.7995829],[77.100683,22.7995738],[77.1006924,22.799552],[77.1006939,22.7995267],[77.10069,22.7995232],[77.1006898,22.7995105],[77.1006936,22.7995033],[77.1006934,22.7994888],[77.1006894,22.7994853],[77.1006889,22.7994546],[77.1006675,22.7994549],[77.1006638,22.7994675],[77.100664,22.799482],[77.1006585,22.7995019],[77.1006587,22.7995128],[77.1006473,22.799531],[77.1006474,22.79954],[77.1006495,22.7995526],[77.1006614,22.7995651],[77.1006735,22.7995884],[77.1006831,22.7995829]]]}},{"type":"Feature","properties":{"parcel_id":"TMP-VI-0062","building_id":"B-0063","area_m2":80.5,"perimeter_m":38.9,"building_coverage":1.0,"vegetation_share":0.0,"landuse":"Built-up","status":"Draft / Unverified"},"geometry":{"type":"Polygon","coordinates":[[[77.1007609,22.7995728],[77.1007666,22.7995655],[77.100772,22.7995329],[77.1007757,22.7995239],[77.1007774,22.7995076],[77.1007831,22.7994985],[77.100789,22.7994984],[77.1007889,22.7994966],[77.1007907,22.7994821],[77.1007901,22.7994442],[77.1007842,22.7994443],[77.1007647,22.7994427],[77.1007318,22.7994558],[77.1007281,22.7994667],[77.1007266,22.7994938],[77.1007155,22.7995337],[77.100714,22.7995626],[77.1007297,22.7995696],[77.100753,22.7995693],[77.100755,22.7995729],[77.1007609,22.7995728]]]}},{"type":"Feature","properties":{"parcel_id":"TMP-VI-0063","building_id":"B-0064","area_m2":120.5,"perimeter_m":46.0,"building_coverage":0.92,"vegetation_share":0.12,"landuse":"Built-up","status":"Draft / Unverified"},"geometry":{"type":"Polygon","coordinates":[[[77.1008484,22.7995662],[77.10086,22.7995571],[77.1008619,22.799557],[77.1008657,22.7995498],[77.1008655,22.7995353],[77.1008693,22.799528],[77.1008682,22.7994558],[77.10087,22.7994468],[77.100862,22.7994378],[77.1008328,22.7994346],[77.1007938,22.7994351],[77.1007901,22.7994442],[77.1007907,22.7994821],[77.1007889,22.7994966],[77.100789,22.799502],[77.100793,22.799511],[77.1007934,22.7995345],[77.1007917,22.7995525],[77.1007879,22.7995562],[77.1007843,22.7995761],[77.1007863,22.7995761],[77.1007863,22.7995779],[77.1008272,22.7995774],[77.1008447,22.7995753],[77.1008485,22.7995717],[77.1008484,22.7995662]]]}},{"type":"Feature","properties":{"parcel_id":"TMP-VI-0064","building_id":"B-0060","area_m2":73.2,"perimeter_m":36.9,"building_coverage":0.98,"vegetation_share":0.28,"landuse":"Built-up","status":"Draft / Unverified"},"geometry":{"type":"Polygon","coordinates":[[[77.0999971,22.7995594],[77.1000245,22.7995627],[77.100036,22.7995535],[77.1000378,22.7995444],[77.1000514,22.7995388],[77.1000689,22.7995404],[77.1000745,22.7995259],[77.1000742,22.7995024],[77.1000761,22.7995024],[77.1000757,22.7994735],[77.1000484,22.7994739],[77.1000484,22.799472],[77.0999919,22.7994728],[77.0999934,22.7995667],[77.0999973,22.7995666],[77.0999971,22.7995594]]]}},{"type":"Feature","properties":{"parcel_id":"TMP-VI-0065","building_id":"B-0065","area_m2":36.4,"perimeter_m":25.8,"building_coverage":0.83,"vegetation_share":0.0,"landuse":"Built-up","status":"Draft / Unverified"},"geometry":{"type":"Polygon","coordinates":[[[77.1006376,22.7995329],[77.1006473,22.7995328],[77.1006473,22.799531],[77.1006587,22.7995128],[77.1006585,22.7995019],[77.100664,22.799482],[77.1006638,22.7994675],[77.1006675,22.7994549],[77.1006656,22.7994549],[77.1006616,22.7994477],[77.1006478,22.7994389],[77.1006478,22.7994407],[77.1006305,22.7994553],[77.1006249,22.7994681],[77.100625,22.7994735],[77.100627,22.7994807],[77.1006174,22.7994916],[77.1006177,22.7995097],[77.1006219,22.7995277],[77.1006376,22.7995329]]]}},{"type":"Feature","properties":{"parcel_id":"TMP-VI-0066","building_id":"B-0067","area_m2":37.2,"perimeter_m":24.6,"building_coverage":0.81,"vegetation_share":0.0,"landuse":"Built-up","status":"Draft / Unverified"},"geometry":{"type":"Polygon","coordinates":[[[77.1009272,22.7994966],[77.100929,22.7994875],[77.1009285,22.7994532],[77.1009304,22.7994514],[77.1009265,22.7994496],[77.1008934,22.7994501],[77.10087,22.7994468],[77.1008682,22.7994558],[77.1008689,22.7995028],[77.100902,22.7995023],[77.1009118,22.7995094],[77.1009177,22.7995093],[77.1009272,22.7994966]]]}},{"type":"Feature","properties":{"parcel_id":"TMP-VI-0067","building_id":"B-0066","area_m2":37.9,"perimeter_m":25.2,"building_coverage":0.84,"vegetation_share":0.0,"landuse":"Built-up","status":"Draft / Unverified"},"geometry":{"type":"Polygon","coordinates":[[[77.1009294,22.7995146],[77.1009626,22.799516],[77.1009703,22.7995123],[77.1009742,22.7995122],[77.100974,22.7995014],[77.1009814,22.7994724],[77.1009754,22.7994634],[77.1009752,22.7994526],[77.1009557,22.7994456],[77.1009381,22.7994459],[77.1009304,22.7994514],[77.1009285,22.7994532],[77.100929,22.7994875],[77.1009272,22.7994966],[77.1009177,22.7995093],[77.1009157,22.7995094],[77.1009158,22.7995112],[77.1009294,22.7995146]]]}},{"type":"Feature","properties":{"parcel_id":"TMP-VI-0068","building_id":"B-0068","area_m2":401.2,"perimeter_m":126.5,"building_coverage":0.7,"vegetation_share":0.21,"landuse":"Built-up","status":"Draft / Unverified"},"geometry":{"type":"Polygon","coordinates":[[[77.1004188,22.7994943],[77.100448,22.7994939],[77.1004521,22.7995028],[77.1004618,22.7995063],[77.1004679,22.7995171],[77.1004757,22.7995224],[77.1004682,22.7995369],[77.1004761,22.7995477],[77.1004956,22.7995474],[77.1005245,22.7995254],[77.1005224,22.7995182],[77.1005087,22.7995147],[77.1004891,22.7995042],[77.1004889,22.7994951],[77.1005123,22.799493],[77.1005298,22.7994946],[77.1005513,22.7994997],[77.1005591,22.7994996],[77.1005649,22.7994941],[77.1005645,22.7994707],[77.1005665,22.7994706],[77.1005657,22.7994165],[77.1005887,22.7993963],[77.1005887,22.7993927],[77.100281,22.7993967],[77.1002715,22.7994131],[77.1002678,22.7994294],[77.1002679,22.799433],[77.1002933,22.7994363],[77.100296,22.7994868],[77.1002668,22.7994908],[77.1002627,22.7994746],[77.1002723,22.7994691],[77.10028,22.7994582],[77.100274,22.7994474],[77.1002604,22.7994512],[77.1002567,22.7994621],[77.1002394,22.7994804],[77.1002417,22.7995002],[77.1002517,22.7995199],[77.1002675,22.7995324],[77.1002714,22.7995323],[77.1002891,22.7995447],[77.1003008,22.7995464],[77.1003084,22.7995354],[77.1003277,22.7995207],[77.1003488,22.7994988],[77.1003546,22.7994969],[77.100376,22.7994984],[77.100415,22.7994979],[77.1004188,22.7994943]]]}},{"type":"Feature","properties":{"parcel_id":"TMP-VI-0069","building_id":"B-0069","area_m2":59.2,"perimeter_m":29.6,"building_coverage":0.54,"vegetation_share":0.0,"landuse":"Built-up","status":"Draft / Unverified"},"geometry":{"type":"Polygon","coordinates":[[[77.1006074,22.7994719],[77.1006249,22.7994681],[77.1006305,22.7994553],[77.1006478,22.7994407],[77.1006477,22.7994298],[77.1006317,22.7994066],[77.1006276,22.7993922],[77.1005887,22.7993927],[77.1005887,22.7993963],[77.1005657,22.7994165],[77.1005665,22.7994706],[77.100586,22.7994704],[77.1005899,22.7994721],[77.1006074,22.7994719]]]}},{"type":"Feature","properties":{"parcel_id":"TMP-VI-0070","building_id":"B-0070","area_m2":75.4,"perimeter_m":39.5,"building_coverage":0.91,"vegetation_share":0.06,"landuse":"Built-up","status":"Draft / Unverified"},"geometry":{"type":"Polygon","coordinates":[[[77.1000813,22.799459],[77.1000808,22.7994247],[77.1000843,22.7994029],[77.1001077,22.7994026],[77.1001077,22.799399],[77.0999908,22.7994006],[77.0999919,22.7994728],[77.1000484,22.799472],[77.1000484,22.7994739],[77.1000757,22.7994735],[77.1000813,22.799459]]]}},{"type":"Feature","properties":{"parcel_id":"TMP-VI-0071","building_id":"B-0071","area_m2":48.8,"perimeter_m":40.9,"building_coverage":0.61,"vegetation_share":0.0,"landuse":"Built-up","status":"Draft / Unverified"},"geometry":{"type":"Polygon","coordinates":[[[77.1006889,22.7994546],[77.1006946,22.7994419],[77.1006943,22.7994256],[77.1007001,22.7994201],[77.1007177,22.7994235],[77.1007234,22.7994144],[77.1007251,22.7993999],[77.1007289,22.7993945],[77.1007757,22.7993938],[77.1007776,22.7993902],[77.1006276,22.7993922],[77.1006317,22.7994066],[77.1006477,22.7994298],[77.1006478,22.7994389],[77.1006616,22.7994477],[77.1006656,22.7994549],[77.1006889,22.7994546]]]}},{"type":"Feature","properties":{"parcel_id":"TMP-VI-0072","building_id":"B-0072","area_m2":47.2,"perimeter_m":30.5,"building_coverage":0.96,"vegetation_share":0.0,"landuse":"Built-up","status":"Draft / Unverified"},"geometry":{"type":"Polygon","coordinates":[[[77.1010113,22.7993925],[77.1010118,22.7994232],[77.10101,22.7994305],[77.1010178,22.7994358],[77.1010899,22.7994348],[77.1010977,22.7994365],[77.1011034,22.7994274],[77.1010934,22.7994113],[77.1010911,22.7993861],[77.1009996,22.7993873],[77.1009996,22.7993909],[77.1010113,22.7993925]]]}},{"type":"Feature","properties":{"parcel_id":"TMP-VI-0073","building_id":"B-0073","area_m2":31.1,"perimeter_m":24.7,"building_coverage":0.83,"vegetation_share":0.18,"landuse":"Built-up","status":"Draft / Unverified"},"geometry":{"type":"Polygon","coordinates":[[[77.1011409,22.7994613],[77.1011398,22.7993854],[77.1010911,22.7993861],[77.1010934,22.7994113],[77.1011034,22.7994274],[77.1011035,22.7994347],[77.1011114,22.7994436],[77.1011232,22.7994452],[77.1011233,22.7994561],[77.1011409,22.7994613]]]}},{"type":"Feature","properties":{"parcel_id":"TMP-VI-0074","building_id":"B-0074","area_m2":46.4,"perimeter_m":45.2,"building_coverage":0.78,"vegetation_share":0.48,"landuse":"Built-up","status":"Draft / Unverified"},"geometry":{"type":"Polygon","coordinates":[[[77.1002715,22.7994131],[77.100281,22.7993967],[77.1001077,22.799399],[77.1001077,22.7994026],[77.1001311,22.7994023],[77.1001353,22.7994203],[77.100145,22.7994202],[77.1001588,22.7994345],[77.1001803,22.7994342],[77.1002094,22.7994284],[77.1002405,22.799428],[77.1002441,22.7994063],[77.1002617,22.7994096],[77.100262,22.7994295],[77.1002678,22.7994294],[77.1002715,22.7994131]]]}},{"type":"Feature","properties":{"parcel_id":"TMP-VI-0075","building_id":"B-0075","area_m2":28.0,"perimeter_m":30.8,"building_coverage":0.55,"vegetation_share":0.49,"landuse":"Built-up","status":"Draft / Unverified"},"geometry":{"type":"Polygon","coordinates":[[[77.1008847,22.7993888],[77.1008967,22.7994103],[77.1009239,22.7994099],[77.1009296,22.799399],[77.1009394,22.7993989],[77.1009395,22.7994079],[77.1009454,22.7994151],[77.1009631,22.7994239],[77.1009826,22.7994218],[77.1009862,22.7994073],[77.100986,22.7993929],[77.1009996,22.7993909],[77.1009996,22.7993873],[77.1008847,22.7993888]]]}}]}