{
  "type": "FeatureCollection",
  "crs_note": "WGS84 / EPSG:4326 – same CRS used by all Dhara.ai GeoJSON layers",
  "digitised_at": "2026-09-23T14:39:57.179Z",
  "features": [
    {
      "type": "Feature",
      "properties": {
        "id": 1,
        "type": "building",
        "source": "manual_digitisation",
        "scene": "village_tiled"
      },
      "geometry": {
        "type": "Polygon",
        "coordinates": [
          [
            [
              77.100086,
              22.799983
            ],
            [
              77.100085,
              22.799892
            ],
            [
              77.10009,
              22.799796
            ],
            [
              77.100114,
              22.799801
            ],
            [
              77.100137,
              22.799805
            ],
            [
              77.100154,
              22.799814
            ],
            [
              77.100148,
              22.799857
            ],
            [
              77.100126,
              22.799886
            ],
            [
              77.100124,
              22.799904
            ],
            [
              77.100136,
              22.799906
            ],
            [
              77.100136,
              22.79992
            ],
            [
              77.100148,
              22.799928
            ],
            [
              77.100148,
              22.799939
            ],
            [
              77.100141,
              22.799947
            ],
            [
              77.100142,
              22.799963
            ],
            [
              77.100144,
              22.799982
            ],
            [
              77.100086,
              22.799983
            ]
          ]
        ]
      }
    },
    {
      "type": "Feature",
      "properties": {
        "id": 2,
        "type": "building",
        "source": "manual_digitisation",
        "scene": "village_tiled"
      },
      "geometry": {
        "type": "Polygon",
        "coordinates": [
          [
            [
              77.100144,
              22.799982
            ],
            [
              77.100163,
              22.799991
            ],
            [
              77.100184,
              22.799989
            ],
            [
              77.100185,
              22.799954
            ],
            [
              77.100189,
              22.799941
            ],
            [
              77.100187,
              22.799933
            ],
            [
              77.100166,
              22.799936
            ],
            [
              77.100148,
              22.799928
            ],
            [
              77.100148,
              22.799939
            ],
            [
              77.100141,
              22.799947
            ],
            [
              77.100144,
              22.799982
            ]
          ]
        ]
      }
    },
    {
      "type": "Feature",
      "properties": {
        "id": 3,
        "type": "building",
        "source": "manual_digitisation",
        "scene": "village_tiled"
      },
      "geometry": {
        "type": "Polygon",
        "coordinates": [
          [
            [
              77.100187,
              22.799933
            ],
            [
              77.100188,
              22.799892
            ],
            [
              77.100177,
              22.79991
            ],
            [
              77.100136,
              22.799906
            ],
            [
              77.100136,
              22.79992
            ],
            [
              77.100166,
              22.799936
            ],
            [
              77.100187,
              22.799933
            ]
          ]
        ]
      }
    },
    {
      "type": "Feature",
      "properties": {
        "id": 4,
        "type": "building",
        "source": "manual_digitisation",
        "scene": "village_tiled"
      },
      "geometry": {
        "type": "Polygon",
        "coordinates": [
          [
            [
              77.100148,
              22.799854
            ],
            [
              77.100195,
              22.799855
            ],
            [
              77.100199,
              22.799878
            ],
            [
              77.100188,
              22.799892
            ],
            [
              77.100177,
              22.79991
            ],
            [
              77.100136,
              22.799906
            ],
            [
              77.100124,
              22.799904
            ],
            [
              77.100126,
              22.799886
            ],
            [
              77.100148,
              22.799854
            ]
          ]
        ]
      }
    },
    {
      "type": "Feature",
      "properties": {
        "id": 5,
        "type": "building",
        "source": "manual_digitisation",
        "scene": "village_tiled"
      },
      "geometry": {
        "type": "Polygon",
        "coordinates": [
          [
            [
              77.100154,
              22.799814
            ],
            [
              77.100149,
              22.79981
            ],
            [
              77.100163,
              22.799783
            ],
            [
              77.100211,
              22.799788
            ],
            [
              77.100206,
              22.799811
            ],
            [
              77.100211,
              22.799815
            ],
            [
              77.100212,
              22.799824
            ],
            [
              77.10021,
              22.799846
            ],
            [
              77.10021,
              22.799853
            ],
            [
              77.100195,
              22.799855
            ],
            [
              77.100148,
              22.799854
            ],
            [
              77.100154,
              22.799814
            ]
          ]
        ]
      }
    },
    {
      "type": "Feature",
      "properties": {
        "id": 6,
        "type": "building",
        "source": "manual_digitisation",
        "scene": "village_tiled"
      },
      "geometry": {
        "type": "Polygon",
        "coordinates": [
          [
            [
              77.100694,
              22.799875
            ],
            [
              77.100692,
              22.799869
            ],
            [
              77.100685,
              22.799866
            ],
            [
              77.100692,
              22.799837
            ],
            [
              77.100696,
              22.799838
            ],
            [
              77.100705,
              22.799797
            ],
            [
              77.100749,
              22.799806
            ],
            [
              77.100755,
              22.799804
            ],
            [
              77.100784,
              22.799807
            ],
            [
              77.100795,
              22.799802
            ],
            [
              77.100842,
              22.799808
            ],
            [
              77.100838,
              22.799832
            ],
            [
              77.100862,
              22.799835
            ],
            [
              77.100853,
              22.799865
            ],
            [
              77.100829,
              22.799864
            ],
            [
              77.100825,
              22.799869
            ],
            [
              77.100793,
              22.799864
            ],
            [
              77.100788,
              22.799867
            ],
            [
              77.100762,
              22.799863
            ],
            [
              77.100758,
              22.799857
            ],
            [
              77.100739,
              22.799857
            ],
            [
              77.100731,
              22.799882
            ],
            [
              77.100694,
              22.799875
            ]
          ]
        ]
      }
    },
    {
      "type": "Feature",
      "properties": {
        "id": 7,
        "type": "building",
        "source": "manual_digitisation",
        "scene": "village_tiled"
      },
      "geometry": {
        "type": "Polygon",
        "coordinates": [
          [
            [
              77.100682,
              22.799738
            ],
            [
              77.100682,
              22.799698
            ],
            [
              77.100771,
              22.799696
            ],
            [
              77.100775,
              22.799701
            ],
            [
              77.100682,
              22.799738
            ]
          ]
        ]
      }
    },
    {
      "type": "Feature",
      "properties": {
        "id": 8,
        "type": "building",
        "source": "manual_digitisation",
        "scene": "village_tiled"
      },
      "geometry": {
        "type": "Polygon",
        "coordinates": [
          [
            [
              77.100681,
              22.799735
            ],
            [
              77.100683,
              22.799698
            ],
            [
              77.100734,
              22.799698
            ],
            [
              77.100774,
              22.799696
            ],
            [
              77.100808,
              22.799696
            ],
            [
              77.100816,
              22.799704
            ],
            [
              77.100804,
              22.799755
            ],
            [
              77.100797,
              22.799778
            ],
            [
              77.100738,
              22.799773
            ],
            [
              77.100738,
              22.799745
            ],
            [
              77.100761,
              22.799746
            ],
            [
              77.100763,
              22.799714
            ],
            [
              77.100764,
              22.799696
            ],
            [
              77.100681,
              22.799735
            ]
          ]
        ]
      }
    },
    {
      "type": "Feature",
      "properties": {
        "id": 9,
        "type": "building",
        "source": "manual_digitisation",
        "scene": "village_tiled"
      },
      "geometry": {
        "type": "Polygon",
        "coordinates": [
          [
            [
              77.100681,
              22.799736
            ],
            [
              77.100682,
              22.799698
            ],
            [
              77.100734,
              22.799697
            ],
            [
              77.10074,
              22.799707
            ],
            [
              77.100741,
              22.799725
            ],
            [
              77.100736,
              22.799741
            ],
            [
              77.100681,
              22.799736
            ]
          ]
        ]
      }
    },
    {
      "type": "Feature",
      "properties": {
        "id": 10,
        "type": "building",
        "source": "manual_digitisation",
        "scene": "village_tiled"
      },
      "geometry": {
        "type": "Polygon",
        "coordinates": [
          [
            [
              77.100731,
              22.799766
            ],
            [
              77.100735,
              22.799764
            ],
            [
              77.100739,
              22.799744
            ],
            [
              77.100759,
              22.799745
            ],
            [
              77.100766,
              22.799702
            ],
            [
              77.10079,
              22.799695
            ],
            [
              77.100812,
              22.799697
            ],
            [
              77.100816,
              22.799703
            ],
            [
              77.100804,
              22.799757
            ],
            [
              77.100797,
              22.799777
            ],
            [
              77.10073,
              22.799771
            ],
            [
              77.100731,
              22.799766
            ]
          ]
        ]
      }
    },
    {
      "type": "Feature",
      "properties": {
        "id": 11,
        "type": "building",
        "source": "manual_digitisation",
        "scene": "village_tiled"
      },
      "geometry": {
        "type": "Polygon",
        "coordinates": [
          [
            [
              77.100707,
              22.79964
            ],
            [
              77.100712,
              22.799592
            ],
            [
              77.100747,
              22.799593
            ],
            [
              77.100752,
              22.799577
            ],
            [
              77.100784,
              22.799581
            ],
            [
              77.10078,
              22.799602
            ],
            [
              77.100772,
              22.799648
            ],
            [
              77.100707,
              22.79964
            ]
          ]
        ]
      }
    },
    {
      "type": "Feature",
      "properties": {
        "id": 12,
        "type": "building",
        "source": "manual_digitisation",
        "scene": "village_tiled"
      },
      "geometry": {
        "type": "Polygon",
        "coordinates": [
          [
            [
              77.100772,
              22.799648
            ],
            [
              77.100843,
              22.799647
            ],
            [
              77.100854,
              22.799628
            ],
            [
              77.100853,
              22.799588
            ],
            [
              77.100836,
              22.799586
            ],
            [
              77.100833,
              22.799599
            ],
            [
              77.100822,
              22.799598
            ],
            [
              77.100824,
              22.799581
            ],
            [
              77.10081,
              22.799579
            ],
            [
              77.100785,
              22.799577
            ],
            [
              77.100772,
              22.799648
            ]
          ]
        ]
      }
    },
    {
      "type": "Feature",
      "properties": {
        "id": 13,
        "type": "building",
        "source": "manual_digitisation",
        "scene": "village_tiled"
      },
      "geometry": {
        "type": "Polygon",
        "coordinates": [
          [
            [
              77.100988,
              22.799521
            ],
            [
              77.100994,
              22.79946
            ],
            [
              77.101128,
              22.799465
            ],
            [
              77.101117,
              22.799524
            ],
            [
              77.100988,
              22.799521
            ]
          ]
        ]
      }
    },
    {
      "type": "Feature",
      "properties": {
        "id": 14,
        "type": "building",
        "source": "manual_digitisation",
        "scene": "village_tiled"
      },
      "geometry": {
        "type": "Polygon",
        "coordinates": [
          [
            [
              77.100986,
              22.799521
            ],
            [
              77.100993,
              22.799459
            ],
            [
              77.101133,
              22.799467
            ],
            [
              77.10112,
              22.799527
            ],
            [
              77.101106,
              22.799548
            ],
            [
              77.101062,
              22.79955
            ],
            [
              77.101062,
              22.79954
            ],
            [
              77.100988,
              22.799538
            ],
            [
              77.100986,
              22.799521
            ]
          ]
        ]
      }
    },
    {
      "type": "Feature",
      "properties": {
        "id": 15,
        "type": "building",
        "source": "manual_digitisation",
        "scene": "village_tiled"
      },
      "geometry": {
        "type": "Polygon",
        "coordinates": [
          [
            [
              77.100934,
              22.799551
            ],
            [
              77.100938,
              22.799518
            ],
            [
              77.100986,
              22.799521
            ],
            [
              77.100988,
              22.799538
            ],
            [
              77.10098,
              22.799555
            ],
            [
              77.100934,
              22.799551
            ]
          ]
        ]
      }
    },
    {
      "type": "Feature",
      "properties": {
        "id": 16,
        "type": "building",
        "source": "manual_digitisation",
        "scene": "village_tiled"
      },
      "geometry": {
        "type": "Polygon",
        "coordinates": [
          [
            [
              77.100976,
              22.799612
            ],
            [
              77.100982,
              22.799563
            ],
            [
              77.10103,
              22.799563
            ],
            [
              77.101035,
              22.799555
            ],
            [
              77.101066,
              22.79956
            ],
            [
              77.101065,
              22.799575
            ],
            [
              77.10111,
              22.799581
            ],
            [
              77.101095,
              22.799617
            ],
            [
              77.100976,
              22.799612
            ]
          ]
        ]
      }
    },
    {
      "type": "Feature",
      "properties": {
        "id": 17,
        "type": "building",
        "source": "manual_digitisation",
        "scene": "village_tiled"
      },
      "geometry": {
        "type": "Polygon",
        "coordinates": [
          [
            [
              77.100713,
              22.799563
            ],
            [
              77.100738,
              22.799445
            ],
            [
              77.100773,
              22.799451
            ],
            [
              77.100775,
              22.799441
            ],
            [
              77.1008,
              22.799448
            ],
            [
              77.100768,
              22.799569
            ],
            [
              77.100713,
              22.799563
            ]
          ]
        ]
      }
    },
    {
      "type": "Feature",
      "properties": {
        "id": 18,
        "type": "building",
        "source": "manual_digitisation",
        "scene": "village_tiled"
      },
      "geometry": {
        "type": "Polygon",
        "coordinates": [
          [
            [
              77.100793,
              22.799476
            ],
            [
              77.1008,
              22.799448
            ],
            [
              77.100798,
              22.799432
            ],
            [
              77.100878,
              22.799435
            ],
            [
              77.100873,
              22.799468
            ],
            [
              77.100863,
              22.799497
            ],
            [
              77.100847,
              22.799496
            ],
            [
              77.100846,
              22.79949
            ],
            [
              77.100811,
              22.799487
            ],
            [
              77.100808,
              22.799491
            ],
            [
              77.10079,
              22.799485
            ],
            [
              77.1008,
              22.799448
            ],
            [
              77.100793,
              22.799476
            ]
          ]
        ]
      }
    },
    {
      "type": "Feature",
      "properties": {
        "id": 19,
        "type": "building",
        "source": "manual_digitisation",
        "scene": "village_tiled"
      },
      "geometry": {
        "type": "Polygon",
        "coordinates": [
          [
            [
              77.100785,
              22.799577
            ],
            [
              77.100796,
              22.799544
            ],
            [
              77.100799,
              22.799514
            ],
            [
              77.100789,
              22.79951
            ],
            [
              77.100795,
              22.799487
            ],
            [
              77.100808,
              22.799491
            ],
            [
              77.100811,
              22.799487
            ],
            [
              77.100846,
              22.79949
            ],
            [
              77.100847,
              22.799496
            ],
            [
              77.100847,
              22.799504
            ],
            [
              77.100876,
              22.799505
            ],
            [
              77.10087,
              22.799551
            ],
            [
              77.100827,
              22.799552
            ],
            [
              77.100821,
              22.799575
            ],
            [
              77.100838,
              22.799575
            ],
            [
              77.100836,
              22.799586
            ],
            [
              77.100833,
              22.799599
            ],
            [
              77.100822,
              22.799598
            ],
            [
              77.100824,
              22.799581
            ],
            [
              77.100785,
              22.799577
            ]
          ]
        ]
      }
    },
    {
      "type": "Feature",
      "properties": {
        "id": 20,
        "type": "building",
        "source": "manual_digitisation",
        "scene": "village_tiled"
      },
      "geometry": {
        "type": "Polygon",
        "coordinates": [
          [
            [
              77.100821,
              22.799575
            ],
            [
              77.100827,
              22.799552
            ],
            [
              77.10087,
              22.799551
            ],
            [
              77.100876,
              22.799505
            ],
            [
              77.100908,
              22.799502
            ],
            [
              77.100907,
              22.799554
            ],
            [
              77.100917,
              22.799557
            ],
            [
              77.100914,
              22.799602
            ],
            [
              77.100886,
              22.799603
            ],
            [
              77.100887,
              22.799586
            ],
            [
              77.100853,
              22.799588
            ],
            [
              77.100856,
              22.799577
            ],
            [
              77.100838,
              22.799575
            ],
            [
              77.100821,
              22.799575
            ]
          ]
        ]
      }
    },
    {
      "type": "Feature",
      "properties": {
        "id": 21,
        "type": "building",
        "source": "manual_digitisation",
        "scene": "village_tiled"
      },
      "geometry": {
        "type": "Polygon",
        "coordinates": [
          [
            [
              77.100853,
              22.79964
            ],
            [
              77.100854,
              22.799628
            ],
            [
              77.100853,
              22.799588
            ],
            [
              77.100887,
              22.799586
            ],
            [
              77.100886,
              22.799603
            ],
            [
              77.100888,
              22.799619
            ],
            [
              77.10088,
              22.799642
            ],
            [
              77.100853,
              22.79964
            ]
          ]
        ]
      }
    },
    {
      "type": "Feature",
      "properties": {
        "id": 22,
        "type": "building",
        "source": "manual_digitisation",
        "scene": "village_tiled"
      },
      "geometry": {
        "type": "Polygon",
        "coordinates": [
          [
            [
              77.10088,
              22.799642
            ],
            [
              77.100884,
              22.799646
            ],
            [
              77.100955,
              22.799643
            ],
            [
              77.10096,
              22.79962
            ],
            [
              77.100958,
              22.799597
            ],
            [
              77.100914,
              22.799602
            ],
            [
              77.100886,
              22.799603
            ],
            [
              77.100888,
              22.799619
            ],
            [
              77.10088,
              22.799642
            ]
          ]
        ]
      }
    },
    {
      "type": "Feature",
      "properties": {
        "id": 23,
        "type": "building",
        "source": "manual_digitisation",
        "scene": "village_tiled"
      },
      "geometry": {
        "type": "Polygon",
        "coordinates": [
          [
            [
              77.100275,
              22.799821
            ],
            [
              77.100273,
              22.799806
            ],
            [
              77.100271,
              22.799804
            ],
            [
              77.10027,
              22.799763
            ],
            [
              77.100288,
              22.799763
            ],
            [
              77.100287,
              22.799756
            ],
            [
              77.10031,
              22.799756
            ],
            [
              77.100319,
              22.799764
            ],
            [
              77.100322,
              22.799808
            ],
            [
              77.100302,
              22.799809
            ],
            [
              77.1003,
              22.799822
            ],
            [
              77.100275,
              22.799821
            ]
          ]
        ]
      }
    },
    {
      "type": "Feature",
      "properties": {
        "id": 24,
        "type": "building",
        "source": "manual_digitisation",
        "scene": "village_tiled"
      },
      "geometry": {
        "type": "Polygon",
        "coordinates": [
          [
            [
              77.100322,
              22.799808
            ],
            [
              77.100321,
              22.799832
            ],
            [
              77.100337,
              22.799834
            ],
            [
              77.100339,
              22.799827
            ],
            [
              77.100352,
              22.799823
            ],
            [
              77.100354,
              22.799805
            ],
            [
              77.10036,
              22.799805
            ],
            [
              77.100361,
              22.799764
            ],
            [
              77.100338,
              22.799765
            ],
            [
              77.100319,
              22.799764
            ],
            [
              77.100322,
              22.799808
            ]
          ]
        ]
      }
    },
    {
      "type": "Feature",
      "properties": {
        "id": 25,
        "type": "building",
        "source": "manual_digitisation",
        "scene": "village_tiled"
      },
      "geometry": {
        "type": "Polygon",
        "coordinates": [
          [
            [
              77.100305,
              22.799756
            ],
            [
              77.100307,
              22.799729
            ],
            [
              77.100317,
              22.799731
            ],
            [
              77.10032,
              22.799725
            ],
            [
              77.100354,
              22.799728
            ],
            [
              77.100354,
              22.799732
            ],
            [
              77.100363,
              22.799733
            ],
            [
              77.100361,
              22.799764
            ],
            [
              77.100319,
              22.799764
            ],
            [
              77.10031,
              22.799756
            ],
            [
              77.100305,
              22.799756
            ]
          ]
        ]
      }
    },
    {
      "type": "Feature",
      "properties": {
        "id": 26,
        "type": "building",
        "source": "manual_digitisation",
        "scene": "village_tiled"
      },
      "geometry": {
        "type": "Polygon",
        "coordinates": [
          [
            [
              77.100361,
              22.799764
            ],
            [
              77.100367,
              22.799765
            ],
            [
              77.100371,
              22.799804
            ],
            [
              77.10037,
              22.799813
            ],
            [
              77.100383,
              22.799811
            ],
            [
              77.100385,
              22.799807
            ],
            [
              77.100408,
              22.799807
            ],
            [
              77.100409,
              22.799814
            ],
            [
              77.100414,
              22.799813
            ],
            [
              77.100414,
              22.799805
            ],
            [
              77.100417,
              22.799802
            ],
            [
              77.100411,
              22.799728
            ],
            [
              77.100359,
              22.799729
            ],
            [
              77.100359,
              22.799732
            ],
            [
              77.100363,
              22.799733
            ],
            [
              77.100361,
              22.799764
            ]
          ]
        ]
      }
    },
    {
      "type": "Feature",
      "properties": {
        "id": 27,
        "type": "building",
        "source": "manual_digitisation",
        "scene": "village_tiled"
      },
      "geometry": {
        "type": "Polygon",
        "coordinates": [
          [
            [
              77.100308,
              22.799676
            ],
            [
              77.100306,
              22.799622
            ],
            [
              77.100368,
              22.799622
            ],
            [
              77.100369,
              22.799645
            ],
            [
              77.100364,
              22.799647
            ],
            [
              77.100365,
              22.799664
            ],
            [
              77.10036,
              22.79971
            ],
            [
              77.100311,
              22.799711
            ],
            [
              77.100308,
              22.799676
            ]
          ]
        ]
      }
    },
    {
      "type": "Feature",
      "properties": {
        "id": 28,
        "type": "building",
        "source": "manual_digitisation",
        "scene": "village_tiled"
      },
      "geometry": {
        "type": "Polygon",
        "coordinates": [
          [
            [
              77.100511,
              22.79964
            ],
            [
              77.100512,
              22.799617
            ],
            [
              77.10058,
              22.799616
            ],
            [
              77.100583,
              22.799642
            ],
            [
              77.100622,
              22.799643
            ],
            [
              77.10063,
              22.799615
            ],
            [
              77.100667,
              22.79962
            ],
            [
              77.100651,
              22.799685
            ],
            [
              77.100601,
              22.799681
            ],
            [
              77.100512,
              22.799683
            ],
            [
              77.100511,
              22.79964
            ]
          ]
        ]
      }
    },
    {
      "type": "Feature",
      "properties": {
        "id": 29,
        "type": "building",
        "source": "manual_digitisation",
        "scene": "village_tiled"
      },
      "geometry": {
        "type": "Polygon",
        "coordinates": [
          [
            [
              77.10058,
              22.799616
            ],
            [
              77.100597,
              22.799543
            ],
            [
              77.100605,
              22.799541
            ],
            [
              77.100607,
              22.799523
            ],
            [
              77.100657,
              22.799535
            ],
            [
              77.100635,
              22.799616
            ],
            [
              77.10063,
              22.799615
            ],
            [
              77.100622,
              22.799643
            ],
            [
              77.100583,
              22.799642
            ],
            [
              77.10058,
              22.799616
            ]
          ]
        ]
      }
    },
    {
      "type": "Feature",
      "properties": {
        "id": 30,
        "type": "building",
        "source": "manual_digitisation",
        "scene": "village_tiled"
      },
      "geometry": {
        "type": "Polygon",
        "coordinates": [
          [
            [
              77.100538,
              22.799538
            ],
            [
              77.100538,
              22.799557
            ],
            [
              77.100554,
              22.799564
            ],
            [
              77.100554,
              22.799583
            ],
            [
              77.100581,
              22.799584
            ],
            [
              77.100586,
              22.799541
            ],
            [
              77.100597,
              22.799543
            ],
            [
              77.100605,
              22.799541
            ],
            [
              77.100607,
              22.799523
            ],
            [
              77.10061,
              22.799511
            ],
            [
              77.100588,
              22.799509
            ],
            [
              77.100559,
              22.79951
            ],
            [
              77.100536,
              22.799511
            ],
            [
              77.100538,
              22.799538
            ]
          ]
        ]
      }
    },
    {
      "type": "Feature",
      "properties": {
        "id": 31,
        "type": "building",
        "source": "manual_digitisation",
        "scene": "village_tiled"
      },
      "geometry": {
        "type": "Polygon",
        "coordinates": [
          [
            [
              77.100309,
              22.79949
            ],
            [
              77.10048,
              22.799489
            ],
            [
              77.100565,
              22.799494
            ],
            [
              77.100569,
              22.799437
            ],
            [
              77.100552,
              22.799437
            ],
            [
              77.100549,
              22.799433
            ],
            [
              77.1005,
              22.799431
            ],
            [
              77.100499,
              22.799447
            ],
            [
              77.100445,
              22.799449
            ],
            [
              77.10044,
              22.79943
            ],
            [
              77.100407,
              22.799428
            ],
            [
              77.100407,
              22.799421
            ],
            [
              77.100377,
              22.799423
            ],
            [
              77.100379,
              22.799409
            ],
            [
              77.100334,
              22.79941
            ],
            [
              77.100336,
              22.799413
            ],
            [
              77.1003,
              22.799413
            ],
            [
              77.100303,
              22.799444
            ],
            [
              77.100291,
              22.799445
            ],
            [
              77.100292,
              22.799459
            ],
            [
              77.100278,
              22.799459
            ],
            [
              77.100274,
              22.799466
            ],
            [
              77.10028,
              22.799484
            ],
            [
              77.100298,
              22.799485
            ],
            [
              77.100299,
              22.799481
            ],
            [
              77.100306,
              22.799481
            ],
            [
              77.100309,
              22.79949
            ]
          ]
        ]
      }
    },
    {
      "type": "Feature",
      "properties": {
        "id": 32,
        "type": "building",
        "source": "manual_digitisation",
        "scene": "village_tiled"
      },
      "geometry": {
        "type": "Polygon",
        "coordinates": [
          [
            [
              77.100368,
              22.799928
            ],
            [
              77.100376,
              22.799886
            ],
            [
              77.100416,
              22.799885
            ],
            [
              77.100421,
              22.799894
            ],
            [
              77.100455,
              22.799898
            ],
            [
              77.100454,
              22.799909
            ],
            [
              77.100447,
              22.799936
            ],
            [
              77.100406,
              22.799936
            ],
            [
              77.100368,
              22.799928
            ]
          ]
        ]
      }
    },
    {
      "type": "Feature",
      "properties": {
        "id": 33,
        "type": "building",
        "source": "manual_digitisation",
        "scene": "village_tiled"
      },
      "geometry": {
        "type": "Polygon",
        "coordinates": [
          [
            [
              77.10054,
              22.799791
            ],
            [
              77.100531,
              22.79979
            ],
            [
              77.10053,
              22.799785
            ],
            [
              77.10053,
              22.799784
            ],
            [
              77.100532,
              22.799765
            ],
            [
              77.100549,
              22.799768
            ],
            [
              77.100551,
              22.799752
            ],
            [
              77.100569,
              22.799753
            ],
            [
              77.100586,
              22.799759
            ],
            [
              77.100586,
              22.799761
            ],
            [
              77.100591,
              22.799763
            ],
            [
              77.100591,
              22.799774
            ],
            [
              77.100598,
              22.799777
            ],
            [
              77.100592,
              22.799794
            ],
            [
              77.10054,
              22.799791
            ]
          ]
        ]
      }
    },
    {
      "type": "Feature",
      "properties": {
        "id": 34,
        "type": "building",
        "source": "manual_digitisation",
        "scene": "village_tiled"
      },
      "geometry": {
        "type": "Polygon",
        "coordinates": [
          [
            [
              77.100514,
              22.799877
            ],
            [
              77.100514,
              22.799865
            ],
            [
              77.100504,
              22.799861
            ],
            [
              77.100506,
              22.799841
            ],
            [
              77.100514,
              22.799835
            ],
            [
              77.100585,
              22.799846
            ],
            [
              77.10058,
              22.799886
            ],
            [
              77.100514,
              22.799877
            ]
          ]
        ]
      }
    },
    {
      "type": "Feature",
      "properties": {
        "id": 35,
        "type": "building",
        "source": "manual_digitisation",
        "scene": "village_tiled"
      },
      "geometry": {
        "type": "Polygon",
        "coordinates": [
          [
            [
              77.100523,
              22.799837
            ],
            [
              77.100524,
              22.799821
            ],
            [
              77.100531,
              22.79979
            ],
            [
              77.10054,
              22.799791
            ],
            [
              77.100582,
              22.799794
            ],
            [
              77.100588,
              22.799813
            ],
            [
              77.10059,
              22.799845
            ],
            [
              77.100585,
              22.799846
            ],
            [
              77.100523,
              22.799837
            ]
          ]
        ]
      }
    },
    {
      "type": "Feature",
      "properties": {
        "id": 36,
        "type": "building",
        "source": "manual_digitisation",
        "scene": "village_tiled"
      },
      "geometry": {
        "type": "Polygon",
        "coordinates": [
          [
            [
              77.100301,
              22.799982
            ],
            [
              77.100305,
              22.799958
            ],
            [
              77.1003,
              22.799957
            ],
            [
              77.100304,
              22.799924
            ],
            [
              77.100331,
              22.799928
            ],
            [
              77.100359,
              22.799928
            ],
            [
              77.100353,
              22.799968
            ],
            [
              77.10034,
              22.799966
            ],
            [
              77.100339,
              22.799978
            ],
            [
              77.100355,
              22.79998
            ],
            [
              77.100353,
              22.799991
            ],
            [
              77.100318,
              22.799992
            ],
            [
              77.100301,
              22.799982
            ]
          ]
        ]
      }
    },
    {
      "type": "Feature",
      "properties": {
        "id": 37,
        "type": "building",
        "source": "manual_digitisation",
        "scene": "village_tiled"
      },
      "geometry": {
        "type": "Polygon",
        "coordinates": [
          [
            [
              77.10036,
              22.799987
            ],
            [
              77.100361,
              22.799963
            ],
            [
              77.100355,
              22.799955
            ],
            [
              77.100357,
              22.799941
            ],
            [
              77.100404,
              22.799942
            ],
            [
              77.100405,
              22.799956
            ],
            [
              77.100394,
              22.799996
            ],
            [
              77.100389,
              22.8
            ],
            [
              77.100367,
              22.8
            ],
            [
              77.100367,
              22.799992
            ],
            [
              77.10036,
              22.799987
            ]
          ]
        ]
      }
    },
    {
      "type": "Feature",
      "properties": {
        "id": 38,
        "type": "building",
        "source": "manual_digitisation",
        "scene": "village_tiled"
      },
      "geometry": {
        "type": "Polygon",
        "coordinates": [
          [
            [
              77.100114,
              22.799801
            ],
            [
              77.100098,
              22.799798
            ],
            [
              77.1001,
              22.799752
            ],
            [
              77.100103,
              22.799729
            ],
            [
              77.100119,
              22.799734
            ],
            [
              77.100141,
              22.799735
            ],
            [
              77.10014,
              22.799746
            ],
            [
              77.100147,
              22.799746
            ],
            [
              77.100146,
              22.79976
            ],
            [
              77.100151,
              22.799764
            ],
            [
              77.100145,
              22.79979
            ],
            [
              77.100135,
              22.79979
            ],
            [
              77.100137,
              22.799805
            ],
            [
              77.100114,
              22.799801
            ]
          ]
        ]
      }
    },
    {
      "type": "Feature",
      "properties": {
        "id": 39,
        "type": "building",
        "source": "manual_digitisation",
        "scene": "village_tiled"
      },
      "geometry": {
        "type": "Polygon",
        "coordinates": [
          [
            [
              77.100411,
              22.799728
            ],
            [
              77.10041,
              22.799717
            ],
            [
              77.10043,
              22.799717
            ],
            [
              77.100433,
              22.799732
            ],
            [
              77.100458,
              22.799734
            ],
            [
              77.100459,
              22.79975
            ],
            [
              77.100413,
              22.79975
            ],
            [
              77.100411,
              22.799728
            ]
          ]
        ]
      }
    },
    {
      "type": "Feature",
      "properties": {
        "id": 40,
        "type": "building",
        "source": "manual_digitisation",
        "scene": "village_tiled"
      },
      "geometry": {
        "type": "Polygon",
        "coordinates": [
          [
            [
              77.10043,
              22.799717
            ],
            [
              77.10043,
              22.799713
            ],
            [
              77.100485,
              22.799707
            ],
            [
              77.100491,
              22.799715
            ],
            [
              77.100497,
              22.79976
            ],
            [
              77.100479,
              22.799767
            ],
            [
              77.100463,
              22.799763
            ],
            [
              77.100459,
              22.79975
            ],
            [
              77.100458,
              22.799734
            ],
            [
              77.100433,
              22.799732
            ],
            [
              77.10043,
              22.799717
            ]
          ]
        ]
      }
    },
    {
      "type": "Feature",
      "properties": {
        "id": 41,
        "type": "building",
        "source": "manual_digitisation",
        "scene": "village_tiled"
      },
      "geometry": {
        "type": "Polygon",
        "coordinates": [
          [
            [
              77.100107,
              22.799529
            ],
            [
              77.100105,
              22.799514
            ],
            [
              77.100113,
              22.799509
            ],
            [
              77.100117,
              22.799498
            ],
            [
              77.100149,
              22.799505
            ],
            [
              77.100147,
              22.79953
            ],
            [
              77.100132,
              22.799536
            ],
            [
              77.100107,
              22.799529
            ]
          ]
        ]
      }
    },
    {
      "type": "Feature",
      "properties": {
        "id": 42,
        "type": "building",
        "source": "manual_digitisation",
        "scene": "village_tiled"
      },
      "geometry": {
        "type": "Polygon",
        "coordinates": [
          [
            [
              77.099991,
              22.79939
            ],
            [
              77.100015,
              22.799391
            ],
            [
              77.100016,
              22.799403
            ],
            [
              77.100038,
              22.799404
            ],
            [
              77.100087,
              22.799405
            ],
            [
              77.10008,
              22.799462
            ],
            [
              77.099991,
              22.799458
            ],
            [
              77.099991,
              22.79939
            ]
          ]
        ]
      }
    },
    {
      "type": "Feature",
      "properties": {
        "id": 43,
        "type": "building",
        "source": "manual_digitisation",
        "scene": "village_tiled"
      },
      "geometry": {
        "type": "Polygon",
        "coordinates": [
          [
            [
              77.100133,
              22.799385
            ],
            [
              77.100133,
              22.799406
            ],
            [
              77.100151,
              22.799406
            ],
            [
              77.100156,
              22.79941
            ],
            [
              77.100156,
              22.799423
            ],
            [
              77.100184,
              22.799421
            ],
            [
              77.100183,
              22.799406
            ],
            [
              77.100184,
              22.799385
            ],
            [
              77.100133,
              22.799385
            ]
          ]
        ]
      }
    },
    {
      "type": "Feature",
      "properties": {
        "id": 44,
        "type": "building",
        "source": "manual_digitisation",
        "scene": "village_tiled"
      },
      "geometry": {
        "type": "Polygon",
        "coordinates": [
          [
            [
              77.100378,
              22.799385
            ],
            [
              77.100376,
              22.799409
            ],
            [
              77.100419,
              22.799412
            ],
            [
              77.100422,
              22.799385
            ],
            [
              77.100378,
              22.799385
            ]
          ]
        ]
      }
    },
    {
      "type": "Feature",
      "properties": {
        "id": 45,
        "type": "building",
        "source": "manual_digitisation",
        "scene": "village_tiled"
      },
      "geometry": {
        "type": "Polygon",
        "coordinates": [
          [
            [
              77.100419,
              22.799412
            ],
            [
              77.100463,
              22.799407
            ],
            [
              77.100469,
              22.799385
            ],
            [
              77.100422,
              22.799385
            ],
            [
              77.100419,
              22.799412
            ]
          ]
        ]
      }
    },
    {
      "type": "Feature",
      "properties": {
        "id": 46,
        "type": "building",
        "source": "manual_digitisation",
        "scene": "village_tiled"
      },
      "geometry": {
        "type": "Polygon",
        "coordinates": [
          [
            [
              77.100488,
              22.799385
            ],
            [
              77.100484,
              22.799424
            ],
            [
              77.100511,
              22.799425
            ],
            [
              77.100515,
              22.799385
            ],
            [
              77.100488,
              22.799385
            ]
          ]
        ]
      }
    },
    {
      "type": "Feature",
      "properties": {
        "id": 47,
        "type": "building",
        "source": "manual_digitisation",
        "scene": "village_tiled"
      },
      "geometry": {
        "type": "Polygon",
        "coordinates": [
          [
            [
              77.100519,
              22.799385
            ],
            [
              77.100516,
              22.799426
            ],
            [
              77.100565,
              22.799431
            ],
            [
              77.100568,
              22.799385
            ],
            [
              77.100519,
              22.799385
            ]
          ]
        ]
      }
    },
    {
      "type": "Feature",
      "properties": {
        "id": 48,
        "type": "building",
        "source": "manual_digitisation",
        "scene": "village_tiled"
      },
      "geometry": {
        "type": "Polygon",
        "coordinates": [
          [
            [
              77.10065,
              22.799533
            ],
            [
              77.100653,
              22.799519
            ],
            [
              77.100659,
              22.799521
            ],
            [
              77.100671,
              22.799451
            ],
            [
              77.100696,
              22.799451
            ],
            [
              77.100693,
              22.799483
            ],
            [
              77.100703,
              22.799486
            ],
            [
              77.100692,
              22.79952
            ],
            [
              77.100702,
              22.799524
            ],
            [
              77.100694,
              22.799556
            ],
            [
              77.100653,
              22.79955
            ],
            [
              77.100657,
              22.799535
            ],
            [
              77.10065,
              22.799533
            ]
          ]
        ]
      }
    },
    {
      "type": "Feature",
      "properties": {
        "id": 49,
        "type": "building",
        "source": "manual_digitisation",
        "scene": "village_tiled"
      },
      "geometry": {
        "type": "Polygon",
        "coordinates": [
          [
            [
              77.099991,
              22.799739
            ],
            [
              77.100031,
              22.79975
            ],
            [
              77.100064,
              22.799734
            ],
            [
              77.10006,
              22.799815
            ],
            [
              77.099991,
              22.799812
            ],
            [
              77.099991,
              22.799739
            ]
          ]
        ]
      }
    },
    {
      "type": "Feature",
      "properties": {
        "id": 50,
        "type": "building",
        "source": "manual_digitisation",
        "scene": "village_tiled"
      },
      "geometry": {
        "type": "Polygon",
        "coordinates": [
          [
            [
              77.099991,
              22.799563
            ],
            [
              77.100018,
              22.799554
            ],
            [
              77.100064,
              22.799563
            ],
            [
              77.100066,
              22.799611
            ],
            [
              77.100052,
              22.799636
            ],
            [
              77.099991,
              22.799633
            ],
            [
              77.099991,
              22.799563
            ]
          ]
        ]
      }
    },
    {
      "type": "Feature",
      "properties": {
        "id": 51,
        "type": "building",
        "source": "manual_digitisation",
        "scene": "village_tiled"
      },
      "geometry": {
        "type": "Polygon",
        "coordinates": [
          [
            [
              77.099991,
              22.799484
            ],
            [
              77.100078,
              22.799485
            ],
            [
              77.100075,
              22.799534
            ],
            [
              77.099991,
              22.799532
            ],
            [
              77.099991,
              22.799484
            ]
          ]
        ]
      }
    },
    {
      "type": "Feature",
      "properties": {
        "id": 52,
        "type": "building",
        "source": "manual_digitisation",
        "scene": "village_tiled"
      },
      "geometry": {
        "type": "Polygon",
        "coordinates": [
          [
            [
              77.100462,
              22.799548
            ],
            [
              77.100438,
              22.799548
            ],
            [
              77.100437,
              22.79953
            ],
            [
              77.100433,
              22.79953
            ],
            [
              77.100435,
              22.799516
            ],
            [
              77.100473,
              22.799515
            ],
            [
              77.100499,
              22.799514
            ],
            [
              77.100497,
              22.799548
            ],
            [
              77.100462,
              22.799548
            ]
          ]
        ]
      }
    },
    {
      "type": "Feature",
      "properties": {
        "id": 53,
        "type": "building",
        "source": "manual_digitisation",
        "scene": "village_tiled"
      },
      "geometry": {
        "type": "Polygon",
        "coordinates": [
          [
            [
              77.1005,
              22.799764
            ],
            [
              77.100501,
              22.799754
            ],
            [
              77.100499,
              22.799748
            ],
            [
              77.100491,
              22.799715
            ],
            [
              77.100495,
              22.799699
            ],
            [
              77.10052,
              22.799698
            ],
            [
              77.100521,
              22.799703
            ],
            [
              77.100543,
              22.799704
            ],
            [
              77.100545,
              22.799711
            ],
            [
              77.100551,
              22.799713
            ],
            [
              77.100551,
              22.79972
            ],
            [
              77.100545,
              22.799729
            ],
            [
              77.100549,
              22.799732
            ],
            [
              77.10055,
              22.79974
            ],
            [
              77.100545,
              22.799743
            ],
            [
              77.100543,
              22.799759
            ],
            [
              77.100528,
              22.799764
            ],
            [
              77.1005,
              22.799764
            ]
          ]
        ]
      }
    },
    {
      "type": "Feature",
      "properties": {
        "id": 54,
        "type": "building",
        "source": "manual_digitisation",
        "scene": "village_tiled"
      },
      "geometry": {
        "type": "Polygon",
        "coordinates": [
          [
            [
              77.1005,
              22.799764
            ],
            [
              77.100496,
              22.79981
            ],
            [
              77.100526,
              22.799812
            ],
            [
              77.100531,
              22.79979
            ],
            [
              77.100532,
              22.799765
            ],
            [
              77.100532,
              22.799763
            ],
            [
              77.100528,
              22.799764
            ],
            [
              77.1005,
              22.799764
            ]
          ]
        ]
      }
    },
    {
      "type": "Feature",
      "properties": {
        "id": 55,
        "type": "building",
        "source": "manual_digitisation",
        "scene": "village_tiled"
      },
      "geometry": {
        "type": "Polygon",
        "coordinates": [
          [
            [
              77.099991,
              22.79999
            ],
            [
              77.100023,
              22.79999
            ],
            [
              77.100042,
              22.799966
            ],
            [
              77.100044,
              22.799917
            ],
            [
              77.100038,
              22.799894
            ],
            [
              77.099991,
              22.79989
            ],
            [
              77.099991,
              22.79999
            ]
          ]
        ]
      }
    }
  ]
}