{"type":"FeatureCollection","features":[{"type":"Feature","properties":{"kind":"road corridor"},"geometry":{"type":"Polygon","coordinates":[[[77.1008393,22.7999853],[77.1008431,22.7999781],[77.100841,22.7999709],[77.1008253,22.799962],[77.1008408,22.7999582],[77.1008426,22.7999474],[77.1008327,22.7999403],[77.1008135,22.7999586],[77.1008077,22.7999587],[77.1008,22.7999624],[77.1007981,22.7999678],[77.1007884,22.7999697],[77.1007844,22.7999626],[77.1007882,22.7999571],[77.1007823,22.7999518],[77.1007841,22.7999463],[77.1007801,22.7999392],[77.1007703,22.7999303],[77.1007585,22.7999286],[77.1007451,22.7999378],[77.1007473,22.7999576],[77.1007591,22.7999647],[77.1007612,22.7999719],[77.1007535,22.799981],[77.1007555,22.7999864],[77.1008393,22.7999853]]]}},{"type":"Feature","properties":{"kind":"road corridor"},"geometry":{"type":"Polygon","coordinates":[[[77.1002784,22.7999927],[77.1002821,22.79998],[77.1002742,22.7999711],[77.100247,22.7999751],[77.1002332,22.799968],[77.1002273,22.7999627],[77.1002311,22.7999554],[77.1002288,22.799932],[77.1002074,22.7999323],[77.1002013,22.7999197],[77.1001955,22.799918],[77.1001897,22.7999235],[77.1001888,22.7999939],[77.1002784,22.7999927]]]}},{"type":"Feature","properties":{"kind":"road corridor"},"geometry":{"type":"Polygon","coordinates":[[[77.1010554,22.7999825],[77.1010573,22.7999788],[77.1010494,22.7999717],[77.1010493,22.7999663],[77.1010686,22.7999552],[77.1010762,22.7999389],[77.1010527,22.799932],[77.1010332,22.7999322],[77.1010236,22.7999378],[77.1010196,22.7999342],[77.1010194,22.7999216],[77.1010095,22.7999072],[77.101011,22.7998801],[77.1010032,22.7998802],[77.1009975,22.7998857],[77.1009977,22.7999038],[77.1009939,22.7999074],[77.1009762,22.7998932],[77.1009723,22.7998951],[77.1009686,22.7999078],[77.1009588,22.7999079],[77.1009455,22.7999243],[77.1009496,22.7999369],[77.1009418,22.7999406],[77.10094,22.7999479],[77.1009459,22.7999532],[77.1009771,22.7999564],[77.1009987,22.799967],[77.1010104,22.7999686],[77.1010301,22.7999828],[77.1010554,22.7999825]]]}},{"type":"Feature","properties":{"kind":"road corridor"},"geometry":{"type":"Polygon","coordinates":[[[77.1002655,22.7999116],[77.100265,22.7998809],[77.1002767,22.7998808],[77.1002826,22.7998843],[77.1002962,22.7998841],[77.100302,22.7998804],[77.1003274,22.7998837],[77.1003371,22.7998818],[77.1003407,22.7998619],[77.1003383,22.799833],[77.1003285,22.7998313],[77.1003228,22.7998386],[77.1002976,22.799848],[77.1002958,22.7998534],[77.1003037,22.7998606],[77.1003018,22.7998678],[77.1002804,22.7998681],[77.1002645,22.7998466],[77.1002548,22.7998468],[77.1002494,22.7998757],[77.1002358,22.7998777],[77.10023,22.7998832],[77.1002304,22.7999103],[77.1002363,22.7999156],[77.1002578,22.7999171],[77.1002655,22.7999116]]]}},{"type":"Feature","properties":{"kind":"road corridor"},"geometry":{"type":"Polygon","coordinates":[[[77.1007483,22.7998962],[77.1007482,22.7998872],[77.1007305,22.7998802],[77.1007091,22.7998787],[77.1006954,22.7998735],[77.1006872,22.7998501],[77.1006697,22.7998503],[77.1006618,22.7998468],[77.1006518,22.7998271],[77.1006421,22.7998272],[77.1006306,22.79984],[77.1006189,22.7998438],[77.1006191,22.7998528],[77.1006269,22.7998527],[77.1006348,22.7998598],[77.1006349,22.7998688],[77.1006506,22.7998759],[77.1006528,22.7998903],[77.1006586,22.799892],[77.1006701,22.7998792],[77.1006837,22.7998772],[77.1006996,22.7998951],[77.1007133,22.7998967],[77.100719,22.799893],[77.1007347,22.7998982],[77.1007483,22.7998962]]]}},{"type":"Feature","properties":{"kind":"road corridor"},"geometry":{"type":"Polygon","coordinates":[[[77.1009193,22.7998723],[77.1009231,22.799865],[77.1009407,22.7998648],[77.1009425,22.7998594],[77.1009306,22.7998451],[77.1009229,22.799847],[77.1009191,22.7998543],[77.1009035,22.7998527],[77.1008955,22.7998437],[77.1008974,22.7998365],[77.1009208,22.7998416],[77.1009285,22.7998325],[77.1009088,22.7998201],[77.1008952,22.7998221],[77.1008873,22.7998131],[77.1008795,22.799815],[77.1008757,22.7998205],[77.1008817,22.7998277],[77.1008838,22.7998421],[77.1008663,22.7998441],[77.1008604,22.7998406],[77.100849,22.7998552],[77.1008393,22.7998607],[77.1008453,22.7998697],[77.1008705,22.7998621],[77.1008901,22.7998709],[77.1008998,22.799869],[77.1009135,22.7998742],[77.1009193,22.7998723]]]}},{"type":"Feature","properties":{"kind":"road corridor"},"geometry":{"type":"Polygon","coordinates":[[[77.1001674,22.7999924],[77.1001654,22.799987],[77.1001575,22.7999835],[77.1001534,22.7999709],[77.1001567,22.7999293],[77.1001545,22.7999113],[77.1001485,22.7999059],[77.1001389,22.7999115],[77.1001397,22.7999657],[77.100134,22.7999766],[77.1001283,22.7999803],[77.1001127,22.7999805],[77.1000951,22.7999771],[77.1000966,22.7998236],[77.1000983,22.7998073],[77.100106,22.7997982],[77.1001035,22.7997639],[77.100111,22.7997475],[77.1001051,22.7997422],[77.1000758,22.7997371],[77.100066,22.7997319],[77.1000659,22.7997228],[77.1000754,22.7997119],[77.1000695,22.7997047],[77.1000579,22.7997085],[77.1000463,22.7997195],[77.1000523,22.7997284],[77.1000545,22.7997447],[77.1000555,22.7998078],[77.1000536,22.7998115],[77.100038,22.7998135],[77.1000323,22.799819],[77.1000343,22.7998262],[77.1000481,22.799835],[77.1000502,22.7998458],[77.1000639,22.7998475],[77.1000643,22.7998727],[77.1000333,22.799884],[77.1000296,22.7998967],[77.1000023,22.7998988],[77.1000047,22.7999223],[77.1000436,22.7999236],[77.1000443,22.7999705],[77.1000386,22.7999778],[77.1000584,22.7999956],[77.1001674,22.7999924]]]}},{"type":"Feature","properties":{"kind":"road corridor"},"geometry":{"type":"Polygon","coordinates":[[[77.1008199,22.79974],[77.1008237,22.7997309],[77.1008214,22.7997075],[77.100831,22.7997019],[77.1008269,22.7996857],[77.1008112,22.7996787],[77.1008052,22.7996697],[77.1008051,22.7996607],[77.1008146,22.7996498],[77.1008087,22.7996444],[77.1007697,22.7996431],[77.1007601,22.7996487],[77.1007544,22.7996596],[77.1007528,22.7996813],[77.1007296,22.7996906],[77.1007277,22.7996979],[77.1007376,22.799705],[77.1007397,22.7997176],[77.1007553,22.7997192],[77.1007611,22.7997137],[77.100761,22.7997046],[77.1007764,22.7996936],[77.1007684,22.7996847],[77.1007702,22.7996756],[77.1007799,22.7996683],[77.1007916,22.7996699],[77.1007955,22.7996735],[77.1007958,22.7996933],[77.1008096,22.7996986],[77.1008118,22.7997148],[77.1008062,22.7997366],[77.1008122,22.7997419],[77.1008199,22.79974]]]}},{"type":"Feature","properties":{"kind":"road corridor"},"geometry":{"type":"Polygon","coordinates":[[[77.1005915,22.799575],[77.1005914,22.7995714],[77.100605,22.7995713],[77.1006088,22.799564],[77.1006087,22.799555],[77.1006028,22.7995496],[77.1006065,22.7995423],[77.1006044,22.7995315],[77.1006181,22.7995314],[77.1006238,22.7995259],[77.1006218,22.7995205],[77.1006179,22.7995205],[77.1006174,22.7994916],[77.100627,22.7994807],[77.1006269,22.7994735],[77.100621,22.7994681],[77.1005938,22.7994721],[77.100588,22.7994776],[77.1005885,22.7995083],[77.1005847,22.7995155],[77.1005796,22.7995608],[77.1005797,22.7995716],[77.1005856,22.7995769],[77.1005915,22.799575]]]}},{"type":"Feature","properties":{"kind":"road corridor"},"geometry":{"type":"Polygon","coordinates":[[[77.1006984,22.7998156],[77.1007,22.7997939],[77.1006941,22.7997886],[77.10069,22.799776],[77.1006841,22.7997725],[77.1006913,22.7997345],[77.1006873,22.7997309],[77.1006831,22.7997111],[77.100683,22.7997003],[77.1006869,22.7997002],[77.1006887,22.7996948],[77.1006809,22.7996894],[77.1006822,22.7996497],[77.1006841,22.7996461],[77.1007055,22.7996422],[77.1007051,22.7996205],[77.1007126,22.7995969],[77.1007184,22.799595],[77.100726,22.7995841],[77.1007277,22.7995696],[77.100714,22.7995626],[77.1007138,22.7995482],[77.1007266,22.7994938],[77.1007281,22.7994667],[77.1007337,22.799454],[77.1007647,22.7994427],[77.1007881,22.7994442],[77.1007938,22.7994351],[77.1008328,22.7994346],[77.100862,22.7994378],[77.1008719,22.7994486],[77.1009324,22.7994514],[77.1009381,22.7994459],[77.1009557,22.7994456],[77.1009752,22.7994526],[77.1009754,22.7994634],[77.1009813,22.7994688],[77.1009871,22.7994669],[77.1009909,22.7994578],[77.1011077,22.7994563],[77.1011137,22.7994652],[77.1011196,22.799467],[77.1011254,22.7994615],[77.1011214,22.7994561],[77.1011252,22.7994506],[77.1011232,22.7994452],[77.1011114,22.7994436],[77.1011035,22.7994329],[77.1010977,22.7994365],[77.101051,22.7994372],[77.1010139,22.799434],[77.10101,22.7994305],[77.1010094,22.7993908],[77.1009879,22.799391],[77.1009826,22.7994218],[77.1009631,22.7994239],[77.1009435,22.7994133],[77.1009395,22.7994079],[77.1009414,22.7994025],[77.1009354,22.7993972],[77.1009296,22.799399],[77.1009239,22.7994099],[77.100885,22.7994105],[77.100879,22.7994033],[77.1008694,22.7994089],[77.100848,22.7994091],[77.1008284,22.7994022],[77.1008031,22.7994025],[77.1007776,22.7993938],[77.1007289,22.7993945],[77.1007177,22.7994235],[77.1007001,22.7994201],[77.1006943,22.7994256],[77.1006965,22.7994418],[77.1006889,22.7994528],[77.1006894,22.7994853],[77.1006934,22.7994888],[77.1006936,22.7995033],[77.1006898,22.7995105],[77.10069,22.7995232],[77.1006939,22.7995267],[77.1006942,22.7995412],[77.1006887,22.7995647],[77.100683,22.7995738],[77.1006831,22.7995829],[77.1006754,22.7995902],[77.1006756,22.7996028],[77.1006699,22.7996083],[77.100664,22.7996084],[77.1006581,22.7995995],[77.1006522,22.7995977],[77.1006426,22.7996105],[77.1006486,22.7996176],[77.1006622,22.7996175],[77.1006626,22.7996409],[77.1006515,22.7996826],[77.1006165,22.7996813],[77.1006125,22.7996777],[77.1005151,22.799679],[77.1004998,22.7996954],[77.1004861,22.7996938],[77.100459,22.7997014],[77.1004434,22.799698],[77.1004357,22.7997053],[77.1004259,22.7997036],[77.1004219,22.7996983],[77.1004276,22.7996874],[77.1004433,22.7996908],[77.1004509,22.7996816],[77.1004587,22.7996852],[77.1004646,22.7996833],[77.1004761,22.7996705],[77.1005014,22.7996701],[77.1005071,22.7996646],[77.100507,22.7996574],[77.1005011,22.7996521],[77.1004816,22.7996541],[77.100464,22.7996472],[77.1004618,22.7996309],[77.1004655,22.79962],[77.1004986,22.7996196],[77.1005104,22.7996249],[77.1005142,22.7996194],[77.1005785,22.7996186],[77.1005842,22.7996131],[77.1005878,22.7995877],[77.1005818,22.7995824],[77.1005702,22.7995862],[77.1005546,22.7995828],[77.1005526,22.7995792],[77.1005552,22.7994997],[77.1005123,22.799493],[77.1004889,22.7994951],[77.1004891,22.7995042],[77.1005224,22.7995182],[77.1005245,22.7995272],[77.1005343,22.7995325],[77.1005344,22.7995397],[77.1005307,22.7995506],[77.1005328,22.7995614],[77.100529,22.799565],[77.1005193,22.799567],[77.1005136,22.7995761],[77.1005018,22.7995726],[77.1004883,22.7995782],[77.1004726,22.7995694],[77.1004705,22.7995604],[77.1004646,22.7995587],[77.1004625,22.7995515],[77.1004681,22.7995333],[77.1004758,22.7995278],[77.1004737,22.7995188],[77.1004679,22.7995171],[77.1004618,22.7995063],[77.1004521,22.7995028],[77.1004519,22.7994956],[77.1004188,22.7994943],[77.1004131,22.7995034],[77.1004191,22.7995123],[77.100425,22.799514],[77.1004271,22.7995248],[77.1004408,22.7995301],[77.1004332,22.7995446],[77.1004431,22.7995517],[77.1004432,22.7995607],[77.1004394,22.7995698],[77.1004317,22.7995717],[77.1004202,22.7995827],[77.1004066,22.7995847],[77.1003928,22.7995759],[77.1003656,22.7995816],[77.1003597,22.7995799],[77.1003443,22.7995873],[77.1003347,22.7996001],[77.100323,22.7996003],[77.100321,22.7995913],[77.1003151,22.7995877],[77.1002995,22.7995879],[77.1002936,22.7995844],[77.1002802,22.7995972],[77.1002626,22.7995974],[77.1002511,22.7996048],[77.1002393,22.7996032],[77.1002336,22.7996087],[77.1002356,22.799614],[77.1002453,22.7996139],[77.1002532,22.7996192],[77.1002746,22.799619],[77.1002786,22.7996261],[77.1002983,22.7996367],[77.1002964,22.7996421],[77.1003023,22.7996475],[77.1003101,22.799642],[77.1003099,22.7996311],[77.1003644,22.7996322],[77.1003666,22.799643],[77.1003589,22.799654],[77.100359,22.7996612],[77.100365,22.7996665],[77.1003708,22.7996646],[77.1003806,22.7996681],[77.1003883,22.7996626],[77.1003897,22.7996283],[77.1004364,22.7996277],[77.1004389,22.7996583],[77.1004352,22.7996746],[77.1004275,22.7996801],[77.1004022,22.7996805],[77.1003986,22.7997022],[77.1003774,22.7997151],[77.1003657,22.7997153],[77.1003559,22.79971],[77.1003208,22.7997104],[77.1003129,22.7997033],[77.1003086,22.7996745],[77.1003027,22.7996728],[77.1002951,22.7996801],[77.1002814,22.7996785],[77.1002774,22.7996749],[77.1002793,22.7996677],[77.1002734,22.7996623],[77.1002578,22.7996643],[77.1002502,22.7996771],[77.1002443,22.7996753],[77.1002422,22.7996645],[77.1002364,22.7996628],[77.1002287,22.7996683],[77.100223,22.7996792],[77.1002114,22.7996848],[77.1001879,22.7996815],[77.1001859,22.7996779],[77.1001898,22.7996742],[77.1002034,22.7996723],[77.100213,22.7996649],[77.100211,22.7996577],[77.1001992,22.7996506],[77.1001971,22.7996453],[77.1002029,22.799638],[77.1002027,22.7996253],[77.1002104,22.7996216],[77.1002199,22.7996088],[77.1002179,22.7996034],[77.100212,22.7996017],[77.1002119,22.7995891],[77.1002099,22.7995855],[77.1001863,22.7995768],[77.1001806,22.7995823],[77.1001846,22.7995894],[77.1001827,22.7995949],[77.1001516,22.7995971],[77.1001475,22.7995863],[77.1001358,22.7995811],[77.1001317,22.7995667],[77.1001219,22.7995632],[77.1001238,22.7995595],[77.1001393,22.7995575],[77.1001411,22.7995503],[77.1001372,22.7995449],[77.1001468,22.7995394],[77.1001467,22.7995303],[77.1001543,22.7995212],[77.1001385,22.7995034],[77.1001287,22.7995017],[77.1001171,22.7995055],[77.1001131,22.7995019],[77.1001108,22.7994784],[77.1001144,22.7994603],[77.1001183,22.7994567],[77.1001358,22.7994564],[77.1001474,22.7994509],[77.1001533,22.7994562],[77.1001611,22.7994543],[77.100165,22.7994579],[77.1001942,22.7994557],[77.1002077,22.7994483],[77.1002176,22.7994536],[77.1002331,22.7994516],[77.100243,22.7994586],[77.1002525,22.7994477],[77.1002662,22.7994511],[77.100274,22.7994474],[77.1002799,22.7994527],[77.10028,22.7994582],[77.1002608,22.7994801],[77.1002668,22.7994908],[77.1002747,22.7994925],[77.1002804,22.7994889],[77.1002902,22.7994905],[77.1002979,22.7994832],[77.1002933,22.7994363],[77.1002777,22.7994365],[77.100264,22.7994313],[77.1002599,22.7994187],[77.1002637,22.7994132],[77.1002499,22.7994044],[77.1002422,22.7994099],[77.1002405,22.799428],[77.1001588,22.7994345],[77.1001489,22.799422],[77.1001353,22.7994203],[77.1001311,22.7994023],[77.1000824,22.7994048],[77.1000813,22.799459],[77.1000757,22.7994717],[77.1000777,22.7994807],[77.1000727,22.7995349],[77.1000689,22.7995404],[77.1000514,22.7995388],[77.1000397,22.7995426],[77.100036,22.7995535],[77.1000245,22.7995627],[77.1000108,22.7995628],[77.0999991,22.7995576],[77.0999974,22.7995757],[77.1000617,22.7995748],[77.1000676,22.7995783],[77.1000719,22.7996108],[77.1000685,22.7996397],[77.1000727,22.7996595],[77.1000826,22.799672],[77.100083,22.7996955],[77.1000753,22.7997028],[77.1000773,22.7997082],[77.1000968,22.799708],[77.1001141,22.7996915],[77.1001258,22.7996913],[77.1001395,22.7996984],[77.1001358,22.7997075],[77.10014,22.7997291],[77.1001459,22.7997308],[77.1001652,22.7997251],[77.1001711,22.7997287],[77.100175,22.799725],[77.1001847,22.7997249],[77.1001887,22.7997284],[77.1002062,22.7997264],[77.100216,22.7997317],[77.1002165,22.7997678],[77.100211,22.7997877],[77.1002052,22.7997932],[77.1002075,22.7998149],[77.1002173,22.7998147],[77.1002191,22.7998057],[77.1002268,22.7998038],[77.1002287,22.7997965],[77.1002384,22.7997946],[77.1002441,22.7997891],[77.1002357,22.7997459],[77.1002412,22.7997259],[77.1002646,22.7997256],[77.1002783,22.7997309],[77.1002787,22.799758],[77.1002846,22.7997633],[77.1002924,22.7997632],[77.1003099,22.7997593],[77.1003115,22.7997358],[77.1004108,22.7997309],[77.1004184,22.7997236],[77.1004417,22.7997143],[77.1004923,22.7997136],[77.1005019,22.7997026],[77.1005428,22.7997039],[77.1005524,22.7996966],[77.1005836,22.7996961],[77.1005934,22.799705],[77.1006305,22.7997046],[77.1006291,22.7997461],[77.1006214,22.7997516],[77.1006158,22.7997662],[77.1006414,22.7997821],[77.1006476,22.7998055],[77.1006554,22.7998072],[77.1006631,22.7998035],[77.100671,22.7998106],[77.1006807,22.7998086],[77.1006848,22.7998176],[77.1006907,22.7998211],[77.1006984,22.7998156]],[[77.1001094,22.799641],[77.1001091,22.7996175],[77.1001165,22.7995976],[77.1001263,22.7995956],[77.1001341,22.7996009],[77.1001343,22.7996118],[77.1001422,22.7996225],[77.1001365,22.7996316],[77.100133,22.7996515],[77.1001272,22.7996588],[77.1001175,22.7996589],[77.1001094,22.799641]]]}}]}