{"type":"FeatureCollection","features":[{"type":"Feature","properties":{"kind":"vegetation"},"geometry":{"type":"Polygon","coordinates":[[[77.1005433,22.799991],[77.1005373,22.7999785],[77.1005217,22.7999787],[77.1005236,22.799975],[77.1005294,22.799975],[77.1005234,22.7999642],[77.1005291,22.7999551],[77.1005287,22.7999262],[77.1005403,22.7999206],[77.1005401,22.7999116],[77.1005362,22.7999081],[77.1005265,22.79991],[77.1005205,22.7999028],[77.1005108,22.799903],[77.100507,22.7999121],[77.1004876,22.7999159],[77.1004839,22.7999286],[77.1004761,22.7999287],[77.1004702,22.7999234],[77.1004586,22.7999271],[77.1004606,22.7999325],[77.1004664,22.7999325],[77.1004684,22.799936],[77.1004918,22.7999357],[77.1004976,22.799932],[77.1005017,22.7999482],[77.1005,22.7999645],[77.1004962,22.7999664],[77.1004982,22.7999718],[77.1004828,22.7999828],[77.1004849,22.7999936],[77.1005433,22.799991]],[[77.1004964,22.7999844],[77.1005022,22.7999753],[77.1005061,22.7999789],[77.10051,22.799977],[77.1005097,22.799959],[77.1005235,22.7999678],[77.1005139,22.7999806],[77.1005081,22.7999807],[77.1005082,22.7999861],[77.1005023,22.799988],[77.1004964,22.7999844]]]}},{"type":"Feature","properties":{"kind":"vegetation"},"geometry":{"type":"Polygon","coordinates":[[[77.1006062,22.7999017],[77.1006004,22.7999018],[77.1005982,22.7998874],[77.1005885,22.7998893],[77.1005866,22.7998966],[77.1005808,22.7998948],[77.1005731,22.7999003],[77.1005711,22.7998968],[77.1005769,22.7998949],[77.1005749,22.7998913],[77.1005787,22.7998894],[77.1005728,22.7998823],[77.1005593,22.7998897],[77.1005614,22.7998987],[77.1005555,22.7999006],[77.1005595,22.7999059],[77.1005654,22.7999059],[77.1005654,22.7999113],[77.1005596,22.7999132],[77.1005617,22.7999222],[77.1005773,22.799922],[77.1005931,22.7999344],[77.1005989,22.7999325],[77.1006064,22.7999126],[77.1006122,22.7999089],[77.1006062,22.7999017]]]}},{"type":"Feature","properties":{"kind":"vegetation"},"geometry":{"type":"Polygon","coordinates":[[[77.100294,22.7998643],[77.1002979,22.7998679],[77.1003037,22.799866],[77.1003037,22.7998606],[77.1002958,22.799857],[77.1002977,22.7998534],[77.1002898,22.7998481],[77.1003054,22.7998461],[77.1003112,22.7998406],[77.1003228,22.7998386],[77.1003226,22.7998242],[77.1003186,22.7998206],[77.1003011,22.7998191],[77.1002934,22.7998246],[77.1002935,22.7998354],[77.1002897,22.7998409],[77.10028,22.7998392],[77.1002781,22.7998446],[77.1002683,22.799843],[77.1002645,22.7998466],[77.1002804,22.7998681],[77.100294,22.7998643]]]}},{"type":"Feature","properties":{"kind":"vegetation"},"geometry":{"type":"Polygon","coordinates":[[[77.1000624,22.7998746],[77.1000661,22.7998619],[77.1000562,22.7998566],[77.100064,22.7998529],[77.1000639,22.7998475],[77.1000561,22.7998458],[77.1000523,22.799853],[77.1000463,22.7998441],[77.1000481,22.799835],[77.1000284,22.799819],[77.1000287,22.7998371],[77.1000113,22.7998445],[77.1000115,22.799859],[77.1000174,22.7998625],[77.1000176,22.7998788],[77.1000293,22.7998786],[77.1000313,22.799884],[77.1000624,22.7998746]]]}},{"type":"Feature","properties":{"kind":"vegetation"},"geometry":{"type":"Polygon","coordinates":[[[77.101149,22.7999849],[77.1011477,22.7999],[77.1011321,22.7998984],[77.1011299,22.799884],[77.1011297,22.7998713],[77.1011394,22.7998676],[77.1011469,22.7998513],[77.1011462,22.7998061],[77.1011423,22.7998026],[77.1011325,22.7998027],[77.1011249,22.79981],[77.101123,22.7998191],[77.1011272,22.7998371],[77.1011218,22.7998678],[77.1011141,22.7998715],[77.1011142,22.799877],[77.1011046,22.7998843],[77.1011009,22.799897],[77.101097,22.7998989],[77.1010991,22.7999097],[77.1010933,22.7999134],[77.1010934,22.7999206],[77.1010857,22.7999207],[77.1010799,22.7999262],[77.1010686,22.7999552],[77.1010493,22.7999663],[77.1010494,22.7999717],[77.1010593,22.7999788],[77.1010613,22.799986],[77.101149,22.7999849]],[[77.1011148,22.7999131],[77.1011225,22.7999094],[77.1011224,22.7999058],[77.1011302,22.7999056],[77.10114,22.7999109],[77.1011227,22.7999202],[77.1011188,22.7999257],[77.1011148,22.7999131]]]}},{"type":"Feature","properties":{"kind":"vegetation"},"geometry":{"type":"Polygon","coordinates":[[[77.1006814,22.7998502],[77.100689,22.799841],[77.1006887,22.7998194],[77.1006828,22.7998158],[77.1006807,22.7998086],[77.1006769,22.7998123],[77.100671,22.7998088],[77.1006652,22.7998106],[77.1006651,22.7998052],[77.1006612,22.7998035],[77.1006477,22.7998145],[77.1006438,22.7998127],[77.10064,22.79982],[77.100638,22.7998164],[77.1006476,22.7998037],[77.1006374,22.7997785],[77.1006198,22.7997715],[77.100614,22.7997752],[77.1006141,22.7997824],[77.1006102,22.7997789],[77.1006024,22.799779],[77.1005966,22.7997827],[77.1005929,22.7997935],[77.1005889,22.79979],[77.100585,22.7997918],[77.1005891,22.7998008],[77.1005873,22.7998153],[77.1006051,22.7998313],[77.1006073,22.7998457],[77.1006306,22.79984],[77.100644,22.7998254],[77.1006518,22.7998235],[77.1006599,22.799845],[77.1006697,22.7998503],[77.1006814,22.7998502]]]}},{"type":"Feature","properties":{"kind":"vegetation"},"geometry":{"type":"Polygon","coordinates":[[[77.1004464,22.7998948],[77.1004502,22.7998893],[77.1004462,22.7998858],[77.1004617,22.7998801],[77.1004676,22.7998801],[77.1004736,22.799889],[77.100495,22.7998887],[77.1005165,22.7998957],[77.1005399,22.7998936],[77.1005573,22.7998861],[77.1005552,22.7998789],[77.1005181,22.7998722],[77.1005141,22.799865],[77.1005082,22.7998633],[77.10051,22.7998506],[77.1005022,22.7998489],[77.100502,22.7998399],[77.1004981,22.7998363],[77.1004942,22.7998382],[77.1004943,22.7998472],[77.1004904,22.7998418],[77.1004846,22.7998437],[77.1004806,22.7998384],[77.1004669,22.7998385],[77.1004671,22.7998494],[77.1004554,22.7998495],[77.1004516,22.7998568],[77.1004439,22.7998605],[77.100444,22.7998659],[77.1004244,22.7998572],[77.1004262,22.7998463],[77.1004301,22.7998463],[77.1004321,22.7998516],[77.1004438,22.7998533],[77.1004495,22.7998442],[77.1004434,22.7998244],[77.1004394,22.7998227],[77.1004391,22.7998028],[77.1004489,22.7998027],[77.1004549,22.7998152],[77.1004492,22.7998225],[77.100461,22.7998314],[77.1004668,22.7998313],[77.1004687,22.7998277],[77.1004746,22.7998294],[77.1004784,22.7998257],[77.1004863,22.7998329],[77.1005019,22.7998327],[77.1005212,22.799818],[77.1005208,22.7997927],[77.1005149,22.7997873],[77.1005047,22.7997622],[77.1004833,22.7997643],[77.1004816,22.7997788],[77.1004875,22.7997787],[77.1004896,22.7997895],[77.100474,22.7997897],[77.100472,22.7997843],[77.1004681,22.7997862],[77.1004582,22.7997773],[77.1004524,22.7997773],[77.1004522,22.7997683],[77.1004425,22.7997702],[77.1004386,22.7997685],[77.1004385,22.7997631],[77.1004308,22.799765],[77.1004289,22.7997704],[77.1004211,22.7997723],[77.1004213,22.7997832],[77.1004332,22.7997956],[77.1004234,22.7997958],[77.1004217,22.7998084],[77.100416,22.7998157],[77.1004181,22.7998265],[77.1004143,22.7998374],[77.1004046,22.7998376],[77.1004025,22.7998304],[77.1003927,22.7998269],[77.1003888,22.7998215],[77.1003849,22.7998252],[77.1003752,22.7998253],[77.1003772,22.7998307],[77.1003831,22.7998306],[77.1003813,22.7998397],[77.1003774,22.7998415],[77.1003814,22.7998469],[77.1003815,22.7998577],[77.1003855,22.7998613],[77.1003932,22.7998594],[77.100403,22.7998629],[77.1004051,22.7998701],[77.1004129,22.7998681],[77.1004132,22.799888],[77.1004308,22.7998968],[77.1004464,22.7998948]]]}},{"type":"Feature","properties":{"kind":"vegetation"},"geometry":{"type":"Polygon","coordinates":[[[77.1008012,22.7997872],[77.1008031,22.7997835],[77.1008186,22.7997797],[77.1008107,22.7997708],[77.1008183,22.7997599],[77.1008181,22.7997472],[77.100822,22.7997454],[77.1008199,22.79974],[77.1008083,22.7997437],[77.1008123,22.7997491],[77.1008085,22.7997564],[77.1008008,22.7997601],[77.1008009,22.7997673],[77.1007815,22.7997766],[77.1007816,22.799782],[77.1007875,22.7997874],[77.1008012,22.7997872]]]}},{"type":"Feature","properties":{"kind":"vegetation"},"geometry":{"type":"Polygon","coordinates":[[[77.1005666,22.7997307],[77.1005702,22.7997162],[77.1005839,22.7997196],[77.1005878,22.799716],[77.1005876,22.7997051],[77.1005837,22.7997016],[77.100572,22.7997017],[77.10057,22.7996981],[77.1005622,22.7997],[77.1005662,22.7997054],[77.1005585,22.7997091],[77.1005588,22.7997326],[77.1005666,22.7997307]]]}},{"type":"Feature","properties":{"kind":"vegetation"},"geometry":{"type":"Polygon","coordinates":[[[77.1001226,22.7997383],[77.1001244,22.7997293],[77.1001303,22.799731],[77.1001379,22.7997183],[77.1001358,22.7997111],[77.10013,22.799713],[77.1001319,22.7997093],[77.1001279,22.799704],[77.1001318,22.7997003],[77.1001357,22.7997039],[77.1001395,22.7996984],[77.1001238,22.7996914],[77.1001161,22.7996969],[77.1001124,22.7997078],[77.1001027,22.7997115],[77.1001067,22.7997205],[77.1001184,22.7997185],[77.1001204,22.7997239],[77.1001205,22.7997293],[77.1001109,22.7997349],[77.1001129,22.7997385],[77.1001226,22.7997383]]]}},{"type":"Feature","properties":{"kind":"vegetation"},"geometry":{"type":"Polygon","coordinates":[[[77.1004357,22.7997053],[77.1004414,22.799698],[77.100459,22.7997014],[77.1004861,22.7996938],[77.1004998,22.7996954],[77.1005094,22.7996881],[77.1005074,22.7996809],[77.1005112,22.7996772],[77.1004994,22.7996684],[77.1004878,22.7996721],[77.1004761,22.7996705],[77.1004723,22.7996777],[77.1004762,22.7996813],[77.1004684,22.7996778],[77.1004587,22.7996852],[77.1004509,22.7996816],[77.1004452,22.7996907],[77.1004276,22.7996874],[77.1004219,22.7996983],[77.1004298,22.7997054],[77.1004357,22.7997053]]]}},{"type":"Feature","properties":{"kind":"vegetation"},"geometry":{"type":"Polygon","coordinates":[[[77.1003812,22.799706],[77.100385,22.7997006],[77.1003985,22.7996968],[77.1004003,22.7996841],[77.100406,22.7996768],[77.1003903,22.799668],[77.1003767,22.7996682],[77.1003708,22.7996646],[77.100363,22.7996665],[77.1003554,22.7996775],[77.1003558,22.7997046],[77.1003676,22.799708],[77.1003812,22.799706]]]}},{"type":"Feature","properties":{"kind":"vegetation"},"geometry":{"type":"Polygon","coordinates":[[[77.1008607,22.799734],[77.1008568,22.7997305],[77.1008586,22.7997214],[77.1008546,22.7997179],[77.1008545,22.7997106],[77.1008563,22.7997016],[77.100864,22.7996943],[77.10086,22.7996889],[77.1008697,22.7996815],[77.1008675,22.7996653],[77.1008557,22.7996582],[77.1008594,22.7996456],[77.1008515,22.7996402],[77.1008322,22.7996513],[77.1008263,22.7996478],[77.1008146,22.7996498],[77.1008051,22.7996607],[77.1008092,22.7996769],[77.1008289,22.7996875],[77.1008291,22.7997001],[77.1008369,22.7997054],[77.1008371,22.7997145],[77.1008468,22.7997162],[77.1008528,22.7997251],[77.100847,22.799727],[77.100843,22.7997234],[77.1008392,22.7997271],[77.1008393,22.7997343],[77.1008433,22.7997379],[77.1008607,22.799734]]]}},{"type":"Feature","properties":{"kind":"vegetation"},"geometry":{"type":"Polygon","coordinates":[[[77.1009669,22.7996694],[77.1009784,22.7996602],[77.1009843,22.799662],[77.100992,22.7996583],[77.10099,22.7996547],[77.1009823,22.7996566],[77.1009861,22.7996511],[77.1009839,22.7996385],[77.1009567,22.7996425],[77.1009588,22.7996515],[77.1009549,22.7996533],[77.1009531,22.7996624],[77.1009571,22.7996696],[77.1009669,22.7996694]]]}},{"type":"Feature","properties":{"kind":"vegetation"},"geometry":{"type":"Polygon","coordinates":[[[77.1000287,22.7997089],[77.1000247,22.7997035],[77.1000169,22.7997018],[77.1000148,22.7996964],[77.1000401,22.7996907],[77.1000539,22.7997013],[77.1000576,22.799694],[77.1000654,22.7996939],[77.100075,22.7996848],[77.100075,22.7996812],[77.1000691,22.7996794],[77.1000729,22.7996704],[77.1000669,22.7996614],[77.1000666,22.7996452],[77.1000627,22.7996416],[77.100053,22.7996435],[77.1000373,22.7996347],[77.1000315,22.7996384],[77.1000294,22.799633],[77.1000178,22.7996332],[77.100012,22.7996387],[77.100014,22.7996423],[77.0999945,22.7996425],[77.0999955,22.7997075],[77.1000131,22.7997109],[77.1000287,22.7997089]]]}},{"type":"Feature","properties":{"kind":"vegetation"},"geometry":{"type":"Polygon","coordinates":[[[77.1007497,22.7999901],[77.1007536,22.7999865],[77.1007535,22.7999792],[77.1007612,22.7999719],[77.1007591,22.7999647],[77.1007532,22.7999612],[77.1007455,22.7999667],[77.1007451,22.7999378],[77.1007489,22.7999323],[77.1007585,22.7999286],[77.1007702,22.7999285],[77.1007841,22.7999463],[77.1007823,22.7999518],[77.1007881,22.7999517],[77.100794,22.799957],[77.1007844,22.7999626],[77.1007884,22.7999697],[77.1007981,22.7999678],[77.1008019,22.7999605],[77.1008135,22.7999586],[77.1008289,22.7999421],[77.1008406,22.799942],[77.1008428,22.79996],[77.1008272,22.7999602],[77.1008253,22.7999638],[77.1008351,22.7999691],[77.1008448,22.7999672],[77.1008431,22.7999799],[77.1008392,22.7999817],[77.1008432,22.7999889],[77.1009055,22.7999881],[77.1009054,22.799979],[77.1009111,22.7999681],[77.1009304,22.7999607],[77.100946,22.7999623],[77.1009499,22.7999568],[77.100942,22.7999533],[77.1009399,22.7999425],[77.1009496,22.7999369],[77.1009454,22.7999225],[77.1009589,22.7999115],[77.1009588,22.7999025],[77.1009626,22.7999006],[77.1009686,22.7999078],[77.1009723,22.7998933],[77.100982,22.7998913],[77.1009821,22.7998986],[77.1009879,22.7999003],[77.100992,22.7999075],[77.1009977,22.7999038],[77.1009994,22.7998821],[77.1009933,22.7998713],[77.1009992,22.7998731],[77.1010013,22.7998803],[77.1010149,22.7998783],[77.1010128,22.7998675],[77.1010282,22.7998582],[77.101028,22.7998456],[77.1010338,22.7998437],[77.1010376,22.7998328],[77.101053,22.7998218],[77.1010529,22.7998146],[77.1010645,22.7998108],[77.1010682,22.7997981],[77.101074,22.7997944],[77.1010777,22.7997835],[77.1010756,22.7997727],[77.1010814,22.7997727],[77.1010891,22.7997635],[77.1011047,22.7997633],[77.1011087,22.7997723],[77.1011243,22.7997757],[77.1011283,22.7997811],[77.1011457,22.7997736],[77.1011437,22.7997664],[77.10113,22.7997666],[77.1011299,22.7997558],[77.1011396,22.7997538],[77.1011453,22.7997429],[77.1011355,22.7997412],[77.1011354,22.7997322],[77.1011275,22.7997269],[77.101145,22.7997249],[77.1011447,22.7997068],[77.1011388,22.7997051],[77.101137,22.7997105],[77.1011311,22.7997106],[77.1011349,22.7997033],[77.1011268,22.7996836],[77.1011364,22.7996762],[77.1011442,22.7996761],[77.1011435,22.7996274],[77.1011297,22.7996149],[77.1011141,22.7996169],[77.1011101,22.7996116],[77.1010985,22.7996135],[77.1011005,22.7996189],[77.1010928,22.7996244],[77.101097,22.7996424],[77.1010894,22.7996552],[77.1010916,22.7996732],[77.1010839,22.7996787],[77.1010859,22.7996841],[77.1010801,22.799686],[77.1010841,22.799695],[77.1010725,22.7996969],[77.1010668,22.799706],[77.1010648,22.7997024],[77.1010667,22.7996988],[77.1010627,22.7996971],[77.1010646,22.7996916],[77.1010607,22.7996899],[77.1010568,22.7996935],[77.1010568,22.7996899],[77.1010645,22.7996862],[77.1010723,22.7996879],[77.10108,22.7996788],[77.1010701,22.7996717],[77.1010663,22.7996771],[77.1010742,22.7996807],[77.1010567,22.7996845],[77.1010508,22.799681],[77.1010467,22.7996666],[77.101039,22.7996721],[77.1010469,22.7996774],[77.1010352,22.7996776],[77.1010353,22.799683],[77.1010197,22.7996832],[77.1010235,22.7996759],[77.1010175,22.7996688],[77.1010117,22.7996688],[77.1010079,22.7996779],[77.101004,22.7996744],[77.1009689,22.7996748],[77.100967,22.7996785],[77.1009749,22.799682],[77.100973,22.7996874],[77.1009672,22.7996911],[77.1009477,22.7996895],[77.1009439,22.7996932],[77.1009459,22.7996968],[77.1009517,22.7996967],[77.100948,22.7997058],[77.1009519,22.7997094],[77.1009461,22.7997148],[77.1009424,22.7997221],[77.1009444,22.7997275],[77.1009406,22.7997312],[77.1009485,22.7997383],[77.1009543,22.7997382],[77.1009583,22.7997472],[77.1009758,22.7997452],[77.1009814,22.7997288],[77.1009853,22.7997288],[77.1009893,22.7997359],[77.1009951,22.7997341],[77.1009931,22.7997287],[77.101001,22.7997322],[77.1009914,22.7997413],[77.1009953,22.7997467],[77.1010031,22.7997466],[77.1010089,22.7997411],[77.1010067,22.7997285],[77.1010145,22.7997284],[77.1010205,22.7997337],[77.1010243,22.7997319],[77.1010225,22.7997391],[77.1010284,22.7997427],[77.1010227,22.7997518],[77.1010129,22.7997519],[77.101015,22.7997573],[77.1010208,22.799759],[77.101021,22.7997662],[77.1010171,22.7997681],[77.1010192,22.7997807],[77.1010095,22.7997808],[77.1010055,22.7997773],[77.1010113,22.7997736],[77.1010093,22.79977],[77.1009996,22.7997737],[77.1010014,22.7997611],[77.1009974,22.7997557],[77.1009936,22.7997594],[77.1009838,22.7997541],[77.1009682,22.7997543],[77.1009624,22.799758],[77.1009605,22.7997616],[77.1009645,22.799767],[77.1009722,22.7997651],[77.1009744,22.7997759],[77.1009703,22.7997687],[77.1009645,22.7997706],[77.1009625,22.799767],[77.1009547,22.7997671],[77.1009528,22.7997707],[77.1009568,22.7997761],[77.100947,22.7997726],[77.1009374,22.7997764],[77.100947,22.7997708],[77.1009411,22.7997673],[77.100941,22.7997619],[77.1009333,22.7997674],[77.1009354,22.7997728],[77.1009295,22.7997747],[77.1009256,22.7997693],[77.100941,22.7997583],[77.100939,22.7997547],[77.1009234,22.7997585],[77.1009214,22.7997549],[77.1009117,22.799755],[77.1009021,22.7997624],[77.1008961,22.7997516],[77.1008999,22.7997462],[77.1009038,22.7997479],[77.1009057,22.7997443],[77.1009135,22.7997442],[77.1009094,22.7997298],[77.1009131,22.7997171],[77.100911,22.7997117],[77.1009186,22.799699],[77.1009184,22.7996827],[77.1009124,22.7996756],[77.1009066,22.7996792],[77.1008969,22.7996794],[77.100893,22.7996758],[77.1008911,22.7996795],[77.1008813,22.7996796],[77.1008718,22.7996942],[77.1008641,22.7996979],[77.1008662,22.7997105],[77.1008585,22.7997142],[77.1008645,22.7997268],[77.1008703,22.7997195],[77.1008859,22.7997229],[77.100886,22.7997319],[77.1008743,22.7997284],[77.1008705,22.7997357],[77.1008608,22.7997358],[77.1008648,22.799743],[77.1008745,22.7997411],[77.1008768,22.7997681],[77.1008808,22.7997717],[77.100879,22.7997789],[77.1008751,22.7997844],[77.1008693,22.7997845],[77.1008595,22.7997792],[77.10084,22.7997794],[77.1008363,22.7997885],[77.1008285,22.7997904],[77.1008247,22.7997977],[77.1008364,22.7998012],[77.1008385,22.7998084],[77.1008464,22.7998137],[77.1008406,22.799821],[77.1008427,22.7998246],[77.1008523,22.7998208],[77.1008598,22.7998009],[77.1008676,22.7998008],[77.1008677,22.7998044],[77.1008599,22.7998063],[77.1008659,22.7998152],[77.1008581,22.7998189],[77.1008663,22.7998441],[77.1008838,22.7998421],[77.1008817,22.7998277],[77.1008718,22.7998206],[77.1008815,22.799815],[77.1008775,22.7998097],[77.1008833,22.799806],[77.1008891,22.7998077],[77.1008892,22.7998149],[77.1008952,22.7998221],[77.1009108,22.7998201],[77.1009226,22.7998289],[77.1009303,22.799827],[77.100938,22.7998197],[77.1009459,22.799825],[77.100944,22.7998286],[77.1009362,22.7998287],[77.1009266,22.7998343],[77.1009267,22.7998415],[77.1009365,22.799845],[77.1009366,22.799854],[77.1009484,22.7998647],[77.1009427,22.7998702],[77.1009348,22.7998649],[77.1009231,22.799865],[77.1009193,22.7998723],[77.1009135,22.7998742],[77.1008998,22.799869],[77.1008882,22.7998709],[77.1008862,22.7998673],[77.1008705,22.7998621],[77.1008492,22.7998678],[77.1008531,22.7998732],[77.1008514,22.7998877],[77.1008613,22.7998966],[77.1008555,22.799902],[77.1008576,22.7999074],[77.1008673,22.7999073],[77.1008711,22.7999036],[77.100871,22.7998964],[77.1008789,22.7999017],[77.1008867,22.7999016],[77.1008981,22.7998834],[77.1009079,22.7998869],[77.1009176,22.7998832],[77.1009215,22.7998867],[77.1009237,22.7998993],[77.1009159,22.7999031],[77.100916,22.7999103],[77.10092,22.7999138],[77.1009121,22.7999103],[77.1009083,22.799914],[77.1009203,22.7999337],[77.1009145,22.7999374],[77.1009028,22.7999339],[77.1008931,22.7999359],[77.1008812,22.799927],[77.1008732,22.7999108],[77.1008635,22.7999128],[77.1008616,22.7999164],[77.1008499,22.7999166],[77.100844,22.799913],[77.1008379,22.7998987],[77.1008244,22.7999025],[77.1008187,22.7999152],[77.1008109,22.7999153],[77.1008089,22.7999081],[77.100801,22.7999028],[77.1008048,22.7998991],[77.1008028,22.7998937],[77.1007716,22.7998923],[77.1007697,22.799896],[77.1007757,22.7999013],[77.1007659,22.7999032],[77.1007638,22.7998924],[77.1007502,22.7998926],[77.1007464,22.7998981],[77.1007347,22.7998982],[77.100719,22.799893],[77.1007133,22.7998967],[77.1006976,22.7998951],[77.1006937,22.7998933],[77.1006896,22.7998808],[77.100674,22.7998773],[77.1006625,22.7998865],[77.1006626,22.7998938],[77.1006587,22.7998956],[77.1006646,22.7998991],[77.1006723,22.7998954],[77.1006725,22.7999045],[77.1006685,22.7999009],[77.1006549,22.7998993],[77.1006512,22.799912],[77.1006571,22.7999155],[77.1006532,22.7999174],[77.1006552,22.7999209],[77.1006493,22.7999192],[77.1006474,22.7999228],[77.1006533,22.7999264],[77.1006534,22.7999336],[77.1006574,22.7999372],[77.1006576,22.7999516],[77.1006635,22.7999569],[77.1006772,22.7999568],[77.1006696,22.7999713],[77.1006698,22.7999821],[77.1006757,22.7999911],[77.1007497,22.7999901]],[[77.1006827,22.799935],[77.1006885,22.7999313],[77.1006862,22.7999079],[77.100692,22.799906],[77.1006983,22.7999348],[77.1006886,22.7999404],[77.1006827,22.799935]],[[77.1008735,22.7998025],[77.1008696,22.7998043],[77.1008696,22.7998007],[77.1008792,22.799797],[77.1008753,22.7997916],[77.1008829,22.7997843],[77.1008888,22.799786],[77.1008985,22.7997823],[77.1008986,22.7997877],[77.1008889,22.7997914],[77.1008871,22.7997987],[77.1008755,22.7998061],[77.1008735,22.7998025]],[[77.1010695,22.7997566],[77.1010849,22.7997437],[77.1010851,22.7997564],[77.1010793,22.7997618],[77.1010735,22.7997619],[77.1010695,22.7997566]],[[77.1010948,22.7997526],[77.1010946,22.7997454],[77.1010986,22.7997471],[77.1011024,22.7997417],[77.1010984,22.7997345],[77.1011042,22.7997308],[77.1011178,22.7997324],[77.101114,22.7997379],[77.1011162,22.7997541],[77.1011084,22.7997506],[77.1010987,22.7997544],[77.1010948,22.7997526]],[[77.1008759,22.7997049],[77.1008796,22.7996941],[77.1008856,22.7997012],[77.1008953,22.7996993],[77.1008915,22.7997047],[77.1008974,22.7997101],[77.1008896,22.799712],[77.1008759,22.7997049]]]}},{"type":"Feature","properties":{"kind":"vegetation"},"geometry":{"type":"Polygon","coordinates":[[[77.100223,22.7996792],[77.1002344,22.799661],[77.1002422,22.7996609],[77.1002443,22.7996753],[77.1002502,22.7996771],[77.1002578,22.7996643],[77.1002772,22.7996605],[77.1002774,22.7996749],[77.1002873,22.7996802],[77.1002951,22.7996801],[77.1003065,22.7996673],[77.1003064,22.7996601],[77.1002966,22.7996548],[77.1003004,22.7996457],[77.1002906,22.7996458],[77.1002983,22.7996367],[77.1002786,22.7996261],[77.1002746,22.799619],[77.1002532,22.7996192],[77.1002493,22.7996157],[77.1002161,22.7996125],[77.1002104,22.7996216],[77.1002027,22.7996253],[77.1002029,22.799638],[77.1001971,22.7996453],[77.1001972,22.7996489],[77.100205,22.7996506],[77.100209,22.7996577],[77.1002148,22.7996559],[77.100213,22.7996667],[77.1001859,22.7996779],[77.1001879,22.7996815],[77.1002055,22.7996849],[77.100223,22.7996792]]]}},{"type":"Feature","properties":{"kind":"vegetation"},"geometry":{"type":"Polygon","coordinates":[[[77.1007691,22.7996016],[77.100771,22.7995962],[77.1007573,22.7995927],[77.1007571,22.7995783],[77.1007434,22.7995749],[77.1007394,22.7995695],[77.100724,22.7995841],[77.1007262,22.7995949],[77.1007301,22.7995967],[77.1007397,22.7995912],[77.1007438,22.7996037],[77.1007594,22.7996053],[77.1007691,22.7996016]]]}},{"type":"Feature","properties":{"kind":"vegetation"},"geometry":{"type":"Polygon","coordinates":[[[77.1006446,22.7996087],[77.1006484,22.7996032],[77.1006464,22.7995996],[77.1006522,22.7995959],[77.10065,22.7995815],[77.1006557,22.7995706],[77.1006654,22.7995723],[77.1006581,22.7996031],[77.100664,22.7996084],[77.1006699,22.7996083],[77.1006756,22.7996028],[77.1006754,22.7995884],[77.1006831,22.7995829],[77.100683,22.7995738],[77.1006887,22.7995647],[77.1006866,22.7995575],[77.100671,22.7995541],[77.1006496,22.7995562],[77.100646,22.7995779],[77.1006366,22.7995997],[77.1006387,22.7996087],[77.1006446,22.7996087]]]}},{"type":"Feature","properties":{"kind":"vegetation"},"geometry":{"type":"Polygon","coordinates":[[[77.1000283,22.799559],[77.1000321,22.7995553],[77.100032,22.7995481],[77.1000242,22.7995446],[77.1000221,22.7995374],[77.0999948,22.7995305],[77.099993,22.799545],[77.1000047,22.7995449],[77.1000087,22.7995502],[77.1000145,22.7995501],[77.1000146,22.7995538],[77.1000029,22.7995557],[77.1000108,22.7995628],[77.1000283,22.799559]]]}},{"type":"Feature","properties":{"kind":"vegetation"},"geometry":{"type":"Polygon","coordinates":[[[77.1011352,22.7995986],[77.1011391,22.7995949],[77.1011369,22.7995805],[77.1011427,22.7995786],[77.1011397,22.79951],[77.1011183,22.7995103],[77.1011145,22.799514],[77.1011147,22.7995302],[77.1011052,22.7995412],[77.1010996,22.7995593],[77.1011016,22.7995647],[77.1011152,22.7995645],[77.1011192,22.7995699],[77.101129,22.7995716],[77.1011271,22.799577],[77.1011174,22.799579],[77.1011214,22.7995843],[77.1011176,22.799588],[77.1011254,22.7995897],[77.1011235,22.7995933],[77.1011157,22.7995934],[77.1011216,22.7995988],[77.1011352,22.7995986]]]}},{"type":"Feature","properties":{"kind":"vegetation"},"geometry":{"type":"Polygon","coordinates":[[[77.100498,22.7995763],[77.1004998,22.7995708],[77.1005076,22.7995707],[77.1005077,22.7995743],[77.1005136,22.7995761],[77.1005193,22.799567],[77.1005328,22.7995614],[77.1005307,22.7995506],[77.1005343,22.7995325],[77.1005245,22.7995272],[77.1005204,22.7995164],[77.1005009,22.7995112],[77.1004891,22.7995024],[77.1004754,22.7995007],[77.1004639,22.7995099],[77.1004679,22.7995171],[77.1004757,22.7995206],[77.1004758,22.7995296],[77.1004681,22.7995333],[77.1004625,22.7995515],[77.1004646,22.7995587],[77.1004724,22.7995622],[77.1004726,22.7995694],[77.1004883,22.7995782],[77.100498,22.7995763]]]}},{"type":"Feature","properties":{"kind":"vegetation"},"geometry":{"type":"Polygon","coordinates":[[[77.100076,22.7994952],[77.1000757,22.7994753],[77.1000699,22.7994772],[77.1000659,22.7994736],[77.1000562,22.7994737],[77.1000524,22.7994792],[77.1000427,22.7994811],[77.100031,22.7994795],[77.100027,22.7994741],[77.1000193,22.7994778],[77.1000232,22.7994814],[77.1000233,22.7994886],[77.100033,22.7994831],[77.100039,22.799492],[77.1000546,22.7994954],[77.1000682,22.7994935],[77.1000722,22.799497],[77.100076,22.7994952]]]}},{"type":"Feature","properties":{"kind":"vegetation"},"geometry":{"type":"Polygon","coordinates":[[[77.1002704,22.7995955],[77.1002802,22.7995972],[77.1002879,22.7995917],[77.1002916,22.7995808],[77.1002798,22.7995755],[77.1002817,22.7995701],[77.1002934,22.7995718],[77.1002915,22.7995772],[77.1002995,22.7995879],[77.100317,22.7995841],[77.1003151,22.7995895],[77.1003249,22.799593],[77.100321,22.7995967],[77.100323,22.7996003],[77.1003347,22.7996001],[77.1003481,22.7995837],[77.100352,22.7995854],[77.1003578,22.7995817],[77.1003558,22.7995782],[77.1003656,22.7995816],[77.1003928,22.7995759],[77.1004007,22.799583],[77.1004163,22.7995846],[77.1004336,22.7995699],[77.1004414,22.799568],[77.1004431,22.7995517],[77.1004313,22.7995465],[77.1004312,22.7995374],[77.100437,22.7995392],[77.1004408,22.7995301],[77.100431,22.7995266],[77.1004272,22.7995303],[77.1004251,22.7995249],[77.1003998,22.799527],[77.1003961,22.7995343],[77.1003825,22.7995417],[77.1003788,22.7995544],[77.100373,22.7995581],[77.100365,22.7995419],[77.1003572,22.7995438],[77.1003649,22.7995365],[77.1003531,22.7995276],[77.1003493,22.7995331],[77.1003414,22.7995278],[77.1003357,22.7995351],[77.1003298,22.7995333],[77.1003258,22.7995244],[77.1003336,22.7995261],[77.1003355,22.7995224],[77.1003296,22.7995171],[77.1003257,22.7995208],[77.1003218,22.799519],[77.1003275,22.7995117],[77.1003274,22.7995045],[77.1003235,22.7995009],[77.1003177,22.7995046],[77.1003118,22.7995011],[77.1003117,22.7994939],[77.1003019,22.799494],[77.1002999,22.7994886],[77.1002804,22.7994889],[77.1002688,22.7994944],[77.1002649,22.7994927],[77.1002628,22.7994819],[77.1002589,22.7994837],[77.1002569,22.7994783],[77.1002511,22.7994784],[77.1002529,22.799473],[77.1002666,22.7994746],[77.1002723,22.7994691],[77.1002703,22.7994619],[77.1002781,22.7994618],[77.1002799,22.7994527],[77.100274,22.7994474],[77.1002643,22.7994511],[77.1002603,22.7994476],[77.1002525,22.7994477],[77.100243,22.7994605],[77.1002471,22.7994748],[77.1002393,22.7994749],[77.1002354,22.7994714],[77.1002298,22.7994859],[77.1002238,22.7994806],[77.1002141,22.7994825],[77.1002159,22.7994716],[77.1002061,22.7994664],[77.1002099,22.7994591],[77.1002157,22.799459],[77.1002159,22.7994698],[77.1002255,22.7994643],[77.1002392,22.7994659],[77.1002411,22.7994623],[77.1002352,22.7994587],[77.1002371,22.7994551],[77.1002331,22.7994516],[77.1002176,22.7994554],[77.1002136,22.79945],[77.1002039,22.7994483],[77.1001942,22.7994557],[77.1001689,22.799456],[77.100167,22.7994596],[77.1001611,22.7994543],[77.1001553,22.7994544],[77.1001515,22.7994617],[77.1001476,22.7994617],[77.1001514,22.7994544],[77.1001474,22.7994509],[77.1001358,22.7994564],[77.1001183,22.7994567],[77.1001144,22.7994603],[77.1001108,22.7994784],[77.1001131,22.7995019],[77.100121,22.7995054],[77.1001365,22.7995016],[77.1001483,22.7995105],[77.1001484,22.7995159],[77.1001543,22.7995176],[77.1001544,22.7995266],[77.1001505,22.7995267],[77.1001467,22.799534],[77.1001526,22.7995339],[77.1001546,22.7995375],[77.1001488,22.7995412],[77.1001429,22.7995394],[77.1001372,22.7995449],[77.1001431,22.7995503],[77.1001412,22.7995539],[77.1001471,22.7995556],[77.1001452,22.7995629],[77.1001412,22.7995575],[77.1001218,22.7995614],[77.1001317,22.7995667],[77.1001358,22.7995811],[77.1001495,22.7995863],[77.1001516,22.7995971],[77.1001652,22.7995969],[77.1001827,22.7995949],[77.1001846,22.7995894],[77.1001807,22.7995877],[77.1001806,22.7995805],[77.1001922,22.7995749],[77.1002001,22.7995838],[77.1002118,22.7995855],[77.1002139,22.7995945],[77.1002275,22.7995925],[77.1002275,22.7995961],[77.1002139,22.7995963],[77.100214,22.7996035],[77.1002296,22.7996015],[77.1002511,22.7996048],[77.1002704,22.7995955]]]}},{"type":"Feature","properties":{"kind":"vegetation"},"geometry":{"type":"Polygon","coordinates":[[[77.1009239,22.7994099],[77.1009316,22.799399],[77.1009314,22.79939],[77.1008847,22.7993888],[77.100885,22.7994105],[77.1009239,22.7994099]]]}},{"type":"Feature","properties":{"kind":"vegetation"},"geometry":{"type":"Polygon","coordinates":[[[77.1002874,22.7994346],[77.1002892,22.7994219],[77.100293,22.7994183],[77.1003067,22.7994217],[77.1003164,22.799418],[77.1003221,22.7994088],[77.1003199,22.799398],[77.1002479,22.7993972],[77.100246,22.7994008],[77.1002539,22.7994079],[77.1002676,22.7994114],[77.1002599,22.7994187],[77.100262,22.7994295],[77.1002777,22.7994365],[77.1002874,22.7994346]]]}},{"type":"Feature","properties":{"kind":"vegetation"},"geometry":{"type":"Polygon","coordinates":[[[77.1008694,22.7994089],[77.1008751,22.7994034],[77.100875,22.7993907],[77.1007756,22.799392],[77.1007816,22.7993974],[77.1008011,22.7993989],[77.1008031,22.7994025],[77.1008303,22.7994021],[77.1008323,22.7994057],[77.100844,22.7994056],[77.100848,22.7994091],[77.1008694,22.7994089]]]}}]}